location_id,city,state,country,postal_code,region,market
1,New York City,New York,United States,10024.0,East,US
2,Wollongong,New South Wales,Australia,,Oceania,APAC
3,Brisbane,Queensland,Australia,,Oceania,APAC
4,Berlin,Berlin,Germany,,Central,EU
5,Dakar,Dakar,Senegal,,Africa,Africa
6,Sydney,New South Wales,Australia,,Oceania,APAC
7,Porirua,Wellington,New Zealand,,Oceania,APAC
8,Hamilton,Waikato,New Zealand,,Oceania,APAC
9,Sacramento,California,United States,95823.0,West,US
10,Concord,North Carolina,United States,28027.0,South,US
11,Alexandria,Virginia,United States,22304.0,South,US
12,Kabul,Kabul,Afghanistan,,Central Asia,APAC
13,Jizan,Jizan,Saudi Arabia,,EMEA,EMEA
14,Toledo,Parana,Brazil,,South,LATAM
15,Mudanjiang,Heilongjiang,China,,North Asia,APAC
16,Paris,Ile-de-France,France,,Central,EU
17,Henderson,Kentucky,United States,42420.0,South,US
18,Prato,Tuscany,Italy,,South,EU
19,Townsville,Queensland,Australia,,Oceania,APAC
20,Uvinza,Kigoma,Tanzania,,Africa,Africa
21,Bytom,Silesia,Poland,,EMEA,EMEA
22,Chicago,Illinois,United States,60610.0,Central,US
23,Suzhou,Anhui,China,,North Asia,APAC
24,Edinburgh,Scotland,United Kingdom,,North,EU
25,Juárez,Chihuahua,Mexico,,North,LATAM
26,Soyapango,San Salvador,El Salvador,,Central,LATAM
27,Taipei,Taipei City,Taiwan,,North Asia,APAC
28,Leipzig,Saxony,Germany,,Central,EU
29,Los Angeles,California,United States,90008.0,West,US
30,Surat,Gujarat,India,,Central Asia,APAC
31,Santo Domingo,Santo Domingo,Dominican Republic,,Caribbean,LATAM
32,Saint-Brieuc,Brittany,France,,Central,EU
33,Amarillo,Texas,United States,79109.0,Central,US
34,Gold Coast,Queensland,Australia,,Oceania,APAC
35,Fresno,California,United States,93727.0,West,US
36,Kamina,Katanga,Democratic Republic of the Congo,,Africa,Africa
37,New York City,New York,United States,10009.0,East,US
38,Burlington,North Carolina,United States,27217.0,South,US
39,Stockton-on-Tees,England,United Kingdom,,North,EU
40,Mataram,Nusa Tenggara Barat,Indonesia,,Southeast Asia,APAC
41,Gorakhpur,Haryana,India,,Central Asia,APAC
42,Thiruvananthapuram,Kerala,India,,Central Asia,APAC
43,Huddersfield,England,United Kingdom,,North,EU
44,Minneapolis,Minnesota,United States,55407.0,Central,US
45,Montreuil,Ile-de-France,France,,Central,EU
46,Shouguang,Shandong,China,,North Asia,APAC
47,Jamshedpur,Jharkhand,India,,Central Asia,APAC
48,Paysandú,Paysandú,Uruguay,,South,LATAM
49,Behshahr,Mazandaran,Iran,,EMEA,EMEA
50,Huntington Beach,California,United States,92646.0,West,US
51,Maputo,Cidade De Maputo,Mozambique,,Africa,Africa
52,Bhopal,Madhya Pradesh,India,,Central Asia,APAC
53,Seattle,Washington,United States,98115.0,West,US
54,Delhi,Delhi,India,,Central Asia,APAC
55,Geraldton,Western Australia,Australia,,Oceania,APAC
56,Tallahassee,Florida,United States,32303.0,South,US
57,Dhaka,Dhaka,Bangladesh,,Central Asia,APAC
58,Munster,Lower Saxony,Germany,,Central,EU
59,Celle,Lower Saxony,Germany,,Central,EU
60,Wuxi,Jiangsu,China,,North Asia,APAC
61,Richmond,Virginia,United States,23223.0,South,US
62,Seville,Andalusía,Spain,,South,EU
63,Raipur,Uttarakhand,India,,Central Asia,APAC
64,Gómez Palacio,Durango,Mexico,,North,LATAM
65,Kharkiv,Kharkiv,Ukraine,,EMEA,EMEA
66,Jinan,Shandong,China,,North Asia,APAC
67,Chinandega,Chinandega,Nicaragua,,Central,LATAM
68,Kananga,Kasai-Occidental,Democratic Republic of the Congo,,Africa,Africa
69,Palembang,Sumatera Selatan,Indonesia,,Southeast Asia,APAC
70,London,England,United Kingdom,,North,EU
71,Melbourne,Victoria,Australia,,Oceania,APAC
72,Atlanta,Georgia,United States,30318.0,South,US
73,Duisburg,North Rhine-Westphalia,Germany,,Central,EU
74,Nanchong,Sichuan,China,,North Asia,APAC
75,Naihati,West Bengal,India,,Central Asia,APAC
76,Lille,Nord-Pas-de-Calais,France,,Central,EU
77,Meknes,Meknès-Tafilalet,Morocco,,Africa,Africa
78,Jackson,Michigan,United States,49201.0,Central,US
79,Philadelphia,Pennsylvania,United States,19134.0,East,US
80,Krefeld,North Rhine-Westphalia,Germany,,Central,EU
81,Bandung,Jawa Barat,Indonesia,,Southeast Asia,APAC
82,Casablanca,Grand Casablanca,Morocco,,Africa,Africa
83,Tongi,Dhaka,Bangladesh,,Central Asia,APAC
84,Henderson,Nevada,United States,89015.0,West,US
85,Montréal,Quebec,Canada,,Canada,Canada
86,Manila,National Capital,Philippines,,Southeast Asia,APAC
87,Newcastle,New South Wales,Australia,,Oceania,APAC
88,Graz,Styria,Austria,,Central,EU
89,Nowra,New South Wales,Australia,,Oceania,APAC
90,Boulogne-Billancourt,Ile-de-France,France,,Central,EU
91,Malakoff,Ile-de-France,France,,Central,EU
92,Kinshasa,Kinshasa,Democratic Republic of the Congo,,Africa,Africa
93,Perth,Western Australia,Australia,,Oceania,APAC
94,Le Bouscat,Aquitaine,France,,Central,EU
95,Puebla,Puebla,Mexico,,North,LATAM
96,Augsburg,Bavaria,Germany,,Central,EU
97,Nice,Provence-Alpes-Côte d'Azur,France,,Central,EU
98,Seattle,Washington,United States,98105.0,West,US
99,Medellín,Antioquia,Colombia,,South,LATAM
100,Bergen op Zoom,North Brabant,Netherlands,,Central,EU
101,Lakewood,New Jersey,United States,8701.0,East,US
102,Hanover,Lower Saxony,Germany,,Central,EU
103,Vigo,Galicia,Spain,,South,EU
104,Gaoyou,Jiangsu,China,,North Asia,APAC
105,Los Angeles,California,United States,90045.0,West,US
106,Bremen,Bremen,Germany,,Central,EU
107,Muret,Midi-Pyrénées,France,,Central,EU
108,Zigong,Sichuan,China,,North Asia,APAC
109,Adelaide,South Australia,Australia,,Oceania,APAC
110,Detroit,Michigan,United States,48205.0,Central,US
111,Chelles,Ile-de-France,France,,Central,EU
112,Kuantan,Pahang,Malaysia,,Southeast Asia,APAC
113,Harrisonburg,Virginia,United States,22801.0,South,US
114,Philadelphia,Pennsylvania,United States,19120.0,East,US
115,Everett,Massachusetts,United States,2149.0,East,US
116,Quito,Pichincha,Ecuador,,South,LATAM
117,Vadodara,Gujarat,India,,Central Asia,APAC
118,Sanya,Hainan,China,,North Asia,APAC
119,Bangkok,Bangkok,Thailand,,Southeast Asia,APAC
120,San Diego,California,United States,92037.0,West,US
121,Tasikmalaya,Jawa Barat,Indonesia,,Southeast Asia,APAC
122,Guaymas,Sonora,Mexico,,North,LATAM
123,Wuhan,Hubei,China,,North Asia,APAC
124,Madison,Wisconsin,United States,53711.0,Central,US
125,Salto,São Paulo,Brazil,,South,LATAM
126,Treviso,Veneto,Italy,,South,EU
127,Hargeysa,Woqooyi Galbeed,Somalia,,Africa,Africa
128,Long Beach,California,United States,90805.0,West,US
129,Yogyakarta,Yogyakarta,Indonesia,,Southeast Asia,APAC
130,Anshan,Liaoning,China,,North Asia,APAC
131,New York City,New York,United States,10035.0,East,US
132,Amsterdam,North Holland,Netherlands,,Central,EU
133,Le Petit-Quevilly,Upper Normandy,France,,Central,EU
134,Bochum,North Rhine-Westphalia,Germany,,Central,EU
135,Hamburg,Hamburg,Germany,,Central,EU
136,Houston,Texas,United States,77036.0,Central,US
137,Mixco,Guatemala,Guatemala,,Central,LATAM
138,Yonkers,New York,United States,10701.0,East,US
139,Morelia,Michoacán,Mexico,,North,LATAM
140,Changchun,Jilin,China,,North Asia,APAC
141,Madrid,Madrid,Spain,,South,EU
142,Jeddah,Makkah,Saudi Arabia,,EMEA,EMEA
143,Norman,Oklahoma,United States,73071.0,Central,US
144,Medan,Sumatera Utara,Indonesia,,Southeast Asia,APAC
145,Jakarta,Jakarta,Indonesia,,Southeast Asia,APAC
146,Lancaster,Ohio,United States,43130.0,East,US
147,Surakarta,Jawa Tengah,Indonesia,,Southeast Asia,APAC
148,Beijing,Beijing,China,,North Asia,APAC
149,Tulancingo,Hidalgo,Mexico,,North,LATAM
150,Brest,Brest,Belarus,,EMEA,EMEA
151,Valencia,Valenciana,Spain,,South,EU
152,Charlotte,North Carolina,United States,28205.0,South,US
153,Zhytomyr,Zhytomyr,Ukraine,,EMEA,EMEA
154,Argenteuil,Ile-de-France,France,,Central,EU
155,Talence,Aquitaine,France,,Central,EU
156,Aurangabad,Bihar,India,,Central Asia,APAC
157,Plaisir,Ile-de-France,France,,Central,EU
158,Harrogate,England,United Kingdom,,North,EU
159,Phnom Penh,Phnom Penh,Cambodia,,Southeast Asia,APAC
160,Mackay,Queensland,Australia,,Oceania,APAC
161,North Las Vegas,Nevada,United States,89031.0,West,US
162,Jambi,Jambi,Indonesia,,Southeast Asia,APAC
163,Los Angeles,California,United States,90049.0,West,US
164,Moers,North Rhine-Westphalia,Germany,,Central,EU
165,Newark,Delaware,United States,19711.0,East,US
166,Shenzhen,Guangdong,China,,North Asia,APAC
167,Launceston,Tasmania,Australia,,Oceania,APAC
168,Marikina,National Capital,Philippines,,Southeast Asia,APAC
169,Johannesburg,Gauteng,South Africa,,Africa,Africa
170,Barakaldo,Basque Country,Spain,,South,EU
171,Providence,Rhode Island,United States,2908.0,East,US
172,Long Beach,New York,United States,11561.0,East,US
173,Qingdao,Shandong,China,,North Asia,APAC
174,San Francisco,California,United States,94122.0,West,US
175,Shiraz,Fars,Iran,,EMEA,EMEA
176,Bokaro,Jharkhand,India,,Central Asia,APAC
177,Fuji,Shizuoka,Japan,,North Asia,APAC
178,Benidorm,Valenciana,Spain,,South,EU
179,Kozhikode,Kerala,India,,Central Asia,APAC
180,Kuala Lumpur,Kuala Lumpur,Malaysia,,Southeast Asia,APAC
181,Astrakhan',Astrakhan',Russia,,EMEA,EMEA
182,Columbus,Ohio,United States,43229.0,East,US
183,Xiangtan,Hunan,China,,North Asia,APAC
184,Shaoxing,Zhejiang,China,,North Asia,APAC
185,Jabalpur,Madhya Pradesh,India,,Central Asia,APAC
186,Patna,Bihar,India,,Central Asia,APAC
187,La Baule-Escoublac,Pays de la Loire,France,,Central,EU
188,Dijon,Burgundy,France,,Central,EU
189,Los Angeles,California,United States,90032.0,West,US
190,Cape Town,Western Cape,South Africa,,Africa,Africa
191,Cairo,Al Qahirah,Egypt,,Africa,Africa
192,West Bromwich,England,United Kingdom,,North,EU
193,Detroit,Michigan,United States,48227.0,Central,US
194,Baku,Baki,Azerbaijan,,EMEA,EMEA
195,Burnley,England,United Kingdom,,North,EU
196,Laval,Pays de la Loire,France,,Central,EU
197,Vilnius,Vilnius,Lithuania,,EMEA,EMEA
198,Buenos Aires,Buenos Aires,Argentina,,South,LATAM
199,Girga,Suhaj,Egypt,,Africa,Africa
200,Kochi,Kerala,India,,Central Asia,APAC
201,Maseru,Maseru,Lesotho,,Africa,Africa
202,Wellington,Wellington,New Zealand,,Oceania,APAC
203,Luoyang,Henan,China,,North Asia,APAC
204,Feira de Santana,Bahia,Brazil,,South,LATAM
205,Matagalpa,Matagalpa,Nicaragua,,Central,LATAM
206,Virginia Beach,Virginia,United States,23464.0,South,US
207,Managua,Managua,Nicaragua,,Central,LATAM
208,Wuhai,Inner Mongolia,China,,North Asia,APAC
209,Nantes,Pays de la Loire,France,,Central,EU
210,Strasbourg,Alsace,France,,Central,EU
211,Surabaya,Jawa Timur,Indonesia,,Southeast Asia,APAC
212,Tupã,São Paulo,Brazil,,South,LATAM
213,Vienna,Vienna,Austria,,Central,EU
214,Mexico City,Distrito Federal,Mexico,,North,LATAM
215,Hobart,Tasmania,Australia,,Oceania,APAC
216,Hirakata,Osaka,Japan,,North Asia,APAC
217,Preston,England,United Kingdom,,North,EU
218,Agra,Uttar Pradesh,India,,Central Asia,APAC
219,Granollers,Catalonia,Spain,,South,EU
220,Ho Chi Minh City,Ho Chí Minh City,Vietnam,,Southeast Asia,APAC
221,Camagüey,Camagüey,Cuba,,Caribbean,LATAM
222,Morristown,New Jersey,United States,7960.0,East,US
223,Piatra-Neamt,Neamt,Romania,,EMEA,EMEA
224,Milpa Alta,Distrito Federal,Mexico,,North,LATAM
225,León,Guanajuato,Mexico,,North,LATAM
226,San Francisco,California,United States,94110.0,West,US
227,Izmir,Izmir,Turkey,,EMEA,EMEA
228,Coyoacán,Distrito Federal,Mexico,,North,LATAM
229,Manukau City,Auckland,New Zealand,,Oceania,APAC
230,Yaounde,Centre,Cameroon,,Africa,Africa
231,Newcastle upon Tyne,England,United Kingdom,,North,EU
232,Dehra Dun,Uttarakhand,India,,Central Asia,APAC
233,Santander,Cantabria,Spain,,South,EU
234,Cangzhou,Hebei,China,,North Asia,APAC
235,Shanghai,Shanghai,China,,North Asia,APAC
236,León,León,Nicaragua,,Central,LATAM
237,Rybinsk,Yaroslavl',Russia,,EMEA,EMEA
238,Ibiúna,São Paulo,Brazil,,South,LATAM
239,Canberra,Australian Capital Territory,Australia,,Oceania,APAC
240,Port Elizabeth,Eastern Cape,South Africa,,Africa,Africa
241,Newark,Ohio,United States,43055.0,East,US
242,Cambridge,England,United Kingdom,,North,EU
243,Kota,Chhattisgarh,India,,Central Asia,APAC
244,Christchurch,Canterbury,New Zealand,,Oceania,APAC
245,Vincennes,Ile-de-France,France,,Central,EU
246,Chongqing,Chongqing,China,,North Asia,APAC
247,Gyula,Bekes,Hungary,,EMEA,EMEA
248,Lucknow,Uttar Pradesh,India,,Central Asia,APAC
249,Florence,Kentucky,United States,41042.0,South,US
250,Turin,Piedmont,Italy,,South,EU
251,Springfield,Missouri,United States,65807.0,Central,US
252,Singapore,Singapore,Singapore,,Southeast Asia,APAC
253,Benguela,Benguela,Angola,,Africa,Africa
254,Lafayette,Indiana,United States,47905.0,Central,US
255,Himeji,Hyogo,Japan,,North Asia,APAC
256,Kendari,Sulawesi Tenggara,Indonesia,,Southeast Asia,APAC
257,Mejicanos,San Salvador,El Salvador,,Central,LATAM
258,Barcelona,Catalonia,Spain,,South,EU
259,Menton,Provence-Alpes-Côte d'Azur,France,,Central,EU
260,Huntsville,Alabama,United States,35810.0,South,US
261,Clermont-Ferrand,Auvergne,France,,Central,EU
262,Buzau,Buzau,Romania,,EMEA,EMEA
263,Bayeux,Paraíba,Brazil,,South,LATAM
264,Columbus,Georgia,United States,31907.0,South,US
265,San Antonio,Texas,United States,78207.0,Central,US
266,Darwin,Northern Territory,Australia,,Oceania,APAC
267,Jamestown,New York,United States,14701.0,East,US
268,Bayeux,Lower Normandy,France,,Central,EU
269,Lens,Nord-Pas-de-Calais,France,,Central,EU
270,Lannion,Brittany,France,,Central,EU
271,Iserlohn,North Rhine-Westphalia,Germany,,Central,EU
272,Kalemie,Katanga,Democratic Republic of the Congo,,Africa,Africa
273,Ghent,East Flanders,Belgium,,Central,EU
274,Indianapolis,Indiana,United States,46203.0,Central,US
275,Marseille,Provence-Alpes-Côte d'Azur,France,,Central,EU
276,Lahore,Punjab,Pakistan,,Central Asia,APAC
277,Grenoble,Rhône-Alpes,France,,Central,EU
278,Espoo,Uusimaa,Finland,,North,EU
279,Whyalla,South Australia,Australia,,Oceania,APAC
280,Ivry-sur-Seine,Ile-de-France,France,,Central,EU
281,Kanpur,Uttar Pradesh,India,,Central Asia,APAC
282,Saint-Laurent-du-Var,Provence-Alpes-Côte d'Azur,France,,Central,EU
283,Cartagena,Bolívar,Colombia,,South,LATAM
284,Cancún,Quintana Roo,Mexico,,North,LATAM
285,Harbin,Heilongjiang,China,,North Asia,APAC
286,Kumasi,Ashanti,Ghana,,Africa,Africa
287,Salem,Tamil Nadu,India,,Central Asia,APAC
288,Angers,Pays de la Loire,France,,Central,EU
289,Khorramabad,Lorestan,Iran,,EMEA,EMEA
290,Chennai,Tamil Nadu,India,,Central Asia,APAC
291,Barletta,Apulia,Italy,,South,EU
292,Tamworth,England,United Kingdom,,North,EU
293,Kulti,West Bengal,India,,Central Asia,APAC
294,Le Mans,Pays de la Loire,France,,Central,EU
295,Mianyang,Sichuan,China,,North Asia,APAC
296,Cadereyta,Nuevo León,Mexico,,North,LATAM
297,Bundaberg,Queensland,Australia,,Oceania,APAC
298,Valparaíso de Goiás,Goiás,Brazil,,South,LATAM
299,Manado,Sulawesi Utara,Indonesia,,Southeast Asia,APAC
300,Muzaffarpur,Bihar,India,,Central Asia,APAC
301,Kermanshah,Kermanshah,Iran,,EMEA,EMEA
302,Thane,Maharashtra,India,,Central Asia,APAC
303,Piedecuesta,Santander,Colombia,,South,LATAM
304,Bangalore,Karnataka,India,,Central Asia,APAC
305,Xiamen,Fujian,China,,North Asia,APAC
306,Detroit,Michigan,United States,48234.0,Central,US
307,Kitwe,Copperbelt,Zambia,,Africa,Africa
308,Jieyang,Guangdong,China,,North Asia,APAC
309,Hamamatsu,Shizuoka,Japan,,North Asia,APAC
310,Ningbo,Zhejiang,China,,North Asia,APAC
311,Jodhpur,Rajasthan,India,,Central Asia,APAC
312,Weimar,Thuringia,Germany,,Central,EU
313,Auckland,Auckland,New Zealand,,Oceania,APAC
314,Lubumbashi,Katanga,Democratic Republic of the Congo,,Africa,Africa
315,Franklin,Wisconsin,United States,53132.0,Central,US
316,Omaha,Nebraska,United States,68104.0,Central,US
317,Nagpur,Maharashtra,India,,Central Asia,APAC
318,Villahermosa,Tabasco,Mexico,,North,LATAM
319,Oyonnax,Rhône-Alpes,France,,Central,EU
320,Metepec,México,Mexico,,North,LATAM
321,Santa Ana,California,United States,92704.0,West,US
322,Antony,Ile-de-France,France,,Central,EU
323,Culiacán,Sinaloa,Mexico,,North,LATAM
324,Mobile,Alabama,United States,36608.0,South,US
325,Al Amarah,Maysan,Iraq,,EMEA,EMEA
326,Mashhad,Razavi Khorasan,Iran,,EMEA,EMEA
327,Springfield,Virginia,United States,22153.0,South,US
328,Bhavnagar,Gujarat,India,,Central Asia,APAC
329,Rome,Lazio,Italy,,South,EU
330,Palma de Mallorca,Balearic Islands,Spain,,South,EU
331,Saint-Priest,Rhône-Alpes,France,,Central,EU
332,Gyor,Gyor,Hungary,,EMEA,EMEA
333,Monrovia,Montserrado,Liberia,,Africa,Africa
334,Santiago de Cuba,Santiago de Cuba,Cuba,,Caribbean,LATAM
335,Bogotá,Bogota,Colombia,,South,LATAM
336,Erlangen,Bavaria,Germany,,Central,EU
337,Tbilisi,Tbilisi,Georgia,,EMEA,EMEA
338,Jaipur,Rajasthan,India,,Central Asia,APAC
339,Suzhou,Gansu,China,,North Asia,APAC
340,Reggio nell'Emilia,Emilia-Romagna,Italy,,South,EU
341,Azcapotzalco,Distrito Federal,Mexico,,North,LATAM
342,Lublin,Lublin,Poland,,EMEA,EMEA
343,Zurich,Zürich,Switzerland,,Central,EU
344,Elbasan,Elbasan,Albania,,EMEA,EMEA
345,Voronezh,Voronezh,Russia,,EMEA,EMEA
346,Shimonoseki,Yamaguchi,Japan,,North Asia,APAC
347,Palu,Sulawesi Tengah,Indonesia,,Southeast Asia,APAC
348,Imphal,Manipur,India,,Central Asia,APAC
349,Shenyang,Liaoning,China,,North Asia,APAC
350,Bethlehem,Pennsylvania,United States,18018.0,East,US
351,Koumra,Mandoul,Chad,,Africa,Africa
352,Ballarat,Victoria,Australia,,Oceania,APAC
353,Podgorica,Podgorica,Montenegro,,EMEA,EMEA
354,Ribeirão Preto,São Paulo,Brazil,,South,LATAM
355,Zapopan,Jalisco,Mexico,,North,LATAM
356,Guelph,Ontario,Canada,,Canada,Canada
357,Bellingham,Washington,United States,98226.0,West,US
358,Bordeaux,Aquitaine,France,,Central,EU
359,Hamadan,Hamadan,Iran,,EMEA,EMEA
360,Windhoek,Khomas,Namibia,,Africa,Africa
361,Eindhoven,North Brabant,Netherlands,,Central,EU
362,Quetzaltenango,Quezaltenango,Guatemala,,Central,LATAM
363,Antiguo Cuscatlán,La Libertad,El Salvador,,Central,LATAM
364,Cranston,Rhode Island,United States,2920.0,East,US
365,Guantánamo,Guantánamo,Cuba,,Caribbean,LATAM
366,Bacolod City,Western Visayas,Philippines,,Southeast Asia,APAC
367,Kwinana,Western Australia,Australia,,Oceania,APAC
368,Deuil-la-Barre,Ile-de-France,France,,Central,EU
369,Lafayette,Louisiana,United States,70506.0,South,US
370,Lisbon,Lisboa,Portugal,,South,EU
371,Jhansi,Uttar Pradesh,India,,Central Asia,APAC
372,Amravati,Maharashtra,India,,Central Asia,APAC
373,Wafangdian,Liaoning,China,,North Asia,APAC
374,San Juan de la Maguana,San Juan,Dominican Republic,,Caribbean,LATAM
375,Chicago,Illinois,United States,60623.0,Central,US
376,Antananarivo,Analamanga,Madagascar,,Africa,Africa
377,Ufa,Bashkortostan,Russia,,EMEA,EMEA
378,Tehran,Tehran,Iran,,EMEA,EMEA
379,Bendigo,Victoria,Australia,,Oceania,APAC
380,Quetta,Baluchistan,Pakistan,,Central Asia,APAC
381,Rovigo,Veneto,Italy,,South,EU
382,Soacha,Cundinamarca,Colombia,,South,LATAM
383,Dudley,England,United Kingdom,,North,EU
384,Vienna,Vienna,Austria,,EMEA,EMEA
385,Ris-Orangis,Ile-de-France,France,,Central,EU
386,Levallois-Perret,Ile-de-France,France,,Central,EU
387,Luts'k,Volyn,Ukraine,,EMEA,EMEA
388,San Salvador,San Salvador,El Salvador,,Central,LATAM
389,Lorain,Ohio,United States,44052.0,East,US
390,Stoke-on-Trent,England,United Kingdom,,North,EU
391,São Paulo,São Paulo,Brazil,,South,LATAM
392,Huaibei,Anhui,China,,North Asia,APAC
393,Lehi,Utah,United States,84043.0,West,US
394,Masterton,Wellington,New Zealand,,Oceania,APAC
395,Seattle,Washington,United States,98103.0,West,US
396,Whangarei,Northland,New Zealand,,Oceania,APAC
397,Kunming,Yunnan,China,,North Asia,APAC
398,Columbia,Missouri,United States,65203.0,Central,US
399,Vancouver,British Columbia,Canada,,Canada,Canada
400,Pamplona,Navarra,Spain,,South,EU
401,Haninge,Stockholm,Sweden,,North,EU
402,Oviedo,Asturias,Spain,,South,EU
403,Carrollton,Texas,United States,75007.0,Central,US
404,Nasik,Maharashtra,India,,Central Asia,APAC
405,Torrevieja,Valenciana,Spain,,South,EU
406,Ube,Yamaguchi,Japan,,North Asia,APAC
407,New York City,New York,United States,10011.0,East,US
408,Pozzuoli,Campania,Italy,,South,EU
409,Poltava,Poltava,Ukraine,,EMEA,EMEA
410,Depok,Yogyakarta,Indonesia,,Southeast Asia,APAC
411,Regensburg,Bavaria,Germany,,Central,EU
412,Visakhapatnam,Andhra Pradesh,India,,Central Asia,APAC
413,Clamart,Ile-de-France,France,,Central,EU
414,Los Angeles,California,United States,90004.0,West,US
415,Garbsen,Lower Saxony,Germany,,Central,EU
416,Jixi,Heilongjiang,China,,North Asia,APAC
417,Potchefstroom,North-West,South Africa,,Africa,Africa
418,Vladimir,Vladimir,Russia,,EMEA,EMEA
419,Burgos,Castile and León,Spain,,South,EU
420,Kollam,Kerala,India,,Central Asia,APAC
421,Yangon,Yangon,Myanmar (Burma),,Southeast Asia,APAC
422,Bondy,Ile-de-France,France,,Central,EU
423,Mont-de-Marsan,Aquitaine,France,,Central,EU
424,Lyon,Rhône-Alpes,France,,Central,EU
425,Houston,Texas,United States,77095.0,Central,US
426,Depok,Jawa Barat,Indonesia,,Southeast Asia,APAC
427,Santo André,São Paulo,Brazil,,South,LATAM
428,Menden,North Rhine-Westphalia,Germany,,Central,EU
429,Spanish Town,Saint Catherine,Jamaica,,Caribbean,LATAM
430,Taupo,Waikato,New Zealand,,Oceania,APAC
431,Fengcheng,Liaoning,China,,North Asia,APAC
432,Vernon,Upper Normandy,France,,Central,EU
433,Tianjin,Tianjin,China,,North Asia,APAC
434,Chihuahua,Chihuahua,Mexico,,North,LATAM
435,Elx,Valenciana,Spain,,South,EU
436,Santa Cruz de Barahona,Barahona,Dominican Republic,,Caribbean,LATAM
437,Brasília,Federal District,Brazil,,South,LATAM
438,Lanzhou,Gansu,China,,North Asia,APAC
439,Bologna,Emilia-Romagna,Italy,,South,EU
440,Alice Springs,Northern Territory,Australia,,Oceania,APAC
441,Doha,Ad Dawhah,Qatar,,EMEA,EMEA
442,Velletri,Lazio,Italy,,South,EU
443,Matsubara,Oita,Japan,,North Asia,APAC
444,Gloucester,England,United Kingdom,,North,EU
445,Puteaux,Ile-de-France,France,,Central,EU
446,Geelong,Victoria,Australia,,Oceania,APAC
447,Whakatane,Bay of Plenty,New Zealand,,Oceania,APAC
448,Açu,Rio Grande do Norte,Brazil,,South,LATAM
449,Colchester,England,United Kingdom,,North,EU
450,Sandy Springs,Georgia,United States,30328.0,South,US
451,Montpellier,Languedoc-Roussillon,France,,Central,EU
452,Wetzlar,Hesse,Germany,,Central,EU
453,Cleveland,Ohio,United States,44105.0,East,US
454,Shashi,Hubei,China,,North Asia,APAC
455,Chaoyang,Jilin,China,,North Asia,APAC
456,Rugby,England,United Kingdom,,North,EU
457,Round Rock,Texas,United States,78664.0,Central,US
458,Saint-Chamond,Rhône-Alpes,France,,Central,EU
459,Fontenay-aux-Roses,Ile-de-France,France,,Central,EU
460,Baotou,Inner Mongolia,China,,North Asia,APAC
461,Fort Worth,Texas,United States,76106.0,Central,US
462,Joinville,Santa Catarina,Brazil,,South,LATAM
463,Colombo,Parana,Brazil,,South,LATAM
464,Dover,New Hampshire,United States,3820.0,East,US
465,Jining,Shandong,China,,North Asia,APAC
466,Zhenjiang,Jiangsu,China,,North Asia,APAC
467,York,England,United Kingdom,,North,EU
468,Jining,Inner Mongolia,China,,North Asia,APAC
469,Mérida,Yucatán,Mexico,,North,LATAM
470,Villa Nueva,Guatemala,Guatemala,,Central,LATAM
471,Annecy-le-Vieux,Rhône-Alpes,France,,Central,EU
472,Drancy,Ile-de-France,France,,Central,EU
473,Jacksonville,Florida,United States,32216.0,South,US
474,Dar es Salaam,Dar Es Salaam,Tanzania,,Africa,Africa
475,Nuremberg,Bavaria,Germany,,Central,EU
476,Concord,California,United States,94521.0,West,US
477,Macheng,Hubei,China,,North Asia,APAC
478,Beni Mellal,Tadla-Azilal,Morocco,,Africa,Africa
479,Roswell,Georgia,United States,30076.0,South,US
480,Madurai,Tamil Nadu,India,,Central Asia,APAC
481,Dortmund,North Rhine-Westphalia,Germany,,Central,EU
482,Loubomo,Niari,Republic of the Congo,,Africa,Africa
483,Jiangmen,Guangdong,China,,North Asia,APAC
484,Troy,Ohio,United States,45373.0,East,US
485,Kaliningrad,Kaliningrad,Russia,,EMEA,EMEA
486,Kristiansand,Vest-Agder,Norway,,North,EU
487,Ad Diwaniyah,Al Qadisiyah,Iraq,,EMEA,EMEA
488,Philadelphia,Pennsylvania,United States,19140.0,East,US
489,Bayonne,Aquitaine,France,,Central,EU
490,Avondale,Arizona,United States,85323.0,West,US
491,Fairfield,Ohio,United States,45014.0,East,US
492,San José de las Lajas,Mayabeque,Cuba,,Caribbean,LATAM
493,Algiers,Alger,Algeria,,Africa,Africa
494,Lowell,Massachusetts,United States,1852.0,East,US
495,Istanbul,Istanbul,Turkey,,EMEA,EMEA
496,Kaunas,Kaunas,Lithuania,,EMEA,EMEA
497,Ardabil,Ardabil,Iran,,EMEA,EMEA
498,Mexicali,Baja California,Mexico,,North,LATAM
499,Mecca,Makkah,Saudi Arabia,,EMEA,EMEA
500,Alexandria,Al Iskandariyah,Egypt,,Africa,Africa
501,Queanbeyan,New South Wales,Australia,,Oceania,APAC
502,Guilin,Guangxi,China,,North Asia,APAC
503,Gaomi,Shandong,China,,North Asia,APAC
504,Pretoria,Gauteng,South Africa,,Africa,Africa
505,Blackpool,England,United Kingdom,,North,EU
506,Schwerin,Mecklenburg-Vorpommern,Germany,,Central,EU
507,Aligarh,Uttar Pradesh,India,,Central Asia,APAC
508,Trento,Trentino-Alto Adige,Italy,,South,EU
509,Ravenna,Emilia-Romagna,Italy,,South,EU
510,Basel,Basel-Stadt,Switzerland,,Central,EU
511,Matola,Maputo,Mozambique,,Africa,Africa
512,Poitiers,Poitou-Charentes,France,,Central,EU
513,Seoul,Seoul,South Korea,,North Asia,APAC
514,Mulhouse,Alsace,France,,Central,EU
515,Milan,Lombardy,Italy,,South,EU
516,Kota Kinabalu,Sabah,Malaysia,,Southeast Asia,APAC
517,Denver,Colorado,United States,80219.0,West,US
518,Uberaba,Minas Gerais,Brazil,,South,LATAM
519,Rueil-Malmaison,Ile-de-France,France,,Central,EU
520,Crawley,England,United Kingdom,,North,EU
521,Makurdi,Benue,Nigeria,,Africa,Africa
522,Tallinn,Harjumaa,Estonia,,EMEA,EMEA
523,Swansea,Wales,United Kingdom,,North,EU
524,Paranaguá,Parana,Brazil,,South,LATAM
525,Samarinda,Kalimantan Timur,Indonesia,,Southeast Asia,APAC
526,Vijayawada,Andhra Pradesh,India,,Central Asia,APAC
527,Bandirma,Balikesir,Turkey,,EMEA,EMEA
528,Gagnoa,Fromager,Cote d'Ivoire,,Africa,Africa
529,Tegucigalpa,Francisco Morazán,Honduras,,Central,LATAM
530,Villiers-le-Bel,Ile-de-France,France,,Central,EU
531,Brampton,Ontario,Canada,,Canada,Canada
532,Columbia,Maryland,United States,21044.0,East,US
533,Tlaquepaque,Jalisco,Mexico,,North,LATAM
534,Saint-Denis,Ile-de-France,France,,Central,EU
535,Mangalore,Karnataka,India,,Central Asia,APAC
536,Sancti Spíritus,Sancti Spíritus,Cuba,,Caribbean,LATAM
537,Indaial,Santa Catarina,Brazil,,South,LATAM
538,Bergen,Hordaland,Norway,,North,EU
539,Riyadh,Ar Riyad,Saudi Arabia,,EMEA,EMEA
540,Lucerne,Lucerne,Switzerland,,Central,EU
541,Fernando de la Mora,Central,Paraguay,,South,LATAM
542,Noblesville,Indiana,United States,46060.0,Central,US
543,Malayer,Hamadan,Iran,,EMEA,EMEA
544,Mbuji-mayi,Kasai-Oriental,Democratic Republic of the Congo,,Africa,Africa
545,Gwalior,Madhya Pradesh,India,,Central Asia,APAC
546,Luoyang,Fujian,China,,North Asia,APAC
547,Southend-on-Sea,England,United Kingdom,,North,EU
548,Thionville,Lorraine,France,,Central,EU
549,Srinagar,Jammu and Kashmir,India,,Central Asia,APAC
550,Allahabad,Uttar Pradesh,India,,Central Asia,APAC
551,Bekasi,Jawa Barat,Indonesia,,Southeast Asia,APAC
552,Daloa,Haut-Sassandra,Cote d'Ivoire,,Africa,Africa
553,Saltillo,Coahuila,Mexico,,North,LATAM
554,Anaheim,California,United States,92804.0,West,US
555,Woking,England,United Kingdom,,North,EU
556,Baguio City,Cordillera,Philippines,,Southeast Asia,APAC
557,Magnitogorsk,Chelyabinsk,Russia,,EMEA,EMEA
558,Varanasi,Uttar Pradesh,India,,Central Asia,APAC
559,Serra,Espírito Santo,Brazil,,South,LATAM
560,Florence,Tuscany,Italy,,South,EU
561,Raleigh,North Carolina,United States,27604.0,South,US
562,Pescara,Abruzzi,Italy,,South,EU
563,Warwick,Rhode Island,United States,2886.0,East,US
564,Chittagong,Chittagong,Bangladesh,,Central Asia,APAC
565,Monclova,Coahuila,Mexico,,North,LATAM
566,Worthing,England,United Kingdom,,North,EU
567,Lençóis Paulista,São Paulo,Brazil,,South,LATAM
568,Coffs Harbour,New South Wales,Australia,,Oceania,APAC
569,Baghdad,Baghdad,Iraq,,EMEA,EMEA
570,San Severo,Apulia,Italy,,South,EU
571,San Luis,San Luis,Argentina,,South,LATAM
572,Guangzhou,Guangdong,China,,North Asia,APAC
573,Tiruppur,Tamil Nadu,India,,Central Asia,APAC
574,San Luis Potosí,San Luis Potosí,Mexico,,North,LATAM
575,Chicago,Illinois,United States,60653.0,Central,US
576,Le Chesnay,Ile-de-France,France,,Central,EU
577,Prague,Prague,Czech Republic,,EMEA,EMEA
578,Lansing,Michigan,United States,48911.0,Central,US
579,Dieppe,Upper Normandy,France,,Central,EU
580,Gap,Provence-Alpes-Côte d'Azur,France,,Central,EU
581,Redlands,California,United States,92374.0,West,US
582,Shuangcheng,Heilongjiang,China,,North Asia,APAC
583,Bangui,Bangui,Central African Republic,,Africa,Africa
584,Hastings,Hawke's Bay,New Zealand,,Oceania,APAC
585,Oakland,California,United States,94601.0,West,US
586,Irapuato,Guanajuato,Mexico,,North,LATAM
587,Xinyi,Guangdong,China,,North Asia,APAC
588,Bhilwara,Rajasthan,India,,Central Asia,APAC
589,Antwerp,Antwerp,Belgium,,Central,EU
590,Orange,New South Wales,Australia,,Oceania,APAC
591,Napier,Hawke's Bay,New Zealand,,Oceania,APAC
592,Torreón,Coahuila,Mexico,,North,LATAM
593,Noda,Chiba,Japan,,North Asia,APAC
594,Porto-Novo,Ouémé,Benin,,Africa,Africa
595,Outreau,Nord-Pas-de-Calais,France,,Central,EU
596,Burlington,Vermont,United States,5408.0,East,US
597,Muskogee,Oklahoma,United States,74403.0,Central,US
598,Bourg-en-Bresse,Rhône-Alpes,France,,Central,EU
599,Americana,São Paulo,Brazil,,South,LATAM
600,Kashan,Esfahan,Iran,,EMEA,EMEA
601,Sunbury,Victoria,Australia,,Oceania,APAC
602,Herford,North Rhine-Westphalia,Germany,,Central,EU
603,Chesapeake,Virginia,United States,23320.0,South,US
604,Cairns,Queensland,Australia,,Oceania,APAC
605,L'viv,L'viv,Ukraine,,EMEA,EMEA
606,Oslo,Oslo,Norway,,North,EU
607,Arbil,Arbil,Iraq,,EMEA,EMEA
608,Des Moines,Washington,United States,98198.0,West,US
609,Bradford,England,United Kingdom,,North,EU
610,San Pedro de Macorís,San Pedro de Macorís,Dominican Republic,,Caribbean,LATAM
611,Estelí,Estelí,Nicaragua,,Central,LATAM
612,San Sebastian,Basque Country,Spain,,South,EU
613,Schiltigheim,Alsace,France,,Central,EU
614,Milwaukee,Wisconsin,United States,53209.0,Central,US
615,Consolación del Sur,Pinar del Río,Cuba,,Caribbean,LATAM
616,Tangier,Tanger-Tétouan,Morocco,,Africa,Africa
617,Oruro,Oruro,Bolivia,,South,LATAM
618,Munich,Bavaria,Germany,,Central,EU
619,Malegaon,Maharashtra,India,,Central Asia,APAC
620,Euskirchen,North Rhine-Westphalia,Germany,,Central,EU
621,Sakai,Gunma,Japan,,North Asia,APAC
622,Blagoveshchensk,Amur,Russia,,EMEA,EMEA
623,Tijuana,Baja California,Mexico,,North,LATAM
624,Philadelphia,Pennsylvania,United States,19143.0,East,US
625,Hyderabad,Telangana,India,,Central Asia,APAC
626,Villeneuve-Saint-Georges,Ile-de-France,France,,Central,EU
627,Takasaki,Gunma,Japan,,North Asia,APAC
628,Bhilai,Chhattisgarh,India,,Central Asia,APAC
629,Santa Barbara,California,United States,93101.0,West,US
630,Rochester,New York,United States,14609.0,East,US
631,Durres,Durrës,Albania,,EMEA,EMEA
632,Frankfurt,Hesse,Germany,,Central,EU
633,Anqing,Anhui,China,,North Asia,APAC
634,Victoria,Tamaulipas,Mexico,,North,LATAM
635,San Gabriel,California,United States,91776.0,West,US
636,Copiapó,Atacama,Chile,,South,LATAM
637,Cincinnati,Ohio,United States,45231.0,East,US
638,Ensenada,Baja California,Mexico,,North,LATAM
639,La Romana,La Romana,Dominican Republic,,Caribbean,LATAM
640,Fort-de-France,Martinique,Martinique,,Caribbean,LATAM
641,Kingswood,England,United Kingdom,,North,EU
642,Trier,Rhineland-Palatinate,Germany,,Central,EU
643,Leeds,England,United Kingdom,,North,EU
644,Luoyang,Guangdong,China,,North Asia,APAC
645,Petrópolis,Rio de Janeiro,Brazil,,South,LATAM
646,Vantaa,Uusimaa,Finland,,North,EU
647,Watertown,New York,United States,13601.0,East,US
648,Noisy-le-Grand,Ile-de-France,France,,Central,EU
649,Homs,Hims,Syria,,EMEA,EMEA
650,Liaoyang,Liaoning,China,,North Asia,APAC
651,Fayetteville,North Carolina,United States,28314.0,South,US
652,Araguaína,Tocantins,Brazil,,South,LATAM
653,Denpasar,Bali,Indonesia,,Southeast Asia,APAC
654,Toulon,Provence-Alpes-Côte d'Azur,France,,Central,EU
655,Pune,Maharashtra,India,,Central Asia,APAC
656,Tucson,Arizona,United States,85705.0,West,US
657,Miami,Florida,United States,33180.0,South,US
658,Goyang,Gyeonggi,South Korea,,North Asia,APAC
659,Kalyan,Maharashtra,India,,Central Asia,APAC
660,Khulna,Khulna,Bangladesh,,Central Asia,APAC
661,Avadi,Tamil Nadu,India,,Central Asia,APAC
662,Semarang,Jawa Tengah,Indonesia,,Southeast Asia,APAC
663,Stuttgart,Baden-Württemberg,Germany,,Central,EU
664,Chelyabinsk,Chelyabinsk,Russia,,EMEA,EMEA
665,Zhanjiang,Guangdong,China,,North Asia,APAC
666,Greenville,North Carolina,United States,27834.0,South,US
667,Yueyang,Hunan,China,,North Asia,APAC
668,Pueblo,Colorado,United States,81001.0,West,US
669,Reutlingen,Baden-Württemberg,Germany,,Central,EU
670,Arras,Nord-Pas-de-Calais,France,,Central,EU
671,Matsudo,Chiba,Japan,,North Asia,APAC
672,Bayamo,Granma,Cuba,,Caribbean,LATAM
673,Reynosa,Tamaulipas,Mexico,,North,LATAM
674,Chester,England,United Kingdom,,North,EU
675,Rostock,Mecklenburg-Vorpommern,Germany,,Central,EU
676,Namur,Namur,Belgium,,Central,EU
677,Aachen,North Rhine-Westphalia,Germany,,Central,EU
678,Rasht,Gilan,Iran,,EMEA,EMEA
679,Grajaú,Maranhão,Brazil,,South,LATAM
680,Koshigaya,Saitama,Japan,,North Asia,APAC
681,Beirut,Beirut,Lebanon,,EMEA,EMEA
682,Huelva,Andalusía,Spain,,South,EU
683,Hefei,Anhui,China,,North Asia,APAC
684,Louisville,Kentucky,United States,40214.0,South,US
685,Valenzuela,National Capital,Philippines,,Southeast Asia,APAC
686,Thanjavur,Tamil Nadu,India,,Central Asia,APAC
687,Tegal,Jawa Tengah,Indonesia,,Southeast Asia,APAC
688,Kitchener,Ontario,Canada,,Canada,Canada
689,Sevran,Ile-de-France,France,,Central,EU
690,Hastings,England,United Kingdom,,North,EU
691,Halmstad,Halland,Sweden,,North,EU
692,Amstelveen,North Holland,Netherlands,,Central,EU
693,Portici,Campania,Italy,,South,EU
694,Toledo,Ohio,United States,43615.0,East,US
695,Sparks,Nevada,United States,89431.0,West,US
696,Murray Bridge,South Australia,Australia,,Oceania,APAC
697,Tengzhou,Shandong,China,,North Asia,APAC
698,Bagneux,Ile-de-France,France,,Central,EU
699,Balikpapan,Kalimantan Timur,Indonesia,,Southeast Asia,APAC
700,Bhatinda,Punjab,India,,Central Asia,APAC
701,Poza Rica de Hidalgo,Veracruz,Mexico,,North,LATAM
702,Colmar,Alsace,France,,Central,EU
703,Clichy-sous-Bois,Ile-de-France,France,,Central,EU
704,La Seyne-sur-Mer,Provence-Alpes-Côte d'Azur,France,,Central,EU
705,Antipolo,Calabarzon,Philippines,,Southeast Asia,APAC
706,Creil,Picardy,France,,Central,EU
707,Curitiba,Parana,Brazil,,South,LATAM
708,Sale,Rabat-Salé-Zemmour-Zaer,Morocco,,Africa,Africa
709,Albury,New South Wales,Australia,,Oceania,APAC
710,Kutahya,Kutahya,Turkey,,EMEA,EMEA
711,Daqing,Heilongjiang,China,,North Asia,APAC
712,Waynesboro,Virginia,United States,22980.0,South,US
713,Rockhampton,Queensland,Australia,,Oceania,APAC
714,Accra,Greater Accra,Ghana,,Africa,Africa
715,Conselheiro Lafaiete,Minas Gerais,Brazil,,South,LATAM
716,Jiangdu,Jiangsu,China,,North Asia,APAC
717,Cochabamba,Cochabamba,Bolivia,,South,LATAM
718,Wolverhampton,England,United Kingdom,,North,EU
719,San Francisco,California,United States,94109.0,West,US
720,Mumbai,Maharashtra,India,,Central Asia,APAC
721,Caloundra,Queensland,Australia,,Oceania,APAC
722,Talcahuano,Biobio,Chile,,South,LATAM
723,Santiago,Santiago,Chile,,South,LATAM
724,Nairobi,Nairobi,Kenya,,Africa,Africa
725,Aurora,Illinois,United States,60505.0,Central,US
726,Houston,Texas,United States,77070.0,Central,US
727,New Plymouth,Taranaki,New Zealand,,Oceania,APAC
728,Sesto San Giovanni,Lombardy,Italy,,South,EU
729,Florence,Alabama,United States,35630.0,South,US
730,Tangshan,Hebei,China,,North Asia,APAC
731,Edmonton,Alberta,Canada,,Canada,Canada
732,Lismore,New South Wales,Australia,,Oceania,APAC
733,Sikasso,Sikasso,Mali,,Africa,Africa
734,Macapá,Amapá,Brazil,,South,LATAM
735,Nottingham,England,United Kingdom,,North,EU
736,Mandurah,Western Australia,Australia,,Oceania,APAC
737,Venice,Veneto,Italy,,South,EU
738,Dormagen,North Rhine-Westphalia,Germany,,Central,EU
739,Bilbao,Basque Country,Spain,,South,EU
740,Bagcilar,Istanbul,Turkey,,EMEA,EMEA
741,Bressuire,Poitou-Charentes,France,,Central,EU
742,Houilles,Ile-de-France,France,,Central,EU
743,Solapur,Maharashtra,India,,Central Asia,APAC
744,Capannori,Tuscany,Italy,,South,EU
745,Kawagoe,Saitama,Japan,,North Asia,APAC
746,Yangzhou,Jiangsu,China,,North Asia,APAC
747,Monterrey,Nuevo León,Mexico,,North,LATAM
748,Ann Arbor,Michigan,United States,48104.0,Central,US
749,Misratah,Misratah,Libya,,Africa,Africa
750,Tlalpan,Distrito Federal,Mexico,,North,LATAM
751,Matanzas,Matanzas,Cuba,,Caribbean,LATAM
752,Can Tho,T?nh C?n Th?,Vietnam,,Southeast Asia,APAC
753,Greenwood,Indiana,United States,46142.0,Central,US
754,Las Tunas,Las Tunas,Cuba,,Caribbean,LATAM
755,Phoenix,Arizona,United States,85023.0,West,US
756,San Diego,California,United States,92105.0,West,US
757,Villeneuve-le-Roi,Ile-de-France,France,,Central,EU
758,Vitrolles,Provence-Alpes-Côte d'Azur,France,,Central,EU
759,Tiruchchirappalli,Tamil Nadu,India,,Central Asia,APAC
760,Hengyang,Hunan,China,,North Asia,APAC
761,Hialeah,Florida,United States,33012.0,South,US
762,Marietta,Georgia,United States,30062.0,South,US
763,Ilopango,San Salvador,El Salvador,,Central,LATAM
764,Torbali,Izmir,Turkey,,EMEA,EMEA
765,Bhiwandi,Maharashtra,India,,Central Asia,APAC
766,Palmerston North,Manawatu-Wanganui,New Zealand,,Oceania,APAC
767,Kaifeng,Henan,China,,North Asia,APAC
768,Thornton,Colorado,United States,80229.0,West,US
769,Georgetown,Kentucky,United States,40324.0,South,US
770,Houston,Texas,United States,77041.0,Central,US
771,Villa Alemana,Valparaíso,Chile,,South,LATAM
772,Tlalnepantla,México,Mexico,,North,LATAM
773,São Gonçalo,Rio de Janeiro,Brazil,,South,LATAM
774,Richmond,Kentucky,United States,40475.0,South,US
775,Katowice,Silesia,Poland,,EMEA,EMEA
776,Carora,Lara,Venezuela,,South,LATAM
777,Orihuela,Valenciana,Spain,,South,EU
778,Tulsa,Oklahoma,United States,74133.0,Central,US
779,Fasa,Fars,Iran,,EMEA,EMEA
780,San Fernando,San Fernando,Trinidad and Tobago,,Caribbean,LATAM
781,Mainz,Rhineland-Palatinate,Germany,,Central,EU
782,Gronau,North Rhine-Westphalia,Germany,,Central,EU
783,Bengbu,Anhui,China,,North Asia,APAC
784,Dublin,Dublin,Ireland,,North,EU
785,Antibes,Provence-Alpes-Côte d'Azur,France,,Central,EU
786,Natal,Rio Grande do Norte,Brazil,,South,LATAM
787,Concarneau,Brittany,France,,Central,EU
788,Lakeland,Florida,United States,33801.0,South,US
789,Brentwood,California,United States,94513.0,West,US
790,Solingen,North Rhine-Westphalia,Germany,,Central,EU
791,Palmerston,Northern Territory,Australia,,Oceania,APAC
792,Marrakech,Marrakech-Tensift-El Haouz,Morocco,,Africa,Africa
793,Cologne,North Rhine-Westphalia,Germany,,Central,EU
794,Reading,England,United Kingdom,,North,EU
795,Xinshi,Hubei,China,,North Asia,APAC
796,Sofia,Sofiya-Grad,Bulgaria,,EMEA,EMEA
797,Kryvyy Rih,Dnipropetrovs'k,Ukraine,,EMEA,EMEA
798,Cachan,Ile-de-France,France,,Central,EU
799,Carlisle,England,United Kingdom,,North,EU
800,Pleasant Grove,Utah,United States,84062.0,West,US
801,Montenegro,Quindío,Colombia,,South,LATAM
802,Asheville,North Carolina,United States,28806.0,South,US
803,Ipoh,Perak,Malaysia,,Southeast Asia,APAC
804,Xiaogan,Hubei,China,,North Asia,APAC
805,Yuci,Shanxi,China,,North Asia,APAC
806,Makhachkala,Dagestan,Russia,,EMEA,EMEA
807,Gongzhuling,Jilin,China,,North Asia,APAC
808,Devonport,Tasmania,Australia,,Oceania,APAC
809,Bottrop,North Rhine-Westphalia,Germany,,Central,EU
810,Jember,Jawa Timur,Indonesia,,Southeast Asia,APAC
811,Shulan,Jilin,China,,North Asia,APAC
812,Ulm,Baden-Württemberg,Germany,,Central,EU
813,Sheffield,England,United Kingdom,,North,EU
814,Guelma,Guelma,Algeria,,Africa,Africa
815,Stockholm,Stockholm,Sweden,,North,EU
816,Liaocheng,Shandong,China,,North Asia,APAC
817,Innsbruck,Tyrol,Austria,,Central,EU
818,Shantou,Guangdong,China,,North Asia,APAC
819,Rockford,Illinois,United States,61107.0,Central,US
820,Panama City,Panama,Panama,,Central,LATAM
821,Cabo de Santo Agostinho,Pernambuco,Brazil,,South,LATAM
822,Castrop-Rauxel,North Rhine-Westphalia,Germany,,Central,EU
823,Saint-Germain-en-Laye,Ile-de-France,France,,Central,EU
824,Cuttack,Odisha,India,,Central Asia,APAC
825,Tilburg,North Brabant,Netherlands,,Central,EU
826,Parla,Madrid,Spain,,South,EU
827,Ludhiana,Punjab,India,,Central Asia,APAC
828,Xinzhou,Shanxi,China,,North Asia,APAC
829,Glendale,Arizona,United States,85301.0,West,US
830,La Rochelle,Poitou-Charentes,France,,Central,EU
831,Soledad,Atlántico,Colombia,,South,LATAM
832,Ramat Aviv,Tel Aviv,Israel,,EMEA,EMEA
833,Paulista,Pernambuco,Brazil,,South,LATAM
834,Wagga Wagga,New South Wales,Australia,,Oceania,APAC
835,Lunel,Languedoc-Roussillon,France,,Central,EU
836,Cajazeiras,Paraíba,Brazil,,South,LATAM
837,Laiyang,Shandong,China,,North Asia,APAC
838,Guyancourt,Ile-de-France,France,,Central,EU
839,Zamora,Castile and León,Spain,,South,EU
840,Dallas,Texas,United States,75081.0,Central,US
841,Lagos,Lagos,Nigeria,,Africa,Africa
842,Ninghai,Shandong,China,,North Asia,APAC
843,Bogor,Jawa Barat,Indonesia,,Southeast Asia,APAC
844,Nancy,Lorraine,France,,Central,EU
845,Bello,Antioquia,Colombia,,South,LATAM
846,Chimaltenango,Chimaltenango,Guatemala,,Central,LATAM
847,Toronto,Ontario,Canada,,Canada,Canada
848,El Prat de Llobregat,Catalonia,Spain,,South,EU
849,Pematangsiantar,Sumatera Utara,Indonesia,,Southeast Asia,APAC
850,Albacete,Castile-La Mancha,Spain,,South,EU
851,Santa Clara,Villa Clara,Cuba,,Caribbean,LATAM
852,Maringá,Parana,Brazil,,South,LATAM
853,Osorno,Los Lagos,Chile,,South,LATAM
854,Brindisi,Apulia,Italy,,South,EU
855,Doncaster,England,United Kingdom,,North,EU
856,Fremont,Nebraska,United States,68025.0,Central,US
857,Santa Catarina,Nuevo León,Mexico,,North,LATAM
858,Annaba,Annaba,Algeria,,Africa,Africa
859,Utrecht,Utrecht,Netherlands,,Central,EU
860,Nagasaki,Nagasaki,Japan,,North Asia,APAC
861,Albany,Western Australia,Australia,,Oceania,APAC
862,Las Pinas,National Capital,Philippines,,Southeast Asia,APAC
863,Westminster,California,United States,92683.0,West,US
864,Shah Alam,Selangor,Malaysia,,Southeast Asia,APAC
865,Birmingham,England,United Kingdom,,North,EU
866,Rach Gia,Kiên Giang,Vietnam,,Southeast Asia,APAC
867,Dongguan,Guangdong,China,,North Asia,APAC
868,Fontainebleau,Ile-de-France,France,,Central,EU
869,Santa Cruz de la Sierra,Santa Cruz,Bolivia,,South,LATAM
870,Donets'k,Donetsk,Ukraine,,EMEA,EMEA
871,Jacksonville,North Carolina,United States,28540.0,South,US
872,Cardiff,Wales,United Kingdom,,North,EU
873,Spokane,Washington,United States,99207.0,West,US
874,Villeurbanne,Rhône-Alpes,France,,Central,EU
875,Nicolás Romero,México,Mexico,,North,LATAM
876,Chililabombwe,Copperbelt,Zambia,,Africa,Africa
877,Baltimore,Maryland,United States,21215.0,East,US
878,Nanterre,Ile-de-France,France,,Central,EU
879,Shihezi,Xinjiang Uygur,China,,North Asia,APAC
880,Givors,Rhône-Alpes,France,,Central,EU
881,Carrefour,Ouest,Haiti,,Caribbean,LATAM
882,Brasov,Brasov,Romania,,EMEA,EMEA
883,Vichy,Auvergne,France,,Central,EU
884,Kure,Hiroshima,Japan,,North Asia,APAC
885,Derby,England,United Kingdom,,North,EU
886,Arnhem,Gelderland,Netherlands,,Central,EU
887,Aprilia,Lazio,Italy,,South,EU
888,Waitakere,Auckland,New Zealand,,Oceania,APAC
889,Fargo,North Dakota,United States,58103.0,Central,US
890,Aurora,Colorado,United States,80013.0,West,US
891,Hanoi,Th? Dô Hà N?i,Vietnam,,Southeast Asia,APAC
892,Genk,Limburg,Belgium,,Central,EU
893,Castanhal,Pará,Brazil,,South,LATAM
894,La Spezia,Liguria,Italy,,South,EU
895,Jiangyan,Jiangsu,China,,North Asia,APAC
896,Wilmington,Delaware,United States,19805.0,East,US
897,Fairfield,Connecticut,United States,6824.0,East,US
898,Littlehampton,England,United Kingdom,,North,EU
899,Padang,Sumatera Barat,Indonesia,,Southeast Asia,APAC
900,Yunyang,Henan,China,,North Asia,APAC
901,Fatehpur,Rajasthan,India,,Central Asia,APAC
902,Changshu,Jiangsu,China,,North Asia,APAC
903,Quevedo,Los Rios,Ecuador,,South,LATAM
904,Changzhou,Jiangsu,China,,North Asia,APAC
905,Sakaka,Al Jawf,Saudi Arabia,,EMEA,EMEA
906,Los Angeles,California,United States,90036.0,West,US
907,Saint-Dizier,Champagne-Ardenne,France,,Central,EU
908,Stourbridge,England,United Kingdom,,North,EU
909,Presidente Dutra,Maranhão,Brazil,,South,LATAM
910,El Paso,Texas,United States,79907.0,Central,US
911,Bognor Regis,England,United Kingdom,,North,EU
912,Xuzhou,Jiangsu,China,,North Asia,APAC
913,Ninghai,Zhejiang,China,,North Asia,APAC
914,Bridgetown,Saint Michael,Barbados,,Caribbean,LATAM
915,Fort Lauderdale,Florida,United States,33311.0,South,US
916,Beauvais,Picardy,France,,Central,EU
917,South Shields,England,United Kingdom,,North,EU
918,Manchester,Connecticut,United States,6040.0,East,US
919,Nuevo Laredo,Tamaulipas,Mexico,,North,LATAM
920,Kano,Kano,Nigeria,,Africa,Africa
921,Dewas,Madhya Pradesh,India,,Central Asia,APAC
922,Puertollano,Castile-La Mancha,Spain,,South,EU
923,Lawrence,Massachusetts,United States,1841.0,East,US
924,Bonn,North Rhine-Westphalia,Germany,,Central,EU
925,Danville,California,United States,94526.0,West,US
926,Arles,Provence-Alpes-Côte d'Azur,France,,Central,EU
927,Murcia,Murcia,Spain,,South,EU
928,Liverpool,England,United Kingdom,,North,EU
929,Fes,Fès-Boulemane,Morocco,,Africa,Africa
930,Farnborough,England,United Kingdom,,North,EU
931,Suining,Sichuan,China,,North Asia,APAC
932,Herne,North Rhine-Westphalia,Germany,,Central,EU
933,Ciego de Ávila,Ciego de Ávila,Cuba,,Caribbean,LATAM
934,Arkhangelsk,Arkhangel'sk,Russia,,EMEA,EMEA
935,Ljubljana,Ljubljana,Slovenia,,EMEA,EMEA
936,Marion,Ohio,United States,43302.0,East,US
937,Mount Isa,Queensland,Australia,,Oceania,APAC
938,Nizhyn,Chernihiv,Ukraine,,EMEA,EMEA
939,Bamako,Bamako,Mali,,Africa,Africa
940,Montevideo,Montevideo,Uruguay,,South,LATAM
941,Tepic,Nayarit,Mexico,,North,LATAM
942,Dnipropetrovs'k,Dnipropetrovs'k,Ukraine,,EMEA,EMEA
943,Gorakhpur,Uttar Pradesh,India,,Central Asia,APAC
944,Catania,Sicily,Italy,,South,EU
945,Grigny,Ile-de-France,France,,Central,EU
946,Yibin,Sichuan,China,,North Asia,APAC
947,Mahajanga,Boeny,Madagascar,,Africa,Africa
948,Saida,Saida,Algeria,,Africa,Africa
949,Cergy,Ile-de-France,France,,Central,EU
950,Arzgir,Stavropol',Russia,,EMEA,EMEA
951,Gravesend,England,United Kingdom,,North,EU
952,Mentougou,Beijing,China,,North Asia,APAC
953,Nampula,Nampula,Mozambique,,Africa,Africa
954,Edmonds,Washington,United States,98026.0,West,US
955,Traralgon,Victoria,Australia,,Oceania,APAC
956,Vinnytsya,Vinnytsya,Ukraine,,EMEA,EMEA
957,Evanston,Illinois,United States,60201.0,Central,US
958,Bossier City,Louisiana,United States,71111.0,South,US
959,Timaru,Canterbury,New Zealand,,Oceania,APAC
960,Libourne,Aquitaine,France,,Central,EU
961,Tampa,Florida,United States,33614.0,South,US
962,Ashdod,Southern,Israel,,EMEA,EMEA
963,Patrocínio,Minas Gerais,Brazil,,South,LATAM
964,Slough,England,United Kingdom,,North,EU
965,Rennes,Brittany,France,,Central,EU
966,Datong,Shanxi,China,,North Asia,APAC
967,Oberhausen,North Rhine-Westphalia,Germany,,Central,EU
968,Chipata,Eastern,Zambia,,Africa,Africa
969,Galati,Galati,Romania,,EMEA,EMEA
970,Toowoomba,Queensland,Australia,,Oceania,APAC
971,Bry-sur-Marne,Ile-de-France,France,,Central,EU
972,Balneário Camboriú,Santa Catarina,Brazil,,South,LATAM
973,Dreux,Centre,France,,Central,EU
974,Toulouse,Midi-Pyrénées,France,,Central,EU
975,Benghazi,Banghazi,Libya,,Africa,Africa
976,Bacoor,Calabarzon,Philippines,,Southeast Asia,APAC
977,Nanning,Guangxi,China,,North Asia,APAC
978,Stolberg,North Rhine-Westphalia,Germany,,Central,EU
979,Bari,Apulia,Italy,,South,EU
980,Xining,Qinghai,China,,North Asia,APAC
981,Tabuk,Tabuk,Saudi Arabia,,EMEA,EMEA
982,Guiyang,Guizhou,China,,North Asia,APAC
983,Durango,Durango,Mexico,,North,LATAM
984,Kenosha,Wisconsin,United States,53142.0,Central,US
985,Tokyo,Tokyo,Japan,,North Asia,APAC
986,Bene Beraq,Tel Aviv,Israel,,EMEA,EMEA
987,Rotherham,England,United Kingdom,,North,EU
988,Cork,Cork,Ireland,,North,EU
989,Columbus,Indiana,United States,47201.0,Central,US
990,Roodepoort,Gauteng,South Africa,,Africa,Africa
991,Fontaine,Rhône-Alpes,France,,Central,EU
992,Rabat,Rabat-Salé-Zemmour-Zaer,Morocco,,Africa,Africa
993,Temecula,California,United States,92592.0,West,US
994,José Bonifácio,São Paulo,Brazil,,South,LATAM
995,Lusaka,Lusaka,Zambia,,Africa,Africa
996,Basra,Al Basrah,Iraq,,EMEA,EMEA
997,Apple Valley,California,United States,92307.0,West,US
998,Meizhou,Guangdong,China,,North Asia,APAC
999,Guasave,Sinaloa,Mexico,,North,LATAM
1000,Richardson,Texas,United States,75080.0,Central,US
1001,Santana de Parnaíba,São Paulo,Brazil,,South,LATAM
1002,Montgomery,Alabama,United States,36116.0,South,US
1003,Austin,Texas,United States,78745.0,Central,US
1004,Aubervilliers,Ile-de-France,France,,Central,EU
1005,Upper Hutt,Wellington,New Zealand,,Oceania,APAC
1006,Neuilly-sur-Seine,Ile-de-France,France,,Central,EU
1007,Faridabad,Haryana,India,,Central Asia,APAC
1008,Fairfield,California,United States,94533.0,West,US
1009,Santa Ana,Santa Ana,El Salvador,,Central,LATAM
1010,Le Havre,Upper Normandy,France,,Central,EU
1011,Mwanza,Mwanza,Tanzania,,Africa,Africa
1012,Orem,Utah,United States,84057.0,West,US
1013,Petapa,Guatemala,Guatemala,,Central,LATAM
1014,Newport News,Virginia,United States,23602.0,South,US
1015,Miramas,Provence-Alpes-Côte d'Azur,France,,Central,EU
1016,Mabopane,Gauteng,South Africa,,Africa,Africa
1017,David,Chiriquí,Panama,,Central,LATAM
1018,Dos Hermanas,Andalusía,Spain,,South,EU
1019,Villa Frontera,Coahuila,Mexico,,North,LATAM
1020,Franklin,Massachusetts,United States,2038.0,East,US
1021,Suzhou,Jiangsu,China,,North Asia,APAC
1022,Hartlepool,England,United Kingdom,,North,EU
1023,Orizaba,Veracruz,Mexico,,North,LATAM
1024,Lázaro Cárdenas,Michoacán,Mexico,,North,LATAM
1025,Busan,Busan,South Korea,,North Asia,APAC
1026,Pearland,Texas,United States,77581.0,Central,US
1027,Holguín,Holguín,Cuba,,Caribbean,LATAM
1028,Korba,Chhattisgarh,India,,Central Asia,APAC
1029,Viterbo,Lazio,Italy,,South,EU
1030,Carcassonne,Languedoc-Roussillon,France,,Central,EU
1031,Villach,Carinthia,Austria,,Central,EU
1032,Altamura,Apulia,Italy,,South,EU
1033,Longmont,Colorado,United States,80501.0,West,US
1034,Ezhou,Hubei,China,,North Asia,APAC
1035,Escuintla,Escuintla,Guatemala,,Central,LATAM
1036,Gujranwala,Punjab,Pakistan,,Central Asia,APAC
1037,Jena,Thuringia,Germany,,Central,EU
1038,Oxford,England,United Kingdom,,North,EU
1039,Anantapur,Andhra Pradesh,India,,Central Asia,APAC
1040,Qom,Qom,Iran,,EMEA,EMEA
1041,Jiaozuo,Henan,China,,North Asia,APAC
1042,Portsmouth,England,United Kingdom,,North,EU
1043,Hildesheim,Lower Saxony,Germany,,Central,EU
1044,Sunderland,England,United Kingdom,,North,EU
1045,Al Mahallah al Kubra,Al Gharbiyah,Egypt,,Africa,Africa
1046,La Plata,Provincia de Buenos Aires,Argentina,,South,LATAM
1047,Landskrona,Skåne,Sweden,,North,EU
1048,Helsinki,Uusimaa,Finland,,North,EU
1049,Las Vegas,Nevada,United States,89115.0,West,US
1050,Budapest,Budapest,Hungary,,EMEA,EMEA
1051,Bath,England,United Kingdom,,North,EU
1052,Lome,Maritime,Togo,,Africa,Africa
1053,Ferrara,Emilia-Romagna,Italy,,South,EU
1054,Palaiseau,Ile-de-France,France,,Central,EU
1055,Gateshead,England,United Kingdom,,North,EU
1056,Saint-Louis,Alsace,France,,Central,EU
1057,Plainfield,New Jersey,United States,7060.0,East,US
1058,Itamaraju,Bahia,Brazil,,South,LATAM
1059,Coventry,England,United Kingdom,,North,EU
1060,Villeneuve-d'Ascq,Nord-Pas-de-Calais,France,,Central,EU
1061,Mathura,Uttar Pradesh,India,,Central Asia,APAC
1062,Wilhelmshaven,Lower Saxony,Germany,,Central,EU
1063,Hurghada,Al Bahr Al Ahmar,Egypt,,Africa,Africa
1064,Gaya,Bihar,India,,Central Asia,APAC
1065,Toul,Lorraine,France,,Central,EU
1066,Arusha,Arusha,Tanzania,,Africa,Africa
1067,Ibirité,Minas Gerais,Brazil,,South,LATAM
1068,Guadalajara,Jalisco,Mexico,,North,LATAM
1069,Ciudad del Carmen,Campeche,Mexico,,North,LATAM
1070,Kolhapur,Maharashtra,India,,Central Asia,APAC
1071,Valles,San Luis Potosí,Mexico,,North,LATAM
1072,Beverly,Massachusetts,United States,1915.0,East,US
1073,Buffalo,New York,United States,14215.0,East,US
1074,Kassel,Hesse,Germany,,Central,EU
1075,Greensboro,North Carolina,United States,27405.0,South,US
1076,La Vega,La Vega,Dominican Republic,,Caribbean,LATAM
1077,Nouakchott,Nouakchott,Mauritania,,Africa,Africa
1078,Saint-Louis,Saint-Louis,Senegal,,Africa,Africa
1079,Santa Marta,Magdalena,Colombia,,South,LATAM
1080,Córdoba,Córdoba,Argentina,,South,LATAM
1081,George,Western Cape,South Africa,,Africa,Africa
1082,Sindelfingen,Baden-Württemberg,Germany,,Central,EU
1083,Kawaguchi,Chiba,Japan,,North Asia,APAC
1084,Villa Canales,Guatemala,Guatemala,,Central,LATAM
1085,Zunyi,Guizhou,China,,North Asia,APAC
1086,Wuchang,Heilongjiang,China,,North Asia,APAC
1087,Hermosillo,Sonora,Mexico,,North,LATAM
1088,Douai,Nord-Pas-de-Calais,France,,Central,EU
1089,Fukuyama,Hiroshima,Japan,,North Asia,APAC
1090,Dabrowa Gornicza,Silesia,Poland,,EMEA,EMEA
1091,Essen,North Rhine-Westphalia,Germany,,Central,EU
1092,Gresham,Oregon,United States,97030.0,West,US
1093,Santiago de Compostela,Galicia,Spain,,South,EU
1094,Paraparaumu,Wellington,New Zealand,,Oceania,APAC
1095,San Juan,San Juan,Argentina,,South,LATAM
1096,Manaus,Amazonas,Brazil,,South,LATAM
1097,Mantes-la-Jolie,Ile-de-France,France,,Central,EU
1098,Glasgow,Scotland,United Kingdom,,North,EU
1099,Reno,Nevada,United States,89502.0,West,US
1100,Pontivy,Brittany,France,,Central,EU
1101,Tauranga,Bay of Plenty,New Zealand,,Oceania,APAC
1102,The Hague,South Holland,Netherlands,,Central,EU
1103,Karlstad,Värmland,Sweden,,North,EU
1104,Rajkot,Gujarat,India,,Central Asia,APAC
1105,Satna,Madhya Pradesh,India,,Central Asia,APAC
1106,Yulin,Shaanxi,China,,North Asia,APAC
1107,Manzanillo,Granma,Cuba,,Caribbean,LATAM
1108,Karbala',Karbala',Iraq,,EMEA,EMEA
1109,Hrodna,Hrodna,Belarus,,EMEA,EMEA
1110,Clarksville,Tennessee,United States,37042.0,South,US
1111,Guangshui,Hubei,China,,North Asia,APAC
1112,Bikaner,Rajasthan,India,,Central Asia,APAC
1113,Indore,Madhya Pradesh,India,,Central Asia,APAC
1114,Wigan,England,United Kingdom,,North,EU
1115,Beykoz,Istanbul,Turkey,,EMEA,EMEA
1116,Le Cannet,Provence-Alpes-Côte d'Azur,France,,Central,EU
1117,Columbia,South Carolina,United States,29203.0,South,US
1118,Tirupati,Andhra Pradesh,India,,Central Asia,APAC
1119,Manizales,Caldas,Colombia,,South,LATAM
1120,Conflans-Sainte-Honorine,Ile-de-France,France,,Central,EU
1121,Leicester,England,United Kingdom,,North,EU
1122,Luanda,Luanda,Angola,,Africa,Africa
1123,Mbandaka,Equateur,Democratic Republic of the Congo,,Africa,Africa
1124,Cuernavaca,Morelos,Mexico,,North,LATAM
1125,San Pedro Sula,Cortés,Honduras,,Central,LATAM
1126,Jinjiang,Fujian,China,,North Asia,APAC
1127,Zhaoqing,Guangdong,China,,North Asia,APAC
1128,Broken Arrow,Oklahoma,United States,74012.0,Central,US
1129,Ponferrada,Castile and León,Spain,,South,EU
1130,Yerres,Ile-de-France,France,,Central,EU
1131,Lawrence,Indiana,United States,46226.0,Central,US
1132,Blenheim,Marlborough,New Zealand,,Oceania,APAC
1133,Rillieux-la-Pape,Rhône-Alpes,France,,Central,EU
1134,Luohe,Henan,China,,North Asia,APAC
1135,Spijkenisse,South Holland,Netherlands,,Central,EU
1136,Nzerekore,Nzérékoré,Guinea,,Africa,Africa
1137,Zaria,Kaduna,Nigeria,,Africa,Africa
1138,Bielefeld,North Rhine-Westphalia,Germany,,Central,EU
1139,Stains,Ile-de-France,France,,Central,EU
1140,San Francisco de Macorís,Duarte,Dominican Republic,,Caribbean,LATAM
1141,Lecce,Apulia,Italy,,South,EU
1142,Colorado Springs,Colorado,United States,80906.0,West,US
1143,São Luís,Maranhão,Brazil,,South,LATAM
1144,Bagnolet,Ile-de-France,France,,Central,EU
1145,Qitaihe,Heilongjiang,China,,North Asia,APAC
1146,Meerut,Uttar Pradesh,India,,Central Asia,APAC
1147,Shumen,Shumen,Bulgaria,,EMEA,EMEA
1148,Ponte Nova,Minas Gerais,Brazil,,South,LATAM
1149,Jinhua,Zhejiang,China,,North Asia,APAC
1150,Cheltenham,England,United Kingdom,,North,EU
1151,Kaduna,Kaduna,Nigeria,,Africa,Africa
1152,Breda,North Brabant,Netherlands,,Central,EU
1153,Valladolid,Castile and León,Spain,,South,EU
1154,Courbevoie,Ile-de-France,France,,Central,EU
1155,Fuengirola,Andalusía,Spain,,South,EU
1156,Charleroi,Hainaut,Belgium,,Central,EU
1157,Oran,Oran,Algeria,,Africa,Africa
1158,Kigali,Kigali,Rwanda,,Africa,Africa
1159,Adana,Adana,Turkey,,EMEA,EMEA
1160,Nova Serrana,Minas Gerais,Brazil,,South,LATAM
1161,Guadalajara,Castile-La Mancha,Spain,,South,EU
1162,Oklahoma City,Oklahoma,United States,73120.0,Central,US
1163,Santa Helena,Maranhão,Brazil,,South,LATAM
1164,Great Falls,Montana,United States,59405.0,West,US
1165,Belo Horizonte,Minas Gerais,Brazil,,South,LATAM
1166,North York,Ontario,Canada,,Canada,Canada
1167,Lakeville,Minnesota,United States,55044.0,Central,US
1168,Atakpame,Plateaux,Togo,,Africa,Africa
1169,Amadora,Lisboa,Portugal,,South,EU
1170,Pekanbaru,Riau,Indonesia,,Southeast Asia,APAC
1171,Louisville,Colorado,United States,80027.0,West,US
1172,Smyrna,Georgia,United States,30080.0,South,US
1173,Saint Cloud,Minnesota,United States,56301.0,Central,US
1174,Jamundí,Valle del Cauca,Colombia,,South,LATAM
1175,Foumban,Ouest,Cameroon,,Africa,Africa
1176,Jilin,Jilin,China,,North Asia,APAC
1177,Dallas,Texas,United States,75217.0,Central,US
1178,Versailles,Ile-de-France,France,,Central,EU
1179,Lorca,Murcia,Spain,,South,EU
1180,Langenhagen,Lower Saxony,Germany,,Central,EU
1181,Caucaia,Ceará,Brazil,,South,LATAM
1182,Borujerd,Lorestan,Iran,,EMEA,EMEA
1183,Fortaleza,Ceará,Brazil,,South,LATAM
1184,Anyang,Gyeonggi,South Korea,,North Asia,APAC
1185,Apodaca,Nuevo León,Mexico,,North,LATAM
1186,Parbhani,Maharashtra,India,,Central Asia,APAC
1187,Kita-ku,Osaka,Japan,,North Asia,APAC
1188,Likasi,Katanga,Democratic Republic of the Congo,,Africa,Africa
1189,Bom Jesus da Lapa,Bahia,Brazil,,South,LATAM
1190,Arlington,Virginia,United States,22204.0,South,US
1191,Appleton,Wisconsin,United States,54915.0,Central,US
1192,Apopa,San Salvador,El Salvador,,Central,LATAM
1193,Asti,Piedmont,Italy,,South,EU
1194,Mauá,São Paulo,Brazil,,South,LATAM
1195,Ranchi,Jharkhand,India,,Central Asia,APAC
1196,Brest,Brittany,France,,Central,EU
1197,Newcastle,Kwazulu-natal,South Africa,,Africa,Africa
1198,Luhans'k,Luhans'k,Ukraine,,EMEA,EMEA
1199,Geneva,Geneva,Switzerland,,Central,EU
1200,Hautmont,Nord-Pas-de-Calais,France,,Central,EU
1201,Offenburg,Baden-Württemberg,Germany,,Central,EU
1202,Ananindeua,Pará,Brazil,,South,LATAM
1203,Nagercoil,Tamil Nadu,India,,Central Asia,APAC
1204,Iguala,Guerrero,Mexico,,North,LATAM
1205,Portland,Oregon,United States,97206.0,West,US
1206,Comodoro Rivadavia,Chubut,Argentina,,South,LATAM
1207,Nizamabad,Telangana,India,,Central Asia,APAC
1208,Meriden,Connecticut,United States,6450.0,East,US
1209,Resistencia,Chaco,Argentina,,South,LATAM
1210,Bijie,Guizhou,China,,North Asia,APAC
1211,Copenhagen,Hovedstaden,Denmark,,North,EU
1212,Niamey,Niamey,Niger,,Africa,Africa
1213,Evry,Ile-de-France,France,,Central,EU
1214,Bourges,Centre,France,,Central,EU
1215,Great Yarmouth,England,United Kingdom,,North,EU
1216,Nashville,Tennessee,United States,37211.0,South,US
1217,Draguignan,Provence-Alpes-Côte d'Azur,France,,Central,EU
1218,Jiutepec,Morelos,Mexico,,North,LATAM
1219,Hamm,North Rhine-Westphalia,Germany,,Central,EU
1220,Bareilly,Uttar Pradesh,India,,Central Asia,APAC
1221,Mamak,Ankara,Turkey,,EMEA,EMEA
1222,Sannois,Ile-de-France,France,,Central,EU
1223,Toluca,México,Mexico,,North,LATAM
1224,Linz,Upper Austria,Austria,,Central,EU
1225,Dubuque,Iowa,United States,52001.0,Central,US
1226,Port Moresby,National Capital,Papua New Guinea,,Oceania,APAC
1227,Kerman,Kerman,Iran,,EMEA,EMEA
1228,Lakewood,Ohio,United States,44107.0,East,US
1229,La Ceiba,Atlántida,Honduras,,Central,LATAM
1230,Port Macquarie,New South Wales,Australia,,Oceania,APAC
1231,Nelson,Nelson,New Zealand,,Oceania,APAC
1232,Gdansk,Pomerania,Poland,,EMEA,EMEA
1233,Puducherry,Puducherry,India,,Central Asia,APAC
1234,Little Rock,Arkansas,United States,72209.0,South,US
1235,Changwon,Gyeongsangnam,South Korea,,North Asia,APAC
1236,Remscheid,North Rhine-Westphalia,Germany,,Central,EU
1237,Exeter,England,United Kingdom,,North,EU
1238,Leshan,Sichuan,China,,North Asia,APAC
1239,Chinautla,Guatemala,Guatemala,,Central,LATAM
1240,Brandenburg,Brandenburg,Germany,,Central,EU
1241,Saint-Ouen,Ile-de-France,France,,Central,EU
1242,Le Plessis-Robinson,Ile-de-France,France,,Central,EU
1243,Halle,Saxony-Anhalt,Germany,,Central,EU
1244,Harrow,England,United Kingdom,,North,EU
1245,Echirolles,Rhône-Alpes,France,,Central,EU
1246,Nogent-sur-Oise,Picardy,France,,Central,EU
1247,Casoria,Campania,Italy,,South,EU
1248,Griffith,New South Wales,Australia,,Oceania,APAC
1249,Barra Mansa,Rio de Janeiro,Brazil,,South,LATAM
1250,Naperville,Illinois,United States,60540.0,Central,US
1251,Saint-Genis-Laval,Rhône-Alpes,France,,Central,EU
1252,Ibagué,Tolima,Colombia,,South,LATAM
1253,Tirunelveli,Tamil Nadu,India,,Central Asia,APAC
1254,Ulan Bator,Ulaanbaatar,Mongolia,,EMEA,EMEA
1255,Les Herbiers,Pays de la Loire,France,,Central,EU
1256,Pasco,Washington,United States,99301.0,West,US
1257,Cheyenne,Wyoming,United States,82001.0,West,US
1258,San Diego,California,United States,92024.0,West,US
1259,Perugia,Umbria,Italy,,South,EU
1260,Dresden,Saxony,Germany,,Central,EU
1261,Francisco Beltrão,Parana,Brazil,,South,LATAM
1262,Tours,Centre,France,,Central,EU
1263,Araçatuba,São Paulo,Brazil,,South,LATAM
1264,Gawler,South Australia,Australia,,Oceania,APAC
1265,Des Moines,Iowa,United States,50315.0,Central,US
1266,Groningen,Groningen,Netherlands,,Central,EU
1267,Ichalkaranji,Maharashtra,India,,Central Asia,APAC
1268,Naples,Campania,Italy,,South,EU
1269,Bur Sudan,Red Sea,Sudan,,Africa,Africa
1270,Firozabad,Uttar Pradesh,India,,Central Asia,APAC
1271,Aschaffenburg,Bavaria,Germany,,Central,EU
1272,Soissons,Picardy,France,,Central,EU
1273,Aoba-ku,Kanagawa,Japan,,North Asia,APAC
1274,Silivri,Istanbul,Turkey,,EMEA,EMEA
1275,Tawau,Sabah,Malaysia,,Southeast Asia,APAC
1276,Limeira,São Paulo,Brazil,,South,LATAM
1277,Oldham,England,United Kingdom,,North,EU
1278,Itajaí,Santa Catarina,Brazil,,South,LATAM
1279,Goiânia,Goiás,Brazil,,South,LATAM
1280,Neuwied,Rhineland-Palatinate,Germany,,Central,EU
1281,Marano di Napoli,Campania,Italy,,South,EU
1282,Papakura,Auckland,New Zealand,,Oceania,APAC
1283,Watford,England,United Kingdom,,North,EU
1284,Dallas,Texas,United States,75220.0,Central,US
1285,Dalian,Liaoning,China,,North Asia,APAC
1286,Annecy,Rhône-Alpes,France,,Central,EU
1287,Sunnyvale,California,United States,94086.0,West,US
1288,Madero,Tamaulipas,Mexico,,North,LATAM
1289,Tongchuan,Shaanxi,China,,North Asia,APAC
1290,Kramators'k,Donetsk,Ukraine,,EMEA,EMEA
1291,Ujjain,Madhya Pradesh,India,,Central Asia,APAC
1292,Asansol,West Bengal,India,,Central Asia,APAC
1293,Brahmapur,Odisha,India,,Central Asia,APAC
1294,Roissy-en-Brie,Ile-de-France,France,,Central,EU
1295,Varese,Lombardy,Italy,,South,EU
1296,Coulommiers,Ile-de-France,France,,Central,EU
1297,Chelmsford,England,United Kingdom,,North,EU
1298,Coimbra,Coimbra,Portugal,,South,EU
1299,Ashford,England,United Kingdom,,North,EU
1300,Bouake,Vallee Du Bandama,Cote d'Ivoire,,Africa,Africa
1301,Mildura,Victoria,Australia,,Oceania,APAC
1302,Puerto La Cruz,Anzoátegui,Venezuela,,South,LATAM
1303,Teresópolis,Rio de Janeiro,Brazil,,South,LATAM
1304,Juiz de Fora,Minas Gerais,Brazil,,South,LATAM
1305,Foggia,Apulia,Italy,,South,EU
1306,Parma,Ohio,United States,44134.0,East,US
1307,Farmington,New Mexico,United States,87401.0,West,US
1308,Cholula,Puebla,Mexico,,North,LATAM
1309,Pamiers,Midi-Pyrénées,France,,Central,EU
1310,Criciúma,Santa Catarina,Brazil,,South,LATAM
1311,Taubaté,São Paulo,Brazil,,South,LATAM
1312,Pantin,Ile-de-France,France,,Central,EU
1313,Gilbert,Arizona,United States,85234.0,West,US
1314,Oceanside,New York,United States,11572.0,East,US
1315,Celaya,Guanajuato,Mexico,,North,LATAM
1316,Mansfield,England,United Kingdom,,North,EU
1317,Kazerun,Fars,Iran,,EMEA,EMEA
1318,Taiyuan,Shanxi,China,,North Asia,APAC
1319,Pasadena,Texas,United States,77506.0,Central,US
1320,Río Bravo,Tamaulipas,Mexico,,North,LATAM
1321,Chiclana de la Frontera,Andalusía,Spain,,South,EU
1322,Los Mochis,Sinaloa,Mexico,,North,LATAM
1323,Suffolk,Virginia,United States,23434.0,South,US
1324,Anshun,Guizhou,China,,North Asia,APAC
1325,San Pablo de las Salinas,México,Mexico,,North,LATAM
1326,Poissy,Ile-de-France,France,,Central,EU
1327,Choluteca,Choluteca,Honduras,,Central,LATAM
1328,San Andrés Tuxtla,Veracruz,Mexico,,North,LATAM
1329,Fort Collins,Colorado,United States,80525.0,West,US
1330,Dublin,Ohio,United States,43017.0,East,US
1331,Hiratsuka,Kanagawa,Japan,,North Asia,APAC
1332,Huangshi,Hubei,China,,North Asia,APAC
1333,Xinghua,Jiangsu,China,,North Asia,APAC
1334,Knoxville,Tennessee,United States,37918.0,South,US
1335,Khartoum,Khartoum,Sudan,,Africa,Africa
1336,Al Minya,Al Minya,Egypt,,Africa,Africa
1337,Midland,Michigan,United States,48640.0,Central,US
1338,Vicenza,Veneto,Italy,,South,EU
1339,Lima,Lima (city),Peru,,South,LATAM
1340,Pontoise,Ile-de-France,France,,Central,EU
1341,Daejeon,Daejeon,South Korea,,North Asia,APAC
1342,Springfield,Ohio,United States,45503.0,East,US
1343,Zhengzhou,Henan,China,,North Asia,APAC
1344,Landerneau,Brittany,France,,Central,EU
1345,Rouen,Upper Normandy,France,,Central,EU
1346,Heze,Shandong,China,,North Asia,APAC
1347,Quelimane,Zambezia,Mozambique,,Africa,Africa
1348,Atlixco,Puebla,Mexico,,North,LATAM
1349,Rajshahi,Rajshahi,Bangladesh,,Central Asia,APAC
1350,Villefontaine,Rhône-Alpes,France,,Central,EU
1351,Arraiján,Panama,Panama,,Central,LATAM
1352,Querétaro,Querétaro,Mexico,,North,LATAM
1353,Ploiesti,Prahova,Romania,,EMEA,EMEA
1354,Kassala,Kassala,Sudan,,Africa,Africa
1355,Saqqez,Kordestan,Iran,,EMEA,EMEA
1356,Dos Quebradas,Risaralda,Colombia,,South,LATAM
1357,Seremban,Negeri Sembilan,Malaysia,,Southeast Asia,APAC
1358,Meudon,Ile-de-France,France,,Central,EU
1359,Hradec Kralove,Hradec Kralove,Czech Republic,,EMEA,EMEA
1360,Peoria,Illinois,United States,61604.0,Central,US
1361,Villemomble,Ile-de-France,France,,Central,EU
1362,Kupang,Nusa Tenggara Timur,Indonesia,,Southeast Asia,APAC
1363,General Escobedo,Nuevo León,Mexico,,North,LATAM
1364,Kawasaki,Fukuoka,Japan,,North Asia,APAC
1365,Rambouillet,Ile-de-France,France,,Central,EU
1366,Kopeysk,Chelyabinsk,Russia,,EMEA,EMEA
1367,Kaiyuan,Liaoning,China,,North Asia,APAC
1368,Parma,Emilia-Romagna,Italy,,South,EU
1369,Maceió,Alagoas,Brazil,,South,LATAM
1370,Ndola,Copperbelt,Zambia,,Africa,Africa
1371,Samarra',Salah Ad Din,Iraq,,EMEA,EMEA
1372,Huainan,Anhui,China,,North Asia,APAC
1373,Sumy,Sumy,Ukraine,,EMEA,EMEA
1374,Taranto,Apulia,Italy,,South,EU
1375,Mount Gambier,South Australia,Australia,,Oceania,APAC
1376,Bolton,England,United Kingdom,,North,EU
1377,Valinhos,São Paulo,Brazil,,South,LATAM
1378,Safi,Doukkala-Abda,Morocco,,Africa,Africa
1379,Jackson,Mississippi,United States,39212.0,South,US
1380,Marly-le-Roi,Ile-de-France,France,,Central,EU
1381,Lugo,Galicia,Spain,,South,EU
1382,Potosí,Potosí,Bolivia,,South,LATAM
1383,Belleville,New Jersey,United States,7109.0,East,US
1384,Oldenburg,Lower Saxony,Germany,,Central,EU
1385,Garza García,Nuevo León,Mexico,,North,LATAM
1386,Concord,New Hampshire,United States,3301.0,East,US
1387,Dayr az Zawr,Dayr Az Zawr,Syria,,EMEA,EMEA
1388,Irkutsk,Irkutsk,Russia,,EMEA,EMEA
1389,San Miguelito,Panama,Panama,,Central,LATAM
1390,Chillán,Biobio,Chile,,South,LATAM
1391,Wodonga,Victoria,Australia,,Oceania,APAC
1392,Annonay,Rhône-Alpes,France,,Central,EU
1393,Zhongxiang,Hubei,China,,North Asia,APAC
1394,Mogadishu,Banaadir,Somalia,,Africa,Africa
1395,Bryansk,Bryansk,Russia,,EMEA,EMEA
1396,Severodvinsk,Arkhangel'sk,Russia,,EMEA,EMEA
1397,Chengdu,Sichuan,China,,North Asia,APAC
1398,Armidale,New South Wales,Australia,,Oceania,APAC
1399,Soweto,Gauteng,South Africa,,Africa,Africa
1400,Durgapur,Maharashtra,India,,Central Asia,APAC
1401,Nueva Gerona,Isla de la Juventud,Cuba,,Caribbean,LATAM
1402,Presidencia Roque Sáenz Peña,Chaco,Argentina,,South,LATAM
1403,Castres,Midi-Pyrénées,France,,Central,EU
1404,Fushun,Liaoning,China,,North Asia,APAC
1405,Franca,São Paulo,Brazil,,South,LATAM
1406,Ludwigshafen am Rhein,Rhineland-Palatinate,Germany,,Central,EU
1407,Arica,Arica y Parinacota,Chile,,South,LATAM
1408,Sartrouville,Ile-de-France,France,,Central,EU
1409,Mombasa,Coast,Kenya,,Africa,Africa
1410,Nazilli,Aydin,Turkey,,EMEA,EMEA
1411,Jiutai,Jilin,China,,North Asia,APAC
1412,Koidu,Eastern,Sierra Leone,,Africa,Africa
1413,Suihua,Heilongjiang,China,,North Asia,APAC
1414,Messina,Sicily,Italy,,South,EU
1415,Reims,Champagne-Ardenne,France,,Central,EU
1416,Behbahan,Khuzestan,Iran,,EMEA,EMEA
1417,Ajmer,Rajasthan,India,,Central Asia,APAC
1418,Cluj-Napoca,Cluj,Romania,,EMEA,EMEA
1419,Oradea,Bihor,Romania,,EMEA,EMEA
1420,Bristol,England,United Kingdom,,North,EU
1421,Tipitapa,Managua,Nicaragua,,Central,LATAM
1422,Alicante,Valenciana,Spain,,South,EU
1423,Hasselt,Limburg,Belgium,,Central,EU
1424,Aksu,Xinjiang Uygur,China,,North Asia,APAC
1425,Trabzon,Trabzon,Turkey,,EMEA,EMEA
1426,Troisdorf,North Rhine-Westphalia,Germany,,Central,EU
1427,Kindia,Kindia,Guinea,,Africa,Africa
1428,Aix-en-Provence,Provence-Alpes-Côte d'Azur,France,,Central,EU
1429,Tanta,Al Gharbiyah,Egypt,,Africa,Africa
1430,Choloma,Cortés,Honduras,,Central,LATAM
1431,Ulhasnagar,Maharashtra,India,,Central Asia,APAC
1432,Caracas,Distrito Capital,Venezuela,,South,LATAM
1433,Oleksandriya,Kirovohrad,Ukraine,,EMEA,EMEA
1434,Mississauga,Ontario,Canada,,Canada,Canada
1435,Independence,Missouri,United States,64055.0,Central,US
1436,Wattrelos,Nord-Pas-de-Calais,France,,Central,EU
1437,Licheng,Guangdong,China,,North Asia,APAC
1438,Nieuwegein,Utrecht,Netherlands,,Central,EU
1439,Huaiyin,Jiangsu,China,,North Asia,APAC
1440,Pimpri,Maharashtra,India,,Central Asia,APAC
1441,Brownsville,Texas,United States,78521.0,Central,US
1442,Abidjan,Lagunes,Cote d'Ivoire,,Africa,Africa
1443,Turku,Finland Proper,Finland,,North,EU
1444,Portmore,Saint Catherine,Jamaica,,Caribbean,LATAM
1445,Ivanovo,Ivanovo,Russia,,EMEA,EMEA
1446,Artemisa,Artemisa,Cuba,,Caribbean,LATAM
1447,Niort,Poitou-Charentes,France,,Central,EU
1448,Denizli,Denizli,Turkey,,EMEA,EMEA
1449,Heerlen,Limburg,Netherlands,,Central,EU
1450,Pharr,Texas,United States,78577.0,Central,US
1451,Valencia,Carabobo,Venezuela,,South,LATAM
1452,Takamatsu,Kagawa,Japan,,North Asia,APAC
1453,Kaluga,Kaluga,Russia,,EMEA,EMEA
1454,Burbank,California,United States,91505.0,West,US
1455,Jayapura,Papua,Indonesia,,Southeast Asia,APAC
1456,Martigues,Provence-Alpes-Côte d'Azur,France,,Central,EU
1457,Bastia,Corsica,France,,Central,EU
1458,Deltona,Florida,United States,32725.0,South,US
1459,London,Ontario,Canada,,Canada,Canada
1460,Kankan,Kankan,Guinea,,Africa,Africa
1461,Shanwei,Guangdong,China,,North Asia,APAC
1462,Massy,Ile-de-France,France,,Central,EU
1463,Vaughan,Ontario,Canada,,Canada,Canada
1464,Acuña,Coahuila,Mexico,,North,LATAM
1465,Langen,Lower Saxony,Germany,,Central,EU
1466,Villeneuve-sur-Lot,Aquitaine,France,,Central,EU
1467,Manchester,England,United Kingdom,,North,EU
1468,Como,Lombardy,Italy,,South,EU
1469,Les Ulis,Ile-de-France,France,,Central,EU
1470,Melitopol',Zaporizhzhya,Ukraine,,EMEA,EMEA
1471,Haarlem,North Holland,Netherlands,,Central,EU
1472,Memphis,Tennessee,United States,38109.0,South,US
1473,Ashqelon,Southern,Israel,,EMEA,EMEA
1474,Garforth,England,United Kingdom,,North,EU
1475,Sarajevo,Federation of Bosnia and Herzegovina,Bosnia and Herzegovina,,EMEA,EMEA
1476,Dunedin,Otago,New Zealand,,Oceania,APAC
1477,Vitoria,Basque Country,Spain,,South,EU
1478,Middlesbrough,England,United Kingdom,,North,EU
1479,Bissau,Bissau,Guinea-Bissau,,Africa,Africa
1480,Dubbo,New South Wales,Australia,,Oceania,APAC
1481,Genoa,Liguria,Italy,,South,EU
1482,Ratlam,Madhya Pradesh,India,,Central Asia,APAC
1483,Khmel'nyts'kyy,Khmel'nyts'kyy,Ukraine,,EMEA,EMEA
1484,Linhai,Zhejiang,China,,North Asia,APAC
1485,Avion,Nord-Pas-de-Calais,France,,Central,EU
1486,Pforzheim,Baden-Württemberg,Germany,,Central,EU
1487,Coimbatore,Tamil Nadu,India,,Central Asia,APAC
1488,Durham,North Carolina,United States,27707.0,South,US
1489,Makati,National Capital,Philippines,,Southeast Asia,APAC
1490,Mechelen,Antwerp,Belgium,,Central,EU
1491,Perth Amboy,New Jersey,United States,8861.0,East,US
1492,Nellore,Andhra Pradesh,India,,Central Asia,APAC
1493,Tivoli,Lazio,Italy,,South,EU
1494,Cuiabá,Mato Grosso,Brazil,,South,LATAM
1495,Pinar del Río,Pinar del Río,Cuba,,Caribbean,LATAM
1496,Coacalco,México,Mexico,,North,LATAM
1497,Bowling Green,Ohio,United States,43402.0,East,US
1498,Tamarac,Florida,United States,33319.0,South,US
1499,Cúcuta,Norte de Santander,Colombia,,South,LATAM
1500,Ijuí,Rio Grande do Sul,Brazil,,South,LATAM
1501,Clinton,Maryland,United States,20735.0,East,US
1502,Beira,Sofala,Mozambique,,Africa,Africa
1503,Basildon,England,United Kingdom,,North,EU
1504,Yamoussoukro,Lacs,Cote d'Ivoire,,Africa,Africa
1505,San Jose,California,United States,95123.0,West,US
1506,Huntsville,Texas,United States,77340.0,Central,US
1507,Maubeuge,Nord-Pas-de-Calais,France,,Central,EU
1508,Djibouti,Djibouti,Djibouti,,Africa,Africa
1509,Saga,Saga,Japan,,North Asia,APAC
1510,Tournefeuille,Midi-Pyrénées,France,,Central,EU
1511,Chester,Pennsylvania,United States,19013.0,East,US
1512,Donghai,Guangdong,China,,North Asia,APAC
1513,Oshawa,Ontario,Canada,,Canada,Canada
1514,Crewe,England,United Kingdom,,North,EU
1515,Sucy-en-Brie,Ile-de-France,France,,Central,EU
1516,Jackson,Tennessee,United States,38301.0,South,US
1517,Roseville,Minnesota,United States,55113.0,Central,US
1518,Renton,Washington,United States,98059.0,West,US
1519,Nakuru,Rift Valley,Kenya,,Africa,Africa
1520,Montmorency,Ile-de-France,France,,Central,EU
1521,Barueri,São Paulo,Brazil,,South,LATAM
1522,Valenciennes,Nord-Pas-de-Calais,France,,Central,EU
1523,Bilaspur,Uttar Pradesh,India,,Central Asia,APAC
1524,Divinópolis,Minas Gerais,Brazil,,South,LATAM
1525,Lugoj,Timis,Romania,,EMEA,EMEA
1526,Salamanca,Guanajuato,Mexico,,North,LATAM
1527,Passo Fundo,Rio Grande do Sul,Brazil,,South,LATAM
1528,Saumur,Pays de la Loire,France,,Central,EU
1529,Siegen,North Rhine-Westphalia,Germany,,Central,EU
1530,Dumai,Riau,Indonesia,,Southeast Asia,APAC
1531,Palermo,Sicily,Italy,,South,EU
1532,Tumkur,Karnataka,India,,Central Asia,APAC
1533,Mount Vernon,New York,United States,10550.0,East,US
1534,Limoges,Limousin,France,,Central,EU
1535,Wasquehal,Nord-Pas-de-Calais,France,,Central,EU
1536,Cagliari,Sardinia,Italy,,South,EU
1537,Vannes,Brittany,France,,Central,EU
1538,Lausanne,Vaud,Switzerland,,Central,EU
1539,Athis-Mons,Ile-de-France,France,,Central,EU
1540,Jerusalem,Jerusalem,Israel,,EMEA,EMEA
1541,Charallave,Miranda,Venezuela,,South,LATAM
1542,Masjed Soleyman,Khuzestan,Iran,,EMEA,EMEA
1543,Palma Soriano,Santiago de Cuba,Cuba,,Caribbean,LATAM
1544,Sonsonate,Sonsonate,El Salvador,,Central,LATAM
1545,Northampton,England,United Kingdom,,North,EU
1546,Gera,Thuringia,Germany,,Central,EU
1547,Redondo Beach,California,United States,90278.0,West,US
1548,Walsall,England,United Kingdom,,North,EU
1549,Jonesboro,Arkansas,United States,72401.0,South,US
1550,Potsdam,Brandenburg,Germany,,Central,EU
1551,Grosseto,Tuscany,Italy,,South,EU
1552,Parker,Colorado,United States,80134.0,West,US
1553,Neunkirchen,Saarland,Germany,,Central,EU
1554,Marignane,Provence-Alpes-Côte d'Azur,France,,Central,EU
1555,Boise,Idaho,United States,83704.0,West,US
1556,Pietermaritzburg,Kwazulu-natal,South Africa,,Africa,Africa
1557,Huehuetenango,Huehuetenango,Guatemala,,Central,LATAM
1558,Cuenca,Azuay,Ecuador,,South,LATAM
1559,Medina,Al Madinah,Saudi Arabia,,EMEA,EMEA
1560,Mansfield,Texas,United States,76063.0,Central,US
1561,Tamworth,New South Wales,Australia,,Oceania,APAC
1562,Worcester,England,United Kingdom,,North,EU
1563,Champigny-sur-Marne,Ile-de-France,France,,Central,EU
1564,Port Harcourt,Rivers,Nigeria,,Africa,Africa
1565,Smyrna,Tennessee,United States,37167.0,South,US
1566,Hoover,Alabama,United States,35244.0,South,US
1567,Ituiutaba,Minas Gerais,Brazil,,South,LATAM
1568,Raipur,Chhattisgarh,India,,Central Asia,APAC
1569,Guwahati,Assam,India,,Central Asia,APAC
1570,Gaziantep,Gaziantep,Turkey,,EMEA,EMEA
1571,Jerez de la Frontera,Andalusía,Spain,,South,EU
1572,Carrara,Tuscany,Italy,,South,EU
1573,Constanta,Constanta,Romania,,EMEA,EMEA
1574,Cotia,São Paulo,Brazil,,South,LATAM
1575,Beaumont,Texas,United States,77705.0,Central,US
1576,Rafsanjan,Kerman,Iran,,EMEA,EMEA
1577,Guacara,Carabobo,Venezuela,,South,LATAM
1578,Al Mubarraz,Ash Sharqiyah,Saudi Arabia,,EMEA,EMEA
1579,Aberdeen,Scotland,United Kingdom,,North,EU
1580,Montes Claros,Minas Gerais,Brazil,,South,LATAM
1581,La Chorrera,Panama,Panama,,Central,LATAM
1582,Cotonou,Littoral,Benin,,Africa,Africa
1583,Washington,District of Columbia,United States,20016.0,East,US
1584,Chico,California,United States,95928.0,West,US
1585,Puente Alto,Santiago,Chile,,South,LATAM
1586,Tecomán,Colima,Mexico,,North,LATAM
1587,Peshawar,Khyber Pakhtunkhwa,Pakistan,,Central Asia,APAC
1588,Kawasaki,Kanagawa,Japan,,North Asia,APAC
1589,Pasadena,California,United States,91104.0,West,US
1590,Acerra,Campania,Italy,,South,EU
1591,Chilpancingo,Guerrero,Mexico,,North,LATAM
1592,Khomeynishahr,Esfahan,Iran,,EMEA,EMEA
1593,Edmond,Oklahoma,United States,73034.0,Central,US
1594,Jieshou,Anhui,China,,North Asia,APAC
1595,Surrey,British Columbia,Canada,,Canada,Canada
1596,Progreso,Yucatán,Mexico,,North,LATAM
1597,Decatur,Illinois,United States,62521.0,Central,US
1598,San Bernardo,Santiago,Chile,,South,LATAM
1599,Aalen,Baden-Württemberg,Germany,,Central,EU
1600,Aurangabad,Maharashtra,India,,Central Asia,APAC
1601,Marsabit,Eastern,Kenya,,Africa,Africa
1602,Lodz,Lodz,Poland,,EMEA,EMEA
1603,Multan,Punjab,Pakistan,,Central Asia,APAC
1604,Allentown,Pennsylvania,United States,18103.0,East,US
1605,Mufulira,Copperbelt,Zambia,,Africa,Africa
1606,Greifswald,Mecklenburg-Vorpommern,Germany,,Central,EU
1607,Tempe,Arizona,United States,85281.0,West,US
1608,Letchworth,England,United Kingdom,,North,EU
1609,Mosul,Ninawa,Iraq,,EMEA,EMEA
1610,João Pessoa,Paraíba,Brazil,,South,LATAM
1611,Sibiu,Sibiu,Romania,,EMEA,EMEA
1612,Fresnes,Ile-de-France,France,,Central,EU
1613,Cuajimalpa,Distrito Federal,Mexico,,North,LATAM
1614,Córdoba,Veracruz,Mexico,,North,LATAM
1615,Fayetteville,Arkansas,United States,72701.0,South,US
1616,Tunis,Tunis,Tunisia,,Africa,Africa
1617,Itapevi,São Paulo,Brazil,,South,LATAM
1618,Halle,North Rhine-Westphalia,Germany,,Central,EU
1619,Rosario,Santa Fe,Argentina,,South,LATAM
1620,Mykolayiv,Mykolayiv,Ukraine,,EMEA,EMEA
1621,Sandnes,Rogaland,Norway,,North,EU
1622,Masaya,Masaya,Nicaragua,,Central,LATAM
1623,Kissimmee,Florida,United States,34741.0,South,US
1624,Aylesbury,England,United Kingdom,,North,EU
1625,Cambé,Parana,Brazil,,South,LATAM
1626,Aracaju,Sergipe,Brazil,,South,LATAM
1627,Warrington,England,United Kingdom,,North,EU
1628,Granada,Granada,Nicaragua,,Central,LATAM
1629,Limoeiro do Norte,Ceará,Brazil,,South,LATAM
1630,Katoomba,New South Wales,Australia,,Oceania,APAC
1631,Kediri,Jawa Timur,Indonesia,,Southeast Asia,APAC
1632,Yaroslavl',Yaroslavl',Russia,,EMEA,EMEA
1633,Salavat,Bashkortostan,Russia,,EMEA,EMEA
1634,Malang,Jawa Timur,Indonesia,,Southeast Asia,APAC
1635,Calais,Nord-Pas-de-Calais,France,,Central,EU
1636,Provo,Utah,United States,84604.0,West,US
1637,Novo Gama,Goiás,Brazil,,South,LATAM
1638,Peterborough,England,United Kingdom,,North,EU
1639,Bunbury,Western Australia,Australia,,Oceania,APAC
1640,Plymouth,England,United Kingdom,,North,EU
1641,Maryborough,Queensland,Australia,,Oceania,APAC
1642,Leuven,Flemish Brabant,Belgium,,Central,EU
1643,Zagreb,Grad Zagreb,Croatia,,EMEA,EMEA
1644,Frontera,Tabasco,Mexico,,North,LATAM
1645,Resende,Rio de Janeiro,Brazil,,South,LATAM
1646,Weifang,Shandong,China,,North Asia,APAC
1647,Chaville,Ile-de-France,France,,Central,EU
1648,Patiala,Punjab,India,,Central Asia,APAC
1649,Al Hillah,Babil,Iraq,,EMEA,EMEA
1650,Lowestoft,England,United Kingdom,,North,EU
1651,Hardenberg,Overijssel,Netherlands,,Central,EU
1652,Kowloon,Hong Kong,Hong Kong,,North Asia,APAC
1653,Cuscatancingo,San Salvador,El Salvador,,Central,LATAM
1654,Yantai,Shandong,China,,North Asia,APAC
1655,Melton,Victoria,Australia,,Oceania,APAC
1656,Drammen,Buskerud,Norway,,North,EU
1657,Auburn,Alabama,United States,36830.0,South,US
1658,Oosterhout,North Brabant,Netherlands,,Central,EU
1659,Torrance,California,United States,90503.0,West,US
1660,Montauban,Midi-Pyrénées,France,,Central,EU
1661,Jiangyou,Sichuan,China,,North Asia,APAC
1662,Livry-Gargan,Ile-de-France,France,,Central,EU
1663,Sorocaba,São Paulo,Brazil,,South,LATAM
1664,Xi'an,Shaanxi,China,,North Asia,APAC
1665,Kathmandu,Central,Nepal,,Central Asia,APAC
1666,Quimper,Brittany,France,,Central,EU
1667,Ixtapaluca,México,Mexico,,North,LATAM
1668,Wiesbaden,Hesse,Germany,,Central,EU
1669,Gdynia,Pomerania,Poland,,EMEA,EMEA
1670,Magdeburg,Saxony-Anhalt,Germany,,Central,EU
1671,Gennevilliers,Ile-de-France,France,,Central,EU
1672,Castelldefels,Catalonia,Spain,,South,EU
1673,Widnes,England,United Kingdom,,North,EU
1674,Kaspiysk,Dagestan,Russia,,EMEA,EMEA
1675,Chapecó,Santa Catarina,Brazil,,South,LATAM
1676,Darbhanga,Bihar,India,,Central Asia,APAC
1677,Coral Springs,Florida,United States,33065.0,South,US
1678,Laredo,Texas,United States,78041.0,Central,US
1679,Klagenfurt,Carinthia,Austria,,Central,EU
1680,Aswan,Aswan,Egypt,,Africa,Africa
1681,Cienfuegos,Cienfuegos,Cuba,,Caribbean,LATAM
1682,Miguel Hidalgo,Distrito Federal,Mexico,,North,LATAM
1683,Panevezys,Panevezys,Lithuania,,EMEA,EMEA
1684,Erftstadt,North Rhine-Westphalia,Germany,,Central,EU
1685,Lippstadt,North Rhine-Westphalia,Germany,,Central,EU
1686,Brive-la-Gaillarde,Limousin,France,,Central,EU
1687,Gisborne,Gisborne,New Zealand,,Oceania,APAC
1688,Pulheim,North Rhine-Westphalia,Germany,,Central,EU
1689,Coudekerque-Branche,Nord-Pas-de-Calais,France,,Central,EU
1690,Roeselare,West Flanders,Belgium,,Central,EU
1691,Highland Park,Illinois,United States,60035.0,Central,US
1692,Ciénaga,Magdalena,Colombia,,South,LATAM
1693,Bingol,Bingol,Turkey,,EMEA,EMEA
1694,Les Abymes,Guadeloupe,Guadeloupe,,Caribbean,LATAM
1695,Swindon,England,United Kingdom,,North,EU
1696,Abreu e Lima,Pernambuco,Brazil,,South,LATAM
1697,Pereira,Risaralda,Colombia,,South,LATAM
1698,Odense,South Denmark,Denmark,,North,EU
1699,Haikou,Hainan,China,,North Asia,APAC
1700,Obregón,Sonora,Mexico,,North,LATAM
1701,Sari,Mazandaran,Iran,,EMEA,EMEA
1702,Baruta,Miranda,Venezuela,,South,LATAM
1703,Hangzhou,Zhejiang,China,,North Asia,APAC
1704,Chingola,Copperbelt,Zambia,,Africa,Africa
1705,Saint-Cyr-sur-Loire,Centre,France,,Central,EU
1706,Guntur,Andhra Pradesh,India,,Central Asia,APAC
1707,Nishinomiya,Hyogo,Japan,,North Asia,APAC
1708,Offenbach,Hesse,Germany,,Central,EU
1709,Waterlooville,England,United Kingdom,,North,EU
1710,Huizhou,Guangdong,China,,North Asia,APAC
1711,Sohag,Suhaj,Egypt,,Africa,Africa
1712,Decatur,Alabama,United States,35601.0,South,US
1713,Dewsbury,England,United Kingdom,,North,EU
1714,Bishkek,Bishkek,Kyrgyzstan,,EMEA,EMEA
1715,Licheng,Jiangsu,China,,North Asia,APAC
1716,Thika,Central,Kenya,,Africa,Africa
1717,Bron,Rhône-Alpes,France,,Central,EU
1718,Normal,Illinois,United States,61761.0,Central,US
1719,Deventer,Overijssel,Netherlands,,Central,EU
1720,Tieling,Liaoning,China,,North Asia,APAC
1721,Santiago de los Caballeros,Santiago,Dominican Republic,,Caribbean,LATAM
1722,Laval,Quebec,Canada,,Canada,Canada
1723,Montereau-Fault-Yonne,Ile-de-France,France,,Central,EU
1724,Bulawayo,Bulawayo,Zimbabwe,,Africa,Africa
1725,Xuanhua,Hebei,China,,North Asia,APAC
1726,Vallauris,Provence-Alpes-Côte d'Azur,France,,Central,EU
1727,Redmond,Oregon,United States,97756.0,West,US
1728,Clydach,Wales,United Kingdom,,North,EU
1729,Xianyang,Shaanxi,China,,North Asia,APAC
1730,Forster,New South Wales,Australia,,Oceania,APAC
1731,Springfield,Oregon,United States,97477.0,West,US
1732,Dartford,England,United Kingdom,,North,EU
1733,Yokkaichi,Mie,Japan,,North Asia,APAC
1734,El Ejido,Andalusía,Spain,,South,EU
1735,Salzburg,Salzburg,Austria,,Central,EU
1736,Dundee,Scotland,United Kingdom,,North,EU
1737,Belgaum,Karnataka,India,,Central Asia,APAC
1738,Rybnik,Silesia,Poland,,EMEA,EMEA
1739,Iringa,Iringa,Tanzania,,Africa,Africa
1740,Benin City,Edo,Nigeria,,Africa,Africa
1741,Arlington,Texas,United States,76017.0,Central,US
1742,Yicheng,Hubei,China,,North Asia,APAC
1743,Kiel,Schleswig-Holstein,Germany,,Central,EU
1744,Kaiserslautern,Rhineland-Palatinate,Germany,,Central,EU
1745,Garches,Ile-de-France,France,,Central,EU
1746,Waterbury,Connecticut,United States,6708.0,East,US
1747,Rosenheim,Bavaria,Germany,,Central,EU
1748,Poole,England,United Kingdom,,North,EU
1749,Pocatello,Idaho,United States,83201.0,West,US
1750,Villejuif,Ile-de-France,France,,Central,EU
1751,Vryburg,North-West,South Africa,,Africa,Africa
1752,Termez,Surxondaryo,Uzbekistan,,EMEA,EMEA
1753,Xintai,Shandong,China,,North Asia,APAC
1754,Richmond,Indiana,United States,47374.0,Central,US
1755,Wuchuan,Guangdong,China,,North Asia,APAC
1756,Heroica Zitácuaro,Michoacán,Mexico,,North,LATAM
1757,Richmond,British Columbia,Canada,,Canada,Canada
1758,Worms,Rhineland-Palatinate,Germany,,Central,EU
1759,Darmstadt,Hesse,Germany,,Central,EU
1760,Issoire,Auvergne,France,,Central,EU
1761,Yichun,Heilongjiang,China,,North Asia,APAC
1762,Issy-les-Moulineaux,Ile-de-France,France,,Central,EU
1763,Chaozhou,Guangdong,China,,North Asia,APAC
1764,Chaoyang,Liaoning,China,,North Asia,APAC
1765,Granada,Andalusía,Spain,,South,EU
1766,Bhubaneswar,Odisha,India,,Central Asia,APAC
1767,Broken Hill,New South Wales,Australia,,Oceania,APAC
1768,Porto,Porto,Portugal,,South,EU
1769,Columbia,Tennessee,United States,38401.0,South,US
1770,Sanming,Fujian,China,,North Asia,APAC
1771,Invercargill,Southland,New Zealand,,Oceania,APAC
1772,Salt Lake City,Utah,United States,84106.0,West,US
1773,Kuching,Sarawak,Malaysia,,Southeast Asia,APAC
1774,Probolinggo,Jawa Timur,Indonesia,,Southeast Asia,APAC
1775,Chandler,Arizona,United States,85224.0,West,US
1776,Kandahar,Kandahar,Afghanistan,,Central Asia,APAC
1777,Duitama,Boyacá,Colombia,,South,LATAM
1778,Taverny,Ile-de-France,France,,Central,EU
1779,Caxias do Sul,Rio Grande do Sul,Brazil,,South,LATAM
1780,Elmhurst,Illinois,United States,60126.0,Central,US
1781,Laghouat,Laghouat,Algeria,,Africa,Africa
1782,Juba,Central Equatoria,South Sudan,,Africa,Africa
1783,Sumaré,São Paulo,Brazil,,South,LATAM
1784,Lucca,Tuscany,Italy,,South,EU
1785,Minden,North Rhine-Westphalia,Germany,,Central,EU
1786,Herten,North Rhine-Westphalia,Germany,,Central,EU
1787,Pelotas,Rio Grande do Sul,Brazil,,South,LATAM
1788,Arvada,Colorado,United States,80004.0,West,US
1789,Campo Grande,Mato Grosso do Sul,Brazil,,South,LATAM
1790,Lower Hutt,Wellington,New Zealand,,Oceania,APAC
1791,Poznan,Greater Poland,Poland,,EMEA,EMEA
1792,Birigui,São Paulo,Brazil,,South,LATAM
1793,Wad Madani,Gezira,Sudan,,Africa,Africa
1794,Florence,South Carolina,United States,29501.0,South,US
1795,Islamabad,F.C.T.,Pakistan,,Central Asia,APAC
1796,Stevenage,England,United Kingdom,,North,EU
1797,Nanchang,Jiangxi,China,,North Asia,APAC
1798,Guayaquil,Guayas,Ecuador,,South,LATAM
1799,Rancagua,O'Higgins,Chile,,South,LATAM
1800,Rawalpindi,Punjab,Pakistan,,Central Asia,APAC
1801,Zhuhai,Guangdong,China,,North Asia,APAC
1802,Mau,Madhya Pradesh,India,,Central Asia,APAC
1803,Shahriar,Tehran,Iran,,EMEA,EMEA
1804,Contramaestre,Santiago de Cuba,Cuba,,Caribbean,LATAM
1805,Thonon-les-Bains,Rhône-Alpes,France,,Central,EU
1806,Allauch,Provence-Alpes-Côte d'Azur,France,,Central,EU
1807,Amritsar,Punjab,India,,Central Asia,APAC
1808,Rondonópolis,Mato Grosso,Brazil,,South,LATAM
1809,Handan,Hebei,China,,North Asia,APAC
1810,Coslada,Madrid,Spain,,South,EU
1811,Plantation,Florida,United States,33317.0,South,US
1812,Bauchi,Bauchi,Nigeria,,Africa,Africa
1813,Maple Grove,Minnesota,United States,55369.0,Central,US
1814,Auburn,New York,United States,13021.0,East,US
1815,Ratingen,North Rhine-Westphalia,Germany,,Central,EU
1816,Caloocan,National Capital,Philippines,,Southeast Asia,APAC
1817,Inglewood,California,United States,90301.0,West,US
1818,Libreville,Estuaire,Gabon,,Africa,Africa
1819,Saint Charles,Illinois,United States,60174.0,Central,US
1820,Pomona,California,United States,91767.0,West,US
1821,Opole,Opole,Poland,,EMEA,EMEA
1822,Gastonia,North Carolina,United States,28052.0,South,US
1823,São Bernardo do Campo,São Paulo,Brazil,,South,LATAM
1824,Metz,Lorraine,France,,Central,EU
1825,Peoria,Arizona,United States,85345.0,West,US
1826,Albuquerque,New Mexico,United States,87105.0,West,US
1827,Plano,Texas,United States,75023.0,Central,US
1828,Tongling,Anhui,China,,North Asia,APAC
1829,Colima,Colima,Mexico,,North,LATAM
1830,Green Bay,Wisconsin,United States,54302.0,Central,US
1831,Klagenfurt,Carinthia,Austria,,EMEA,EMEA
1832,Cheshunt,England,United Kingdom,,North,EU
1833,Middletown,Connecticut,United States,6457.0,East,US
1834,Chula Vista,California,United States,91911.0,West,US
1835,Riverside,California,United States,92503.0,West,US
1836,Guarulhos,São Paulo,Brazil,,South,LATAM
1837,Homyel',Homyel',Belarus,,EMEA,EMEA
1838,Torquay,England,United Kingdom,,North,EU
1839,Narbonne,Languedoc-Roussillon,France,,Central,EU
1840,Sylhet,Sylhet,Bangladesh,,Central Asia,APAC
1841,Sandakan,Sabah,Malaysia,,Southeast Asia,APAC
1842,Takamatsu,Ishikawa,Japan,,North Asia,APAC
1843,Al Muharraq,Muharraq,Bahrain,,EMEA,EMEA
1844,Akola,Maharashtra,India,,Central Asia,APAC
1845,Troy,New York,United States,12180.0,East,US
1846,El Cajon,California,United States,92020.0,West,US
1847,Birkenhead,England,United Kingdom,,North,EU
1848,Istres,Provence-Alpes-Côte d'Azur,France,,Central,EU
1849,Noisy-le-Sec,Ile-de-France,France,,Central,EU
1850,Shangyu,Zhejiang,China,,North Asia,APAC
1851,Winnipeg,Manitoba,Canada,,Canada,Canada
1852,Burnaby,British Columbia,Canada,,Canada,Canada
1853,Bacau,Bacau,Romania,,EMEA,EMEA
1854,Nantong,Jiangsu,China,,North Asia,APAC
1855,Mougins,Provence-Alpes-Côte d'Azur,France,,Central,EU
1856,Bolzano,Trentino-Alto Adige,Italy,,South,EU
1857,Amiens,Picardy,France,,Central,EU
1858,Valencia,Northern Mindanao,Philippines,,Southeast Asia,APAC
1859,Farroupilha,Rio Grande do Sul,Brazil,,South,LATAM
1860,Hangu,Tianjin,China,,North Asia,APAC
1861,Uskudar,Istanbul,Turkey,,EMEA,EMEA
1862,Wuxi,Hunan,China,,North Asia,APAC
1863,Lora del Río,Andalusía,Spain,,South,EU
1864,Mcallen,Texas,United States,78501.0,Central,US
1865,Colón,Colón,Panama,,Central,LATAM
1866,Torcy,Ile-de-France,France,,Central,EU
1867,Zanjan,Zanjan,Iran,,EMEA,EMEA
1868,Calabar,Cross River,Nigeria,,Africa,Africa
1869,Rotorua,Bay of Plenty,New Zealand,,Oceania,APAC
1870,Veracruz,Veracruz,Mexico,,North,LATAM
1871,Sincan,Ankara,Turkey,,EMEA,EMEA
1872,Paderborn,North Rhine-Westphalia,Germany,,Central,EU
1873,Orsay,Ile-de-France,France,,Central,EU
1874,Medina,Ohio,United States,44256.0,East,US
1875,Guatire,Miranda,Venezuela,,South,LATAM
1876,Thiais,Ile-de-France,France,,Central,EU
1877,San Lorenzo,Central,Paraguay,,South,LATAM
1878,Sterlitamak,Bashkortostan,Russia,,EMEA,EMEA
1879,La Teste-de-Buch,Aquitaine,France,,Central,EU
1880,Haifa,Haifa,Israel,,EMEA,EMEA
1881,Barranquilla,Atlántico,Colombia,,South,LATAM
1882,Maradi,Maradi,Niger,,Africa,Africa
1883,Dearborn,Michigan,United States,48126.0,Central,US
1884,Blumenau,Santa Catarina,Brazil,,South,LATAM
1885,Gravatá,Pernambuco,Brazil,,South,LATAM
1886,Scottsdale,Arizona,United States,85254.0,West,US
1887,Oxnard,California,United States,93030.0,West,US
1888,Margate,England,United Kingdom,,North,EU
1889,Trapani,Sicily,Italy,,South,EU
1890,Lormont,Aquitaine,France,,Central,EU
1891,Sapucaia do Sul,Rio Grande do Sul,Brazil,,South,LATAM
1892,Paço do Lumiar,Maranhão,Brazil,,South,LATAM
1893,Jingmen,Hubei,China,,North Asia,APAC
1894,Bengkulu,Bengkulu,Indonesia,,Southeast Asia,APAC
1895,Kirkwood,Missouri,United States,63122.0,Central,US
1896,Lichinga,Niassa,Mozambique,,Africa,Africa
1897,Sargodha,Punjab,Pakistan,,Central Asia,APAC
1898,Mardin,Mardin,Turkey,,EMEA,EMEA
1899,Aulnay-sous-Bois,Ile-de-France,France,,Central,EU
1900,Mesa,Arizona,United States,85204.0,West,US
1901,Bihar Sharif,Bihar,India,,Central Asia,APAC
1902,Ottawa,Ontario,Canada,,Canada,Canada
1903,Huyton,England,United Kingdom,,North,EU
1904,Hyderabad,Sindh,Pakistan,,Central Asia,APAC
1905,Taizz,Ta'izz,Yemen,,EMEA,EMEA
1906,Trappes,Ile-de-France,France,,Central,EU
1907,Montrouge,Ile-de-France,France,,Central,EU
1908,Huambo,Huambo,Angola,,Africa,Africa
1909,Wuppertal,North Rhine-Westphalia,Germany,,Central,EU
1910,Verona,Veneto,Italy,,South,EU
1911,Brighton,England,United Kingdom,,North,EU
1912,Bayreuth,Bavaria,Germany,,Central,EU
1913,Ankara,Ankara,Turkey,,EMEA,EMEA
1914,Tehuacán,Puebla,Mexico,,North,LATAM
1915,Redditch,England,United Kingdom,,North,EU
1916,Kent,Washington,United States,98031.0,West,US
1917,Da Nang,Dà Nang,Vietnam,,Southeast Asia,APAC
1918,Umtata,Eastern Cape,South Africa,,Africa,Africa
1919,Hubli,Karnataka,India,,Central Asia,APAC
1920,Ludwigsfelde,Brandenburg,Germany,,Central,EU
1921,Maidenhead,England,United Kingdom,,North,EU
1922,Delmenhorst,Lower Saxony,Germany,,Central,EU
1923,Miami,Florida,United States,33142.0,South,US
1924,Kingston,Ontario,Canada,,Canada,Canada
1925,Gagny,Ile-de-France,France,,Central,EU
1926,Weston-super-Mare,England,United Kingdom,,North,EU
1927,Kuala Terengganu,Trengganu,Malaysia,,Southeast Asia,APAC
1928,Emden,Lower Saxony,Germany,,Central,EU
1929,Karlsruhe,Baden-Württemberg,Germany,,Central,EU
1930,Amman,'Amman,Jordan,,EMEA,EMEA
1931,Pau,Aquitaine,France,,Central,EU
1932,Calgary,Alberta,Canada,,Canada,Canada
1933,Whitby,Ontario,Canada,,Canada,Canada
1934,Legnano,Lombardy,Italy,,South,EU
1935,Baranagar,West Bengal,India,,Central Asia,APAC
1936,Arequipa,Arequipa,Peru,,South,LATAM
1937,Gravataí,Rio Grande do Sul,Brazil,,South,LATAM
1938,Niterói,Rio de Janeiro,Brazil,,South,LATAM
1939,Avignon,Provence-Alpes-Côte d'Azur,France,,Central,EU
1940,Sanandaj,Kordestan,Iran,,EMEA,EMEA
1941,Gebze,Kocaeli,Turkey,,EMEA,EMEA
1942,Hazebrouck,Nord-Pas-de-Calais,France,,Central,EU
1943,Uppsala,Uppsala,Sweden,,North,EU
1944,Slupsk,Pomerania,Poland,,EMEA,EMEA
1945,South Bend,Indiana,United States,46614.0,Central,US
1946,Agen,Aquitaine,France,,Central,EU
1947,Wallasey,England,United Kingdom,,North,EU
1948,Ras al Khaymah,Ra's Al Khaymah,United Arab Emirates,,EMEA,EMEA
1949,Burnie,Tasmania,Australia,,Oceania,APAC
1950,Xinxiang,Henan,China,,North Asia,APAC
1951,Irun,Basque Country,Spain,,South,EU
1952,Pontianak,Kalimantan Barat,Indonesia,,Southeast Asia,APAC
1953,Roseville,Michigan,United States,48066.0,Central,US
1954,Grevenbroich,North Rhine-Westphalia,Germany,,Central,EU
1955,Hamilton,Ontario,Canada,,Canada,Canada
1956,Santa Rosa,Rio Grande do Sul,Brazil,,South,LATAM
1957,Paraná,Entre Ríos,Argentina,,South,LATAM
1958,Canton,Michigan,United States,48187.0,Central,US
1959,Guildford,England,United Kingdom,,North,EU
1960,Ruda Slaska,Silesia,Poland,,EMEA,EMEA
1961,Six-Fours-les-Plages,Provence-Alpes-Côte d'Azur,France,,Central,EU
1962,Murray,Kentucky,United States,42071.0,South,US
1963,Salvador,Bahia,Brazil,,South,LATAM
1964,Luton,England,United Kingdom,,North,EU
1965,Cottbus,Brandenburg,Germany,,Central,EU
1966,Kilwinning,Scotland,United Kingdom,,North,EU
1967,Neijiang,Sichuan,China,,North Asia,APAC
1968,Shkoder,Shkodër,Albania,,EMEA,EMEA
1969,Abadan,Khuzestan,Iran,,EMEA,EMEA
1970,Overland Park,Kansas,United States,66212.0,Central,US
1971,Cainta,Calabarzon,Philippines,,Southeast Asia,APAC
1972,Velsen,North Holland,Netherlands,,Central,EU
1973,Ahvaz,Khuzestan,Iran,,EMEA,EMEA
1974,Lawton,Oklahoma,United States,73505.0,Central,US
1975,Paterson,New Jersey,United States,7501.0,East,US
1976,Jamnagar,Gujarat,India,,Central Asia,APAC
1977,Gothenburg,Västra Götaland,Sweden,,North,EU
1978,Durban,Kwazulu-natal,South Africa,,Africa,Africa
1979,Cárdenas,Matanzas,Cuba,,Caribbean,LATAM
1980,Rheine,North Rhine-Westphalia,Germany,,Central,EU
1981,Maracaibo,Zulia,Venezuela,,South,LATAM
1982,Tourcoing,Nord-Pas-de-Calais,France,,Central,EU
1983,Saint Peters,Missouri,United States,63376.0,Central,US
1984,Guanambi,Bahia,Brazil,,South,LATAM
1985,Sukkur,Sindh,Pakistan,,Central Asia,APAC
1986,Firminy,Rhône-Alpes,France,,Central,EU
1987,Las Rozas de Madrid,Madrid,Spain,,South,EU
1988,Moradabad,Uttar Pradesh,India,,Central Asia,APAC
1989,Shinyanga,Shinyanga,Tanzania,,Africa,Africa
1990,Chisinau,Chisinau,Moldova,,EMEA,EMEA
1991,Lakewood,California,United States,90712.0,West,US
1992,Sakai,Ibaraki,Japan,,North Asia,APAC
1993,Barreiras,Bahia,Brazil,,South,LATAM
1994,Ajaccio,Corsica,France,,Central,EU
1995,Meyzieu,Rhône-Alpes,France,,Central,EU
1996,Batman,Batman,Turkey,,EMEA,EMEA
1997,La Crosse,Wisconsin,United States,54601.0,Central,US
1998,Bukavu,South Kivu,Democratic Republic of the Congo,,Africa,Africa
1999,San Rafael,Mendoza,Argentina,,South,LATAM
2000,Gorgan,Golestan,Iran,,EMEA,EMEA
2001,Woodstock,Georgia,United States,30188.0,South,US
2002,Brescia,Lombardy,Italy,,South,EU
2003,Heidelberg,Baden-Württemberg,Germany,,Central,EU
2004,Haguenau,Alsace,France,,Central,EU
2005,Jos,Plateau,Nigeria,,Africa,Africa
2006,Punta Arenas,Magallanes y Antártica Chilena,Chile,,South,LATAM
2007,Galway,Galway,Ireland,,North,EU
2008,Wenzhou,Zhejiang,China,,North Asia,APAC
2009,Targu Jiu,Gorj,Romania,,EMEA,EMEA
2010,Ingolstadt,Bavaria,Germany,,Central,EU
2011,Wheeling,West Virginia,United States,26003.0,East,US
2012,Southaven,Mississippi,United States,38671.0,South,US
2013,Neiva,Huila,Colombia,,South,LATAM
2014,Savigny-le-Temple,Ile-de-France,France,,Central,EU
2015,Tarragona,Catalonia,Spain,,South,EU
2016,Pingdingshan,Henan,China,,North Asia,APAC
2017,Canoas,Rio Grande do Sul,Brazil,,South,LATAM
2018,Timisoara,Timis,Romania,,EMEA,EMEA
2019,Stralsund,Mecklenburg-Vorpommern,Germany,,Central,EU
2020,Ceuta,Ceuta,Spain,,South,EU
2021,Varna,Varna,Bulgaria,,EMEA,EMEA
2022,Nevsehir,Nevsehir,Turkey,,EMEA,EMEA
2023,Guanajuato,Guanajuato,Mexico,,North,LATAM
2024,Takestan,Qazvin,Iran,,EMEA,EMEA
2025,Quilmes,Provincia de Buenos Aires,Argentina,,South,LATAM
2026,Rio Branco,Acre,Brazil,,South,LATAM
2027,Salem,Oregon,United States,97301.0,West,US
2028,Delgado,San Salvador,El Salvador,,Central,LATAM
2029,Bistrita,Bistrita-Nasaud,Romania,,EMEA,EMEA
2030,Angeles City,Central Luzon,Philippines,,Southeast Asia,APAC
2031,Gelsenkirchen,North Rhine-Westphalia,Germany,,Central,EU
2032,Huancayo,Junín,Peru,,South,LATAM
2033,Vallejo,California,United States,94591.0,West,US
2034,Amersfoort,Utrecht,Netherlands,,Central,EU
2035,Camarillo,California,United States,93010.0,West,US
2036,Linyi,Shandong,China,,North Asia,APAC
2037,Kherson,Kherson,Ukraine,,EMEA,EMEA
2038,Girona,Catalonia,Spain,,South,EU
2039,Dorsten,North Rhine-Westphalia,Germany,,Central,EU
2040,Kirovohrad,Kirovohrad,Ukraine,,EMEA,EMEA
2041,Moca,Espaillat,Dominican Republic,,Caribbean,LATAM
2042,Berdyans'k,Zaporizhzhya,Ukraine,,EMEA,EMEA
2043,Osasco,São Paulo,Brazil,,South,LATAM
2044,Cerignola,Apulia,Italy,,South,EU
2045,Borazjan,Bushehr,Iran,,EMEA,EMEA
2046,Wels,Upper Austria,Austria,,Central,EU
2047,Mission Viejo,California,United States,92691.0,West,US
2048,Berne,Bern,Switzerland,,Central,EU
2049,Surubim,Pernambuco,Brazil,,South,LATAM
2050,Woodbury,Minnesota,United States,55125.0,Central,US
2051,Jammu,Jammu and Kashmir,India,,Central Asia,APAC
2052,Des Plaines,Illinois,United States,60016.0,Central,US
2053,Man,Dix-Huit Montagnes,Cote d'Ivoire,,Africa,Africa
2054,Saint-Malo,Brittany,France,,Central,EU
2055,Ebolowa,Sud,Cameroon,,Africa,Africa
2056,Djougou,Donga,Benin,,Africa,Africa
2057,Thies Nones,Thies,Senegal,,Africa,Africa
2058,Pilar,Alagoas,Brazil,,South,LATAM
2059,Batna,Batna,Algeria,,Africa,Africa
2060,Roseville,California,United States,95661.0,West,US
2061,Villenave-d'Ornon,Aquitaine,France,,Central,EU
2062,Passaic,New Jersey,United States,7055.0,East,US
2063,Wakefield,England,United Kingdom,,North,EU
2064,Norderstedt,Schleswig-Holstein,Germany,,Central,EU
2065,Saint-Michel-sur-Orge,Ile-de-France,France,,Central,EU
2066,Samobor,Zagrebacka,Croatia,,EMEA,EMEA
2067,Regina,Saskatchewan,Canada,,Canada,Canada
2068,Changsha,Hunan,China,,North Asia,APAC
2069,Dearborn Heights,Michigan,United States,48127.0,Central,US
2070,Twin Falls,Idaho,United States,83301.0,West,US
2071,Les Clayes-sous-Bois,Ile-de-France,France,,Central,EU
2072,Yongchuan,Chongqing,China,,North Asia,APAC
2073,Melun,Ile-de-France,France,,Central,EU
2074,Chemnitz,Saxony,Germany,,Central,EU
2075,Rotterdam,South Holland,Netherlands,,Central,EU
2076,Koblenz,Rhineland-Palatinate,Germany,,Central,EU
2077,Binjai,Sumatera Utara,Indonesia,,Southeast Asia,APAC
2078,Yuma,Arizona,United States,85364.0,West,US
2079,Wadi as Sir,'Amman,Jordan,,EMEA,EMEA
2080,Hagen,North Rhine-Westphalia,Germany,,Central,EU
2081,Zahedan,Sistan Va Baluchestan,Iran,,EMEA,EMEA
2082,Heyuan,Guangdong,China,,North Asia,APAC
2083,Halesowen,England,United Kingdom,,North,EU
2084,Pingnan,Guangxi,China,,North Asia,APAC
2085,Lubango,Huila,Angola,,Africa,Africa
2086,Ceyhan,Adana,Turkey,,EMEA,EMEA
2087,Mount Pleasant,South Carolina,United States,29464.0,South,US
2088,Xingtai,Hebei,China,,North Asia,APAC
2089,Bandar Abbas,Hormozgan,Iran,,EMEA,EMEA
2090,Gonaïves,Artibonite,Haiti,,Caribbean,LATAM
2091,Wilmington,North Carolina,United States,28403.0,South,US
2092,Chieti,Abruzzi,Italy,,South,EU
2093,Auxerre,Burgundy,France,,Central,EU
2094,Rio Rancho,New Mexico,United States,87124.0,West,US
2095,Gradignan,Aquitaine,France,,Central,EU
2096,Trenton,Michigan,United States,48183.0,Central,US
2097,Satu Mare,Satu Mare,Romania,,EMEA,EMEA
2098,Badalona,Catalonia,Spain,,South,EU
2099,Bornova,Izmir,Turkey,,EMEA,EMEA
2100,Tripoli,North Lebanon,Lebanon,,EMEA,EMEA
2101,Lincoln,England,United Kingdom,,North,EU
2102,Washington,England,United Kingdom,,North,EU
2103,Monroe,Louisiana,United States,71203.0,South,US
2104,Lake Forest,California,United States,92630.0,West,US
2105,Winterthur,Zürich,Switzerland,,Central,EU
2106,Caen,Lower Normandy,France,,Central,EU
2107,Araranguá,Santa Catarina,Brazil,,South,LATAM
2108,Frontignan,Languedoc-Roussillon,France,,Central,EU
2109,Piedras Negras,Coahuila,Mexico,,North,LATAM
2110,Huangshan,Anhui,China,,North Asia,APAC
2111,Derbent,Dagestan,Russia,,EMEA,EMEA
2112,Wheeling,Illinois,United States,60090.0,Central,US
2113,Ramnicu Valcea,Valcea,Romania,,EMEA,EMEA
2114,Reading,Pennsylvania,United States,19601.0,East,US
2115,Hod HaSharon,Central,Israel,,EMEA,EMEA
2116,Hesperia,California,United States,92345.0,West,US
2117,Kisangani,Orientale,Democratic Republic of the Congo,,Africa,Africa
2118,Gladstone,Queensland,Australia,,Oceania,APAC
2119,Santos,São Paulo,Brazil,,South,LATAM
2120,Pertuis,Provence-Alpes-Côte d'Azur,France,,Central,EU
2121,Mont-Saint-Aignan,Upper Normandy,France,,Central,EU
2122,Le Pontet,Provence-Alpes-Côte d'Azur,France,,Central,EU
2123,Zhuzhou,Hunan,China,,North Asia,APAC
2124,Colomiers,Midi-Pyrénées,France,,Central,EU
2125,Cessnock,New South Wales,Australia,,Oceania,APAC
2126,Nanyang,Henan,China,,North Asia,APAC
2127,Pasto,Nariño,Colombia,,South,LATAM
2128,San Bernardino,California,United States,92404.0,West,US
2129,Apopka,Florida,United States,32712.0,South,US
2130,Barika,Batna,Algeria,,Africa,Africa
2131,Fuzhou,Fujian,China,,North Asia,APAC
2132,Taytay,Calabarzon,Philippines,,Southeast Asia,APAC
2133,Ermont,Ile-de-France,France,,Central,EU
2134,Zhoukou,Henan,China,,North Asia,APAC
2135,Les Mureaux,Ile-de-France,France,,Central,EU
2136,Quchan,Razavi Khorasan,Iran,,EMEA,EMEA
2137,Miramar,Tamaulipas,Mexico,,North,LATAM
2138,K'ut'aisi,Imereti,Georgia,,EMEA,EMEA
2139,Cartagena,Murcia,Spain,,South,EU
2140,Myslowice,Silesia,Poland,,EMEA,EMEA
2141,Rivne,Rivne,Ukraine,,EMEA,EMEA
2142,Emmen,Drenthe,Netherlands,,Central,EU
2143,Chenzhou,Hunan,China,,North Asia,APAC
2144,Revere,Massachusetts,United States,2151.0,East,US
2145,Siedlce,Masovia,Poland,,EMEA,EMEA
2146,Shuangyashan,Heilongjiang,China,,North Asia,APAC
2147,Paracatu,Minas Gerais,Brazil,,South,LATAM
2148,Aew?l-li,Jeju,South Korea,,North Asia,APAC
2149,Quibdó,Chocó,Colombia,,South,LATAM
2150,Budënnovsk,Stavropol',Russia,,EMEA,EMEA
2151,Burgas,Burgas,Bulgaria,,EMEA,EMEA
2152,Zlatoust,Chelyabinsk,Russia,,EMEA,EMEA
2153,Vitória,Espírito Santo,Brazil,,South,LATAM
2154,Jalalabad,Nangarhar,Afghanistan,,Central Asia,APAC
2155,Sabadell,Catalonia,Spain,,South,EU
2156,Presidente Prudente,São Paulo,Brazil,,South,LATAM
2157,Garoua,Nord,Cameroon,,Africa,Africa
2158,Kolwezi,Katanga,Democratic Republic of the Congo,,Africa,Africa
2159,San Fernando,Andalusía,Spain,,South,EU
2160,Verviers,Liège,Belgium,,Central,EU
2161,Wichita,Kansas,United States,67212.0,Central,US
2162,Eugene,Oregon,United States,97405.0,West,US
2163,Saharanpur,Uttar Pradesh,India,,Central Asia,APAC
2164,Cremona,Lombardy,Italy,,South,EU
2165,Duque de Caxias,Rio de Janeiro,Brazil,,South,LATAM
2166,Warsaw,Masovia,Poland,,EMEA,EMEA
2167,Bakersfield,California,United States,93309.0,West,US
2168,Lajeado,Rio Grande do Sul,Brazil,,South,LATAM
2169,Plzen,Plzen,Czech Republic,,EMEA,EMEA
2170,Mazyr,Homyel',Belarus,,EMEA,EMEA
2171,Getafe,Madrid,Spain,,South,EU
2172,Tongliao,Inner Mongolia,China,,North Asia,APAC
2173,San Cristóbal de Las Casas,Chiapas,Mexico,,North,LATAM
2174,Mentor,Ohio,United States,44060.0,East,US
2175,Bursa,Bursa,Turkey,,EMEA,EMEA
2176,Gaspar,Santa Catarina,Brazil,,South,LATAM
2177,Daegu,Daegu,South Korea,,North Asia,APAC
2178,Betim,Minas Gerais,Brazil,,South,LATAM
2179,Goulburn,New South Wales,Australia,,Oceania,APAC
2180,Rolândia,Parana,Brazil,,South,LATAM
2181,Laohekou,Hubei,China,,North Asia,APAC
2182,Blackburn,England,United Kingdom,,North,EU
2183,Doetinchem,Gelderland,Netherlands,,Central,EU
2184,Botosani,Botosani,Romania,,EMEA,EMEA
2185,Beni Suef,Bani Suwayf,Egypt,,Africa,Africa
2186,Tarbes,Midi-Pyrénées,France,,Central,EU
2187,Modica,Sicily,Italy,,South,EU
2188,Grand Prairie,Texas,United States,75051.0,Central,US
2189,Manzini,Manzini,Swaziland,,Africa,Africa
2190,Port Arthur,Texas,United States,77642.0,Central,US
2191,San Francisco del Rincón,Guanajuato,Mexico,,North,LATAM
2192,Chatou,Ile-de-France,France,,Central,EU
2193,Akron,Ohio,United States,44312.0,East,US
2194,Novara,Piedmont,Italy,,South,EU
2195,Broomfield,Colorado,United States,80020.0,West,US
2196,Capelle aan den IJssel,South Holland,Netherlands,,Central,EU
2197,Francisco Morato,São Paulo,Brazil,,South,LATAM
2198,Torquay,Queensland,Australia,,Oceania,APAC
2199,Stellenbosch,Western Cape,South Africa,,Africa,Africa
2200,La Porte,Indiana,United States,46350.0,Central,US
2201,Bar-le-Duc,Lorraine,France,,Central,EU
2202,Jundiaí,São Paulo,Brazil,,South,LATAM
2203,Cuautitlán,México,Mexico,,North,LATAM
2204,Palencia,Castile and León,Spain,,South,EU
2205,Enugu,Enugu,Nigeria,,Africa,Africa
2206,Idfu,Aswan,Egypt,,Africa,Africa
2207,Buffalo Grove,Illinois,United States,60089.0,Central,US
2208,Woodstock,Illinois,United States,60098.0,Central,US
2209,Manzanillo,Colima,Mexico,,North,LATAM
2210,Recife,Pernambuco,Brazil,,South,LATAM
2211,Bedford,England,United Kingdom,,North,EU
2212,Mbinga,Ruvuma,Tanzania,,Africa,Africa
2213,Monroe,North Carolina,United States,28110.0,South,US
2214,Bamenda,Nord-Ouest,Cameroon,,Africa,Africa
2215,Heilbronn,Baden-Württemberg,Germany,,Central,EU
2216,Puerto Vallarta,Jalisco,Mexico,,North,LATAM
2217,Qiqihar,Heilongjiang,China,,North Asia,APAC
2218,Sarcelles,Ile-de-France,France,,Central,EU
2219,Carvin,Nord-Pas-de-Calais,France,,Central,EU
2220,Latina,Lazio,Italy,,South,EU
2221,Purwokerto,Jawa Tengah,Indonesia,,Southeast Asia,APAC
2222,Rochester,Minnesota,United States,55901.0,Central,US
2223,Torre del Greco,Campania,Italy,,South,EU
2224,Diyarbakir,Diyarbakir,Turkey,,EMEA,EMEA
2225,Mitry-Mory,Ile-de-France,France,,Central,EU
2226,Srinagar,Uttarakhand,India,,Central Asia,APAC
2227,Targu Mures,Mures,Romania,,EMEA,EMEA
2228,Chaguanas,Chaguanas,Trinidad and Tobago,,Caribbean,LATAM
2229,Utica,New York,United States,13501.0,East,US
2230,Los Patios,Norte de Santander,Colombia,,South,LATAM
2231,Anápolis,Goiás,Brazil,,South,LATAM
2232,Orlando,Florida,United States,32839.0,South,US
2233,Bournemouth,England,United Kingdom,,North,EU
2234,Porto Alegre,Rio Grande do Sul,Brazil,,South,LATAM
2235,São José dos Campos,São Paulo,Brazil,,South,LATAM
2236,Pico Rivera,California,United States,90660.0,West,US
2237,Taiping,Perak,Malaysia,,Southeast Asia,APAC
2238,Andradina,São Paulo,Brazil,,South,LATAM
2239,Erfurt,Thuringia,Germany,,Central,EU
2240,Olympia,Washington,United States,98502.0,West,US
2241,Vacaville,California,United States,95687.0,West,US
2242,Tigard,Oregon,United States,97224.0,West,US
2243,Stockton,California,United States,95207.0,West,US
2244,Vratsa,Vratsa,Bulgaria,,EMEA,EMEA
2245,Valle de La Pascua,Guárico,Venezuela,,South,LATAM
2246,Talavera de la Reina,Castile-La Mancha,Spain,,South,EU
2247,Hempstead,New York,United States,11550.0,East,US
2248,Montecatini Terme,Tuscany,Italy,,South,EU
2249,Guayana,Bolivar,Venezuela,,South,LATAM
2250,Gladstone,Missouri,United States,64118.0,Central,US
2251,Yingcheng,Hubei,China,,North Asia,APAC
2252,Tuxtla Gutiérrez,Chiapas,Mexico,,North,LATAM
2253,Pasig,National Capital,Philippines,,Southeast Asia,APAC
2254,Pucallpa,Ucayali,Peru,,South,LATAM
2255,Johnson City,Tennessee,United States,37604.0,South,US
2256,Richmond Hill,Ontario,Canada,,Canada,Canada
2257,Capua,Campania,Italy,,South,EU
2258,San Juan del Río,Querétaro,Mexico,,North,LATAM
2259,Chincha Alta,Ica,Peru,,South,LATAM
2260,Oceanside,California,United States,92054.0,West,US
2261,Sousa,Paraíba,Brazil,,South,LATAM
2262,Norwich,England,United Kingdom,,North,EU
2263,Boscoreale,Campania,Italy,,South,EU
2264,Friedrichshafen,Baden-Württemberg,Germany,,Central,EU
2265,Namangan,Namangan,Uzbekistan,,EMEA,EMEA
2266,Yacuiba,Tarija,Bolivia,,South,LATAM
2267,La Pintana,Santiago,Chile,,South,LATAM
2268,Corbeil-Essonnes,Ile-de-France,France,,Central,EU
2269,Anglet,Aquitaine,France,,Central,EU
2270,Bertoua,Est,Cameroon,,Africa,Africa
2271,Teresina,Piauí,Brazil,,South,LATAM
2272,El Progreso,Yoro,Honduras,,Central,LATAM
2273,Kikwit,Bandundu,Democratic Republic of the Congo,,Africa,Africa
2274,Giyani,Limpopo,South Africa,,Africa,Africa
2275,Girón,Santander,Colombia,,South,LATAM
2276,Holon,Tel Aviv,Israel,,EMEA,EMEA
2277,Altamira,Pará,Brazil,,South,LATAM
2278,Oak Park,Michigan,United States,48237.0,Central,US
2279,Cabo Frio,Rio de Janeiro,Brazil,,South,LATAM
2280,Moulins,Auvergne,France,,Central,EU
2281,Stockport,England,United Kingdom,,North,EU
2282,Amatitlán,Guatemala,Guatemala,,Central,LATAM
2283,Eau Claire,Wisconsin,United States,54703.0,Central,US
2284,Hove,England,United Kingdom,,North,EU
2285,Kartal,Istanbul,Turkey,,EMEA,EMEA
2286,York,Pennsylvania,United States,17403.0,East,US
2287,Ibadan,Oyo,Nigeria,,Africa,Africa
2288,Jacareí,São Paulo,Brazil,,South,LATAM
2289,Marl,North Rhine-Westphalia,Germany,,Central,EU
2290,Bonneuil-sur-Marne,Ile-de-France,France,,Central,EU
2291,Skokie,Illinois,United States,60076.0,Central,US
2292,Abha,'Asir,Saudi Arabia,,EMEA,EMEA
2293,Tanga,Tanga,Tanzania,,Africa,Africa
2294,Eastbourne,England,United Kingdom,,North,EU
2295,Tahta,Suhaj,Egypt,,Africa,Africa
2296,Orsha,Vitsyebsk,Belarus,,EMEA,EMEA
2297,Ibb,Ibb,Yemen,,EMEA,EMEA
2298,Passos,Minas Gerais,Brazil,,South,LATAM
2299,Cherbourg-Octeville,Lower Normandy,France,,Central,EU
2300,Temixco,Morelos,Mexico,,North,LATAM
2301,Oswego,Illinois,United States,60543.0,Central,US
2302,Rottingdean,England,United Kingdom,,North,EU
2303,Hailin,Heilongjiang,China,,North Asia,APAC
2304,Salinas,California,United States,93905.0,West,US
2305,Agadir,Souss-Massa-Draâ,Morocco,,Africa,Africa
2306,Castelnau-le-Lez,Languedoc-Roussillon,France,,Central,EU
2307,Roman,Neamt,Romania,,EMEA,EMEA
2308,Costa Mesa,California,United States,92627.0,West,US
2309,Chernihiv,Chernihiv,Ukraine,,EMEA,EMEA
2310,Livingstone,Southern,Zambia,,Africa,Africa
2311,Superior,Wisconsin,United States,54880.0,Central,US
2312,Whittier,California,United States,90604.0,West,US
2313,Kisumu,Nyanza,Kenya,,Africa,Africa
2314,Constantine,Constantine,Algeria,,Africa,Africa
2315,Kindu,Maniema,Democratic Republic of the Congo,,Africa,Africa
2316,Damanhur,Al Buhayrah,Egypt,,Africa,Africa
2317,Minuf,Al Minufiyah,Egypt,,Africa,Africa
2318,Cherkasy,Cherkasy,Ukraine,,EMEA,EMEA
2319,Bolu,Bolu,Turkey,,EMEA,EMEA
2320,Morgan Hill,California,United States,95037.0,West,US
2321,Kota,Rajasthan,India,,Central Asia,APAC
2322,Hisar,Haryana,India,,Central Asia,APAC
2323,Carol Stream,Illinois,United States,60188.0,Central,US
2324,Chartres,Centre,France,,Central,EU
2325,Lubbock,Texas,United States,79424.0,Central,US
2326,Guiping,Guangxi,China,,North Asia,APAC
2327,Shijiazhuang,Hebei,China,,North Asia,APAC
2328,Callao,Callao,Peru,,South,LATAM
2329,Yokkaichi,Oita,Japan,,North Asia,APAC
2330,Osh,Osh,Kyrgyzstan,,EMEA,EMEA
2331,Rochdale,England,United Kingdom,,North,EU
2332,Salina Cruz,Oaxaca,Mexico,,North,LATAM
2333,Villingen-Schwenningen,Baden-Württemberg,Germany,,Central,EU
2334,Huadian,Jilin,China,,North Asia,APAC
2335,Catia La Mar,Vargas,Venezuela,,South,LATAM
2336,Cholet,Pays de la Loire,France,,Central,EU
2337,Bucheon,Gyeonggi,South Korea,,North Asia,APAC
2338,Fontenay-sous-Bois,Ile-de-France,France,,Central,EU
2339,Hollywood,Florida,United States,33021.0,South,US
2340,Nacka,Stockholm,Sweden,,North,EU
2341,Cannes,Provence-Alpes-Côte d'Azur,France,,Central,EU
2342,Calamba,Calabarzon,Philippines,,Southeast Asia,APAC
2343,La Madeleine,Nord-Pas-de-Calais,France,,Central,EU
2344,Livingston,Scotland,United Kingdom,,North,EU
2345,Boa Vista,Roraima,Brazil,,South,LATAM
2346,Pine Bluff,Arkansas,United States,71603.0,South,US
2347,Ad Diwem,White Nile,Sudan,,Africa,Africa
2348,Karimnagar,Telangana,India,,Central Asia,APAC
2349,Herat,Hirat,Afghanistan,,Central Asia,APAC
2350,Takatsuki,Osaka,Japan,,North Asia,APAC
2351,Clifton,New Jersey,United States,7011.0,East,US
2352,Angarsk,Irkutsk,Russia,,EMEA,EMEA
2353,Gallarate,Lombardy,Italy,,South,EU
2354,Chetumal,Quintana Roo,Mexico,,North,LATAM
2355,Franklin,Tennessee,United States,37064.0,South,US
2356,Bangor,Maine,United States,4401.0,East,US
2357,Zaanstad,North Holland,Netherlands,,Central,EU
2358,Mishawaka,Indiana,United States,46544.0,Central,US
2359,Horlivka,Donetsk,Ukraine,,EMEA,EMEA
2360,São Miguel dos Campos,Alagoas,Brazil,,South,LATAM
2361,Tamale,Northern,Ghana,,Africa,Africa
2362,Salon-de-Provence,Provence-Alpes-Côte d'Azur,France,,Central,EU
2363,Cognac,Poitou-Charentes,France,,Central,EU
2364,Plovdiv,Plovdiv,Bulgaria,,EMEA,EMEA
2365,Halluin,Nord-Pas-de-Calais,France,,Central,EU
2366,Hereford,England,United Kingdom,,North,EU
2367,Huzhou,Zhejiang,China,,North Asia,APAC
2368,Recklinghausen,North Rhine-Westphalia,Germany,,Central,EU
2369,Portoviejo,Manabi,Ecuador,,South,LATAM
2370,Ngaoundere,Adamaoua,Cameroon,,Africa,Africa
2371,São Leopoldo,Rio Grande do Sul,Brazil,,South,LATAM
2372,Pistoia,Tuscany,Italy,,South,EU
2373,Rubí,Catalonia,Spain,,South,EU
2374,Hechuan,Chongqing,China,,North Asia,APAC
2375,Radom,Masovia,Poland,,EMEA,EMEA
2376,Esenyurt,Istanbul,Turkey,,EMEA,EMEA
2377,Bergamo,Lombardy,Italy,,South,EU
2378,Diadema,São Paulo,Brazil,,South,LATAM
2379,Vanves,Ile-de-France,France,,Central,EU
2380,Moshi,Kilimanjaro,Tanzania,,Africa,Africa
2381,Jaú,São Paulo,Brazil,,South,LATAM
2382,Caçador,Santa Catarina,Brazil,,South,LATAM
2383,Murrieta,California,United States,92563.0,West,US
2384,La Paz,La Paz,Bolivia,,South,LATAM
2385,San Jose del Monte,Central Luzon,Philippines,,Southeast Asia,APAC
2386,Moorhead,Minnesota,United States,56560.0,Central,US
2387,Lorena,São Paulo,Brazil,,South,LATAM
2388,Northwich,England,United Kingdom,,North,EU
2389,Warangal,Telangana,India,,Central Asia,APAC
2390,Polatli,Ankara,Turkey,,EMEA,EMEA
2391,Dunstable,England,United Kingdom,,North,EU
2392,Ashgabat,Ashgabat,Turkmenistan,,EMEA,EMEA
2393,Florencia,Caquetá,Colombia,,South,LATAM
2394,Dhule,Maharashtra,India,,Central Asia,APAC
2395,Najafabad,Esfahan,Iran,,EMEA,EMEA
2396,Belfort,Franche-Comté,France,,Central,EU
2397,Santa Maria,California,United States,93454.0,West,US
2398,Carlsbad,New Mexico,United States,88220.0,West,US
2399,Lagos de Moreno,Jalisco,Mexico,,North,LATAM
2400,Pontault-Combault,Ile-de-France,France,,Central,EU
2401,Bryan,Texas,United States,77803.0,Central,US
2402,Turgutlu,Manisa,Turkey,,EMEA,EMEA
2403,Athens,Georgia,United States,30605.0,South,US
2404,Pesaro,Marche,Italy,,South,EU
2405,Saint Petersburg,Florida,United States,33710.0,South,US
2406,Quincy,Massachusetts,United States,2169.0,East,US
2407,Iasi,Iasi,Romania,,EMEA,EMEA
2408,Mossoró,Rio Grande do Norte,Brazil,,South,LATAM
2409,Friedberg,Hesse,Germany,,Central,EU
2410,Lancaster,Pennsylvania,United States,17602.0,East,US
2411,Puyang,Henan,China,,North Asia,APAC
2412,Puerto Montt,Los Lagos,Chile,,South,LATAM
2413,Al Fayyum,Al Fayyum,Egypt,,Africa,Africa
2414,Irbid,Irbid,Jordan,,EMEA,EMEA
2415,Barbacena,Minas Gerais,Brazil,,South,LATAM
2416,Zhumadian,Henan,China,,North Asia,APAC
2417,Arak,Markazi,Iran,,EMEA,EMEA
2418,Perpignan,Languedoc-Roussillon,France,,Central,EU
2419,Westfield,New Jersey,United States,7090.0,East,US
2420,Waco,Texas,United States,76706.0,Central,US
2421,Ludwigsburg,Baden-Württemberg,Germany,,Central,EU
2422,Franconville,Ile-de-France,France,,Central,EU
2423,Penedo,Alagoas,Brazil,,South,LATAM
2424,Dniprodzerzhyns'k,Dnipropetrovs'k,Ukraine,,EMEA,EMEA
2425,Korhogo,Savanes,Cote d'Ivoire,,Africa,Africa
2426,Flers,Lower Normandy,France,,Central,EU
2427,Tarnow,Lesser Poland,Poland,,EMEA,EMEA
2428,Lohne,Lower Saxony,Germany,,Central,EU
2429,Musoma,Mara,Tanzania,,Africa,Africa
2430,Mbeya,Mbeya,Tanzania,,Africa,Africa
2431,Kasugai,Aichi,Japan,,North Asia,APAC
2432,Senhor do Bonfim,Bahia,Brazil,,South,LATAM
2433,Sallanches,Rhône-Alpes,France,,Central,EU
2434,Apeldoorn,Gelderland,Netherlands,,Central,EU
2435,Karliova,Bingol,Turkey,,EMEA,EMEA
2436,Plaisance-du-Touch,Midi-Pyrénées,France,,Central,EU
2437,Kirsehir,Kirsehir,Turkey,,EMEA,EMEA
2438,Bandar-e Anzali,Gilan,Iran,,EMEA,EMEA
2439,Trieste,Friuli-Venezia Giulia,Italy,,South,EU
2440,Balikesir,Balikesir,Turkey,,EMEA,EMEA
2441,Colombes,Ile-de-France,France,,Central,EU
2442,Acayucan,Veracruz,Mexico,,North,LATAM
2443,Irving,Texas,United States,75061.0,Central,US
2444,Carpi,Emilia-Romagna,Italy,,South,EU
2445,Amol,Mazandaran,Iran,,EMEA,EMEA
2446,Bahawalpur,Punjab,Pakistan,,Central Asia,APAC
2447,Zabol,Sistan Va Baluchestan,Iran,,EMEA,EMEA
2448,Reus,Catalonia,Spain,,South,EU
2449,Braga,Braga,Portugal,,South,EU
2450,Badajoz,Extremadura,Spain,,South,EU
2451,Hayange,Lorraine,France,,Central,EU
2452,Bejaia,Bejaia,Algeria,,Africa,Africa
2453,Unna,North Rhine-Westphalia,Germany,,Central,EU
2454,Texarkana,Arkansas,United States,71854.0,South,US
2455,Sucre,Chuquisaca,Bolivia,,South,LATAM
2456,Ontario,California,United States,91761.0,West,US
2457,La Roche-sur-Yon,Pays de la Loire,France,,Central,EU
2458,Almelo,Overijssel,Netherlands,,Central,EU
2459,Vacaria,Rio Grande do Sul,Brazil,,South,LATAM
2460,Marbella,Andalusía,Spain,,South,EU
2461,Lake Charles,Louisiana,United States,70601.0,South,US
2462,Malatya,Malatya,Turkey,,EMEA,EMEA
2463,Bezerros,Pernambuco,Brazil,,South,LATAM
2464,Al Hufuf,Ash Sharqiyah,Saudi Arabia,,EMEA,EMEA
2465,Bagé,Rio Grande do Sul,Brazil,,South,LATAM
2466,Delft,South Holland,Netherlands,,Central,EU
2467,Sittard,Limburg,Netherlands,,Central,EU
2468,Panihati,West Bengal,India,,Central Asia,APAC
2469,Hidalgo,Michoacán,Mexico,,North,LATAM
2470,Choisy-le-Roi,Ile-de-France,France,,Central,EU
2471,Raipur,Rajasthan,India,,Central Asia,APAC
2472,Uithoorn,North Holland,Netherlands,,Central,EU
2473,Sioux Falls,South Dakota,United States,57103.0,Central,US
2474,Eragny,Ile-de-France,France,,Central,EU
2475,Lake Elsinore,California,United States,92530.0,West,US
2476,Rosarito,Baja California,Mexico,,North,LATAM
2477,New Rochelle,New York,United States,10801.0,East,US
2478,Chandigarh,Chandigarh,India,,Central Asia,APAC
2479,Sagamihara,Kanagawa,Japan,,North Asia,APAC
2480,Xichang,Sichuan,China,,North Asia,APAC
2481,Cagnes-sur-Mer,Provence-Alpes-Côte d'Azur,France,,Central,EU
2482,Zabrze,Silesia,Poland,,EMEA,EMEA
2483,Molina de Segura,Murcia,Spain,,South,EU
2484,Matadi,Bas-Congo,Democratic Republic of the Congo,,Africa,Africa
2485,Kaiyuan,Yunnan,China,,North Asia,APAC
2486,Esquina,Corrientes,Argentina,,South,LATAM
2487,Saveh,Markazi,Iran,,EMEA,EMEA
2488,Cankaya,Ankara,Turkey,,EMEA,EMEA
2489,Uruguaiana,Rio Grande do Sul,Brazil,,South,LATAM
2490,Valence,Rhône-Alpes,France,,Central,EU
2491,Chitungwiza,Harare,Zimbabwe,,Africa,Africa
2492,East London,Eastern Cape,South Africa,,Africa,Africa
2493,Conway,Arkansas,United States,72032.0,South,US
2494,Maiduguri,Borno,Nigeria,,Africa,Africa
2495,Gonesse,Ile-de-France,France,,Central,EU
2496,Schiedam,South Holland,Netherlands,,Central,EU
2497,Hattiesburg,Mississippi,United States,39401.0,South,US
2498,Wetter (Ruhr),North Rhine-Westphalia,Germany,,Central,EU
2499,Floridablanca,Santander,Colombia,,South,LATAM
2500,Halifax,England,United Kingdom,,North,EU
2501,Bebington,England,United Kingdom,,North,EU
2502,Saint-Cloud,Ile-de-France,France,,Central,EU
2503,Pontes e Lacerda,Mato Grosso,Brazil,,South,LATAM
2504,Solihull,England,United Kingdom,,North,EU
2505,Iskenderun,Hatay,Turkey,,EMEA,EMEA
2506,Canakkale,Canakkale,Turkey,,EMEA,EMEA
2507,Freeport,New York,United States,11520.0,East,US
2508,Kozan,Adana,Turkey,,EMEA,EMEA
2509,Helena,Montana,United States,59601.0,West,US
2510,Vlore,Vlorë,Albania,,EMEA,EMEA
2511,Monza,Lombardy,Italy,,South,EU
2512,Palm Coast,Florida,United States,32137.0,South,US
2513,São Pedro da Aldeia,Rio de Janeiro,Brazil,,South,LATAM
2514,Uvira,South Kivu,Democratic Republic of the Congo,,Africa,Africa
2515,Edogawa-ku,Tokyo,Japan,,North Asia,APAC
2516,Cirebon,Jawa Barat,Indonesia,,Southeast Asia,APAC
2517,Kokshetau,Aqmola,Kazakhstan,,EMEA,EMEA
2518,Brussels,Brussels,Belgium,,Central,EU
2519,Yancheng,Jiangsu,China,,North Asia,APAC
2520,Saanich,British Columbia,Canada,,Canada,Canada
2521,Manteca,California,United States,95336.0,West,US
2522,Neuilly-sur-Marne,Ile-de-France,France,,Central,EU
2523,Nakhon Ratchasima,Nakhon Ratchasima,Thailand,,Southeast Asia,APAC
2524,Saint-Avold,Lorraine,France,,Central,EU
2525,Gaziemir,Izmir,Turkey,,EMEA,EMEA
2526,Edinburg,Texas,United States,78539.0,Central,US
2527,Hengelo,Overijssel,Netherlands,,Central,EU
2528,Pekalongan,Jawa Tengah,Indonesia,,Southeast Asia,APAC
2529,Naumburg,Saxony-Anhalt,Germany,,Central,EU
2530,Civitavecchia,Lazio,Italy,,South,EU
2531,Dinslaken,North Rhine-Westphalia,Germany,,Central,EU
2532,Pila,Greater Poland,Poland,,EMEA,EMEA
2533,Moreno Valley,California,United States,92553.0,West,US
2534,Antalya,Antalya,Turkey,,EMEA,EMEA
2535,Epinal,Lorraine,France,,Central,EU
2536,Grasse,Provence-Alpes-Côte d'Azur,France,,Central,EU
2537,Ipswich,England,United Kingdom,,North,EU
2538,East Kilbride,Scotland,United Kingdom,,North,EU
2539,Chorzow,Silesia,Poland,,EMEA,EMEA
2540,Montfermeil,Ile-de-France,France,,Central,EU
2541,Gummersbach,North Rhine-Westphalia,Germany,,Central,EU
2542,Marsala,Sicily,Italy,,South,EU
2543,Suwon,Gyeonggi,South Korea,,North Asia,APAC
2544,Buca,Izmir,Turkey,,EMEA,EMEA
2545,Sant Boi de Llobregat,Catalonia,Spain,,South,EU
2546,Van,Van,Turkey,,EMEA,EMEA
2547,Hackensack,New Jersey,United States,7601.0,East,US
2548,Guzmán,Jalisco,Mexico,,North,LATAM
2549,Cruz das Almas,Bahia,Brazil,,South,LATAM
2550,Cipolletti,Río Negro,Argentina,,South,LATAM
2551,Siping,Jilin,China,,North Asia,APAC
2552,Arauca,Arauca,Colombia,,South,LATAM
2553,Sukabumi,Jawa Barat,Indonesia,,Southeast Asia,APAC
2554,Registro,São Paulo,Brazil,,South,LATAM
2555,Sevastopol,Sevastopol',Ukraine,,EMEA,EMEA
2556,Langenfeld,North Rhine-Westphalia,Germany,,Central,EU
2557,Mirzapur,Uttar Pradesh,India,,Central Asia,APAC
2558,Rome,New York,United States,13440.0,East,US
2559,Zeist,Utrecht,Netherlands,,Central,EU
2560,Benevento,Campania,Italy,,South,EU
2561,Kotka,Kymenlaakso,Finland,,North,EU
2562,Baní,Peravia,Dominican Republic,,Caribbean,LATAM
2563,Ibaraki,Osaka,Japan,,North Asia,APAC
2564,Taza,Taza-Al Hoceima-Taounate,Morocco,,Africa,Africa
2565,Quixadá,Ceará,Brazil,,South,LATAM
2566,Yao,Osaka,Japan,,North Asia,APAC
2567,Porlamar,Nueva Esparta,Venezuela,,South,LATAM
2568,Qarshi,Qashqadaryo,Uzbekistan,,EMEA,EMEA
2569,Ternopil',Ternopil',Ukraine,,EMEA,EMEA
2570,Le Blanc-Mesnil,Ile-de-France,France,,Central,EU
2571,Tangerang,Jawa Barat,Indonesia,,Southeast Asia,APAC
2572,Centurion,Gauteng,South Africa,,Africa,Africa
2573,Delray Beach,Florida,United States,33445.0,South,US
2574,Pembroke Pines,Florida,United States,33024.0,South,US
2575,Ipiales,Nariño,Colombia,,South,LATAM
2576,Bristol,Connecticut,United States,6010.0,East,US
2577,Bratsk,Irkutsk,Russia,,EMEA,EMEA
2578,Sialkot,Punjab,Pakistan,,Central Asia,APAC
2579,Pessac,Aquitaine,France,,Central,EU
2580,Rizhao,Shandong,China,,North Asia,APAC
2581,Nha Trang,Khánh Hòa,Vietnam,,Southeast Asia,APAC
2582,Freiburg,Baden-Württemberg,Germany,,Central,EU
2583,Ocaña,Norte de Santander,Colombia,,South,LATAM
2584,Bezons,Ile-de-France,France,,Central,EU
2585,Yambol,Yambol,Bulgaria,,EMEA,EMEA
2586,Shangzhi,Heilongjiang,China,,North Asia,APAC
2587,Oktyabr'skiy,Bashkortostan,Russia,,EMEA,EMEA
2588,Senlis,Picardy,France,,Central,EU
2589,Mar del Plata,Provincia de Buenos Aires,Argentina,,South,LATAM
2590,Dire Dawa,Dire Dawa,Ethiopia,,Africa,Africa
2591,Agrigento,Sicily,Italy,,South,EU
2592,Sale,England,United Kingdom,,North,EU
2593,Cambrai,Nord-Pas-de-Calais,France,,Central,EU
2594,Aba,Abia,Nigeria,,Africa,Africa
2595,Poços de Caldas,Minas Gerais,Brazil,,South,LATAM
2596,Vaulx-en-Velin,Rhône-Alpes,France,,Central,EU
2597,Butare,Southern,Rwanda,,Africa,Africa
2598,Asunción,Asunción,Paraguay,,South,LATAM
2599,Mendoza,Mendoza,Argentina,,South,LATAM
2600,Southport,England,United Kingdom,,North,EU
2601,Missoula,Montana,United States,59801.0,West,US
2602,Itaúna,Minas Gerais,Brazil,,South,LATAM
2603,Sabzevar,Razavi Khorasan,Iran,,EMEA,EMEA
2604,Markham,Ontario,Canada,,Canada,Canada
2605,Sangli,Maharashtra,India,,Central Asia,APAC
2606,Bremerhaven,Bremen,Germany,,Central,EU
2607,Miramar,Florida,United States,33023.0,South,US
2608,Drobeta-Turnu Severin,Mehedinti,Romania,,EMEA,EMEA
2609,Jodhpur,Gujarat,India,,Central Asia,APAC
2610,Bo,Southern,Sierra Leone,,Africa,Africa
2611,Acireale,Sicily,Italy,,South,EU
2612,Laon,Picardy,France,,Central,EU
2613,Hampton,Virginia,United States,23666.0,South,US
2614,Redding,California,United States,96003.0,West,US
2615,Corlu,Tekirdag,Turkey,,EMEA,EMEA
2616,Baia Mare,Maramures,Romania,,EMEA,EMEA
2617,San José de Guanipa,Anzoátegui,Venezuela,,South,LATAM
2618,Nagaoka,Shizuoka,Japan,,North Asia,APAC
2619,Durgapur,West Bengal,India,,Central Asia,APAC
2620,Mâcon,Burgundy,France,,Central,EU
2621,Zhaoyuan,Heilongjiang,China,,North Asia,APAC
2622,Tyler,Texas,United States,75701.0,Central,US
2623,Ploemeur,Brittany,France,,Central,EU
2624,La Paz,Baja California Sur,Mexico,,North,LATAM
2625,Innsbruck,Tyrol,Austria,,EMEA,EMEA
2626,Vertou,Pays de la Loire,France,,Central,EU
2627,Holyoke,Massachusetts,United States,1040.0,East,US
2628,Mauguio,Languedoc-Roussillon,France,,Central,EU
2629,Funabashi,Chiba,Japan,,North Asia,APAC
2630,Elazig,Elazig,Turkey,,EMEA,EMEA
2631,San Justo,Santa Fe,Argentina,,South,LATAM
2632,Santo Domingo de los Colorados,Pichincha,Ecuador,,South,LATAM
2633,Gladbeck,North Rhine-Westphalia,Germany,,Central,EU
2634,Woodland,California,United States,95695.0,West,US
2635,Korla,Xinjiang Uygur,China,,North Asia,APAC
2636,Maisons-Alfort,Ile-de-France,France,,Central,EU
2637,Bisceglie,Apulia,Italy,,South,EU
2638,Draper,Utah,United States,84020.0,West,US
2639,Jurema,Pernambuco,Brazil,,South,LATAM
2640,Bijapur,Karnataka,India,,Central Asia,APAC
2641,Witten,North Rhine-Westphalia,Germany,,Central,EU
2642,Marina di Carrara,Tuscany,Italy,,South,EU
2643,Taboão da Serra,São Paulo,Brazil,,South,LATAM
2644,Meaux,Ile-de-France,France,,Central,EU
2645,Alcobendas,Madrid,Spain,,South,EU
2646,Cuxhaven,Lower Saxony,Germany,,Central,EU
2647,Natitingou,Atakora,Benin,,Africa,Africa
2648,Basingstoke,England,United Kingdom,,North,EU
2649,Czestochowa,Silesia,Poland,,EMEA,EMEA
2650,Lebanon,Tennessee,United States,37087.0,South,US
2651,Pinheiro,Maranhão,Brazil,,South,LATAM
2652,Albi,Midi-Pyrénées,France,,Central,EU
2653,Wuzhou,Guangxi,China,,North Asia,APAC
2654,Ilorin,Kwara,Nigeria,,Africa,Africa
2655,Barreirinhas,Maranhão,Brazil,,South,LATAM
2656,East Orange,New Jersey,United States,7017.0,East,US
2657,Goussainville,Ile-de-France,France,,Central,EU
2658,Qostanay,Qostanay,Kazakhstan,,EMEA,EMEA
2659,Vineland,New Jersey,United States,8360.0,East,US
2660,Cesena,Emilia-Romagna,Italy,,South,EU
2661,Shahreza,Esfahan,Iran,,EMEA,EMEA
2662,Settat,Chaouia-Ouardigha,Morocco,,Africa,Africa
2663,Rancho Cucamonga,California,United States,91730.0,West,US
2664,Ercolano,Campania,Italy,,South,EU
2665,Vitry-sur-Seine,Ile-de-France,France,,Central,EU
2666,Cavaillon,Provence-Alpes-Côte d'Azur,France,,Central,EU
2667,Chesterfield,England,United Kingdom,,North,EU
2668,Gien,Centre,France,,Central,EU
2669,Port Said,Bur Sa'id,Egypt,,Africa,Africa
2670,Solna,Stockholm,Sweden,,North,EU
2671,Nikopol',Dnipropetrovs'k,Ukraine,,EMEA,EMEA
2672,San Angelo,Texas,United States,76903.0,Central,US
2673,Hadera,Haifa,Israel,,EMEA,EMEA
2674,Itapecerica da Serra,São Paulo,Brazil,,South,LATAM
2675,Ocotlán,Jalisco,Mexico,,North,LATAM
2676,Vilhena,Rondônia,Brazil,,South,LATAM
2677,Tel Aviv,Tel Aviv,Israel,,EMEA,EMEA
2678,Taylor,Michigan,United States,48180.0,Central,US
2679,Antofagasta,Antofagasta,Chile,,South,LATAM
2680,Shrewsbury,England,United Kingdom,,North,EU
2681,Evreux,Upper Normandy,France,,Central,EU
2682,Mouscron,Hainaut,Belgium,,Central,EU
2683,Bucaramanga,Santander,Colombia,,South,LATAM
2684,Piotrkow Trybunalski,Lodz,Poland,,EMEA,EMEA
2685,Jiaxing,Zhejiang,China,,North Asia,APAC
2686,Zhangjiakou,Hebei,China,,North Asia,APAC
2687,Andijon,Andijan,Uzbekistan,,EMEA,EMEA
2688,Arnsberg,North Rhine-Westphalia,Germany,,Central,EU
2689,Les Pennes-Mirabeau,Provence-Alpes-Côte d'Azur,France,,Central,EU
2690,Harare,Harare,Zimbabwe,,Africa,Africa
2691,Saint Louis,Missouri,United States,63116.0,Central,US
2692,Boghni,Tizi Ouzou,Algeria,,Africa,Africa
2693,Runcorn,England,United Kingdom,,North,EU
2694,Las Piedras,Canelones,Uruguay,,South,LATAM
2695,Changde,Hunan,China,,North Asia,APAC
2696,Puerto Padre,Las Tunas,Cuba,,Caribbean,LATAM
2697,Carquefou,Pays de la Loire,France,,Central,EU
2698,Cedar Rapids,Iowa,United States,52402.0,Central,US
2699,Kenitra,Gharb-Chrarda-Béni Hssen,Morocco,,Africa,Africa
2700,Caserta,Campania,Italy,,South,EU
2701,Saint-Quentin,Picardy,France,,Central,EU
2702,Osmaniye,Osmaniye,Turkey,,EMEA,EMEA
2703,Miami,Florida,United States,33178.0,South,US
2704,Posadas,Misiones,Argentina,,South,LATAM
2705,Brumado,Bahia,Brazil,,South,LATAM
2706,Xianning,Hubei,China,,North Asia,APAC
2707,Chattanooga,Tennessee,United States,37421.0,South,US
2708,Salem,Virginia,United States,24153.0,South,US
2709,Khorramshahr,Khuzestan,Iran,,EMEA,EMEA
2710,Eskilstuna,Södermanland,Sweden,,North,EU
2711,Jalna,Maharashtra,India,,Central Asia,APAC
2712,Pavlodar,Pavlodar,Kazakhstan,,EMEA,EMEA
2713,Tartu,Tartumaa,Estonia,,EMEA,EMEA
2714,Encinitas,California,United States,92024.0,West,US
2715,Sidi Bel Abbes,Sidi Bel Abbes,Algeria,,Africa,Africa
2716,Kampala,Kampala,Uganda,,Africa,Africa
2717,Qazvin,Qazvin,Iran,,EMEA,EMEA
2718,Igdir,Igdir,Turkey,,EMEA,EMEA
2719,Louviers,Upper Normandy,France,,Central,EU
2720,Guanare,Portuguesa,Venezuela,,South,LATAM
2721,Mallawi,Al Minya,Egypt,,Africa,Africa
2722,Bedford,Texas,United States,76021.0,Central,US
2723,Kettering,England,United Kingdom,,North,EU
2724,Leverkusen,North Rhine-Westphalia,Germany,,Central,EU
2725,Zenica,Federation of Bosnia and Herzegovina,Bosnia and Herzegovina,,EMEA,EMEA
2726,Miass,Chelyabinsk,Russia,,EMEA,EMEA
2727,Tychy,Silesia,Poland,,EMEA,EMEA
2728,Khenifra,Meknès-Tafilalet,Morocco,,Africa,Africa
2729,Drogobych,L'viv,Ukraine,,EMEA,EMEA
2730,Visalia,California,United States,93277.0,West,US
2731,Balmazujvaros,Hajdu-Bihar,Hungary,,EMEA,EMEA
2732,Guatemala City,Guatemala,Guatemala,,Central,LATAM
2733,Fleury-les-Aubrais,Centre,France,,Central,EU
2734,Mohammedia,Grand Casablanca,Morocco,,Africa,Africa
2735,Hendersonville,Tennessee,United States,37075.0,South,US
2736,Acarigua,Portuguesa,Venezuela,,South,LATAM
2737,Maturín,Monagas,Venezuela,,South,LATAM
2738,Nitra,Nitra,Slovakia,,EMEA,EMEA
2739,Barquisimeto,Lara,Venezuela,,South,LATAM
2740,League City,Texas,United States,77573.0,Central,US
2741,San Martín,Cuscatlán,El Salvador,,Central,LATAM
2742,Barneveld,Gelderland,Netherlands,,Central,EU
2743,Tarsus,Mersin,Turkey,,EMEA,EMEA
2744,Pirapora,Minas Gerais,Brazil,,South,LATAM
2745,Rapid City,South Dakota,United States,57701.0,Central,US
2746,Bellary,Karnataka,India,,Central Asia,APAC
2747,Frankfort,Illinois,United States,60423.0,Central,US
2748,Gubkin,Belgorod,Russia,,EMEA,EMEA
2749,Velbert,North Rhine-Westphalia,Germany,,Central,EU
2750,Colombo,Western,Sri Lanka,,Central Asia,APAC
2751,Mau,Uttar Pradesh,India,,Central Asia,APAC
2752,Zwolle,Overijssel,Netherlands,,Central,EU
2753,Messaad,Djelfa,Algeria,,Africa,Africa
2754,Umuarama,Parana,Brazil,,South,LATAM
2755,Park Ridge,Illinois,United States,60068.0,Central,US
2756,Norwich,Connecticut,United States,6360.0,East,US
2757,Kayseri,Kayseri,Turkey,,EMEA,EMEA
2758,Corum,Corum,Turkey,,EMEA,EMEA
2759,Manisa,Manisa,Turkey,,EMEA,EMEA
2760,Domont,Ile-de-France,France,,Central,EU
2761,Neuilly-Plaisance,Ile-de-France,France,,Central,EU
2762,Lins,São Paulo,Brazil,,South,LATAM
2763,Antakya,Hatay,Turkey,,EMEA,EMEA
2764,St. Catharines,Ontario,Canada,,Canada,Canada
2765,Blois,Centre,France,,Central,EU
2766,Ikot Ekpene,Akwa Ibom,Nigeria,,Africa,Africa
2767,Manhattan,Kansas,United States,66502.0,Central,US
2768,Tournai,Hainaut,Belgium,,Central,EU
2769,Montceau-les-Mines,Burgundy,France,,Central,EU
2770,The Colony,Texas,United States,75056.0,Central,US
2771,Nigde,Nigde,Turkey,,EMEA,EMEA
2772,Sanford,Florida,United States,32771.0,South,US
2773,Bourgoin-Jallieu,Rhône-Alpes,France,,Central,EU
2774,Lanxi,Zhejiang,China,,North Asia,APAC
2775,Conroe,Texas,United States,77301.0,Central,US
2776,Lianzhou,Guangdong,China,,North Asia,APAC
2777,Mezitli,Mersin,Turkey,,EMEA,EMEA
2778,Sceaux,Ile-de-France,France,,Central,EU
2779,Stavanger,Rogaland,Norway,,North,EU
2780,Eggenstein-Leopoldshafen,Baden-Württemberg,Germany,,Central,EU
2781,Ancona,Marche,Italy,,South,EU
2782,Campeche,Campeche,Mexico,,North,LATAM
2783,Saint-Herblain,Pays de la Loire,France,,Central,EU
2784,Uvarovo,Tambov,Russia,,EMEA,EMEA
2785,Hilden,North Rhine-Westphalia,Germany,,Central,EU
2786,Saint-Nazaire,Pays de la Loire,France,,Central,EU
2787,Navegantes,Santa Catarina,Brazil,,South,LATAM
2788,Saskatoon,Saskatchewan,Canada,,Canada,Canada
2789,Cormeilles-en-Parisis,Ile-de-France,France,,Central,EU
2790,Bhatpara,West Bengal,India,,Central Asia,APAC
2791,Zinder,Zinder,Niger,,Africa,Africa
2792,Covington,Washington,United States,98042.0,West,US
2793,Olathe,Kansas,United States,66062.0,Central,US
2794,Barnsley,England,United Kingdom,,North,EU
2795,La Mesa,California,United States,91941.0,West,US
2796,Sakai,Osaka,Japan,,North Asia,APAC
2797,Malambo,Atlántico,Colombia,,South,LATAM
2798,Mardan,Khyber Pakhtunkhwa,Pakistan,,Central Asia,APAC
2799,Iquitos,Loreto,Peru,,South,LATAM
2800,Randfontein,Gauteng,South Africa,,Africa,Africa
2801,Huddinge,Stockholm,Sweden,,North,EU
2802,Chengjiang,Jiangsu,China,,North Asia,APAC
2803,Lancaster,California,United States,93534.0,West,US
2804,Kuito,Bie,Angola,,Africa,Africa
2805,Pinsk,Brest,Belarus,,EMEA,EMEA
2806,Auch,Midi-Pyrénées,France,,Central,EU
2807,Sahuayo de José María Morelos,Michoacán,Mexico,,North,LATAM
2808,Albertville,Rhône-Alpes,France,,Central,EU
2809,Vittoria,Sicily,Italy,,South,EU
2810,Tetouan,Tanger-Tétouan,Morocco,,Africa,Africa
2811,Langen,Hesse,Germany,,Central,EU
2812,Handa,Aichi,Japan,,North Asia,APAC
2813,Lanester,Brittany,France,,Central,EU
2814,Daytona Beach,Florida,United States,32114.0,South,US
2815,Khouribga,Chaouia-Ouardigha,Morocco,,Africa,Africa
2816,Gardanne,Provence-Alpes-Côte d'Azur,France,,Central,EU
2817,Bloomington,Illinois,United States,61701.0,Central,US
2818,Valdemoro,Madrid,Spain,,South,EU
2819,Gulbarga,Karnataka,India,,Central Asia,APAC
2820,Rockville,Maryland,United States,20852.0,East,US
2821,Fukui,Fukui,Japan,,North Asia,APAC
2822,Salamanca,Castile and León,Spain,,South,EU
2823,Santiago del Estero,Santiago del Estero,Argentina,,South,LATAM
2824,Qidong,Jiangsu,China,,North Asia,APAC
2825,Bajos de Haina,San Cristóbal,Dominican Republic,,Caribbean,LATAM
2826,Forbach,Lorraine,France,,Central,EU
2827,Freeport,Illinois,United States,61032.0,Central,US
2828,Yichun,Jiangxi,China,,North Asia,APAC
2829,Cártama,Andalusía,Spain,,South,EU
2830,Villiers-sur-Marne,Ile-de-France,France,,Central,EU
2831,Minna,Niger,Nigeria,,Africa,Africa
2832,Almaty,Almaty City,Kazakhstan,,EMEA,EMEA
2833,Coatzacoalcos,Veracruz,Mexico,,North,LATAM
2834,Contagem,Minas Gerais,Brazil,,South,LATAM
2835,Niagara Falls,New York,United States,14304.0,East,US
2836,Balti,Balti,Moldova,,EMEA,EMEA
2837,Ulsan,Ulsan,South Korea,,North Asia,APAC
2838,Garden City,Kansas,United States,67846.0,Central,US
2839,Kawaguchi,Saitama,Japan,,North Asia,APAC
2840,Boa Esperança,Minas Gerais,Brazil,,South,LATAM
2841,Armenia,Quindío,Colombia,,South,LATAM
2842,Petare,Miranda,Venezuela,,South,LATAM
2843,Bragança Paulista,São Paulo,Brazil,,South,LATAM
2844,Barretos,São Paulo,Brazil,,South,LATAM
2845,Guidonia Montecelio,Lazio,Italy,,South,EU
2846,Cournon-d'Auvergne,Auvergne,France,,Central,EU
2847,Boulogne-sur-Mer,Nord-Pas-de-Calais,France,,Central,EU
2848,Nkongsamba,Littoral,Cameroon,,Africa,Africa
2849,Palatine,Illinois,United States,60067.0,Central,US
2850,Tianguá,Ceará,Brazil,,South,LATAM
2851,North Charleston,South Carolina,United States,29406.0,South,US
2852,Glenview,Illinois,United States,60025.0,Central,US
2853,Antsiranana,Diana,Madagascar,,Africa,Africa
2854,Valledupar,Cesar,Colombia,,South,LATAM
2855,Pindamonhangaba,São Paulo,Brazil,,South,LATAM
2856,Tampico,Tamaulipas,Mexico,,North,LATAM
2857,Coppell,Texas,United States,75019.0,Central,US
2858,Vignola,Emilia-Romagna,Italy,,South,EU
2859,Jincheng,Shanxi,China,,North Asia,APAC
2860,Gaithersburg,Maryland,United States,20877.0,East,US
2861,Kahramanmaras,Kahramanmaras,Turkey,,EMEA,EMEA
2862,Texas City,Texas,United States,77590.0,Central,US
2863,Kamarhati,West Bengal,India,,Central Asia,APAC
2864,Bandundu,Bandundu,Democratic Republic of the Congo,,Africa,Africa
2865,Chevilly-Larue,Ile-de-France,France,,Central,EU
2866,Kent,Ohio,United States,44240.0,East,US
2867,Port Saint Lucie,Florida,United States,34952.0,South,US
2868,Bolívar,Bolivar,Venezuela,,South,LATAM
2869,Warri,Delta,Nigeria,,Africa,Africa
2870,Delicias,Chihuahua,Mexico,,North,LATAM
2871,Alfortville,Ile-de-France,France,,Central,EU
2872,Yaritagua,Yaracuy,Venezuela,,South,LATAM
2873,Kremenchuk,Poltava,Ukraine,,EMEA,EMEA
2874,Villeparisis,Ile-de-France,France,,Central,EU
2875,Verdun,Lorraine,France,,Central,EU
2876,Berck,Nord-Pas-de-Calais,France,,Central,EU
2877,Roanne,Rhône-Alpes,France,,Central,EU
2878,Warner Robins,Georgia,United States,31088.0,South,US
2879,Mtwara,Mtwara,Tanzania,,Africa,Africa
2880,Banda Aceh,Aceh,Indonesia,,Southeast Asia,APAC
2881,Westland,Michigan,United States,48185.0,Central,US
2882,Jiamusi,Heilongjiang,China,,North Asia,APAC
2883,Roubaix,Nord-Pas-de-Calais,France,,Central,EU
2884,Villeneuve-la-Garenne,Ile-de-France,France,,Central,EU
2885,Katsushika-ku,Tokyo,Japan,,North Asia,APAC
2886,San Mateo,California,United States,94403.0,West,US
2887,Fano,Marche,Italy,,South,EU
2888,Feira,Aveiro,Portugal,,South,EU
2889,Moa,Holguín,Cuba,,Caribbean,LATAM
2890,Viersen,North Rhine-Westphalia,Germany,,Central,EU
2891,Mococa,São Paulo,Brazil,,South,LATAM
2892,Gliwice,Silesia,Poland,,EMEA,EMEA
2893,Estepona,Andalusía,Spain,,South,EU
2894,Dover,Delaware,United States,19901.0,East,US
2895,Mostaganem,Mostaganem,Algeria,,Africa,Africa
2896,Sanary-sur-Mer,Provence-Alpes-Côte d'Azur,France,,Central,EU
2897,Warrnambool,Victoria,Australia,,Oceania,APAC
2898,Mersin,Mersin,Turkey,,EMEA,EMEA
2899,Trinidad,Beni,Bolivia,,South,LATAM
2900,Lisieux,Lower Normandy,France,,Central,EU
2901,Datong,Anhui,China,,North Asia,APAC
2902,Neu-Ulm,Bavaria,Germany,,Central,EU
2903,Getxo,Basque Country,Spain,,South,EU
2904,Soledad Díez Gutiérrez,San Luis Potosí,Mexico,,North,LATAM
2905,Piacenza,Emilia-Romagna,Italy,,South,EU
2906,Clichy,Ile-de-France,France,,Central,EU
2907,Toyohashi,Aichi,Japan,,North Asia,APAC
2908,Milford,Connecticut,United States,6460.0,East,US
2909,Astana,Astana,Kazakhstan,,EMEA,EMEA
2910,Mariupol',Donetsk,Ukraine,,EMEA,EMEA
2911,Garanhuns,Pernambuco,Brazil,,South,LATAM
2912,Zaporizhzhya,Zaporizhzhya,Ukraine,,EMEA,EMEA
2913,Ganganagar,Rajasthan,India,,Central Asia,APAC
2914,Maracay,Aragua,Venezuela,,South,LATAM
2915,Summerville,South Carolina,United States,29483.0,South,US
2916,Asyut,Asyut,Egypt,,Africa,Africa
2917,Vassouras,Rio de Janeiro,Brazil,,South,LATAM
2918,Medea,Medea,Algeria,,Africa,Africa
2919,Viña del Mar,Valparaíso,Chile,,South,LATAM
2920,Halifax,Nova Scotia,Canada,,Canada,Canada
2921,Trani,Apulia,Italy,,South,EU
2922,Toledo,Castile-La Mancha,Spain,,South,EU
2923,Loughborough,England,United Kingdom,,North,EU
2924,Helmond,North Brabant,Netherlands,,Central,EU
2925,Neubrandenburg,Mecklenburg-Vorpommern,Germany,,Central,EU
2926,Buyukcekmece,Istanbul,Turkey,,EMEA,EMEA
2927,Darton,England,United Kingdom,,North,EU
2928,Pingxiang,Jiangxi,China,,North Asia,APAC
2929,Khemisset,Rabat-Salé-Zemmour-Zaer,Morocco,,Africa,Africa
2930,College Station,Texas,United States,77840.0,Central,US
2931,Arcoverde,Pernambuco,Brazil,,South,LATAM
2932,Dzhezkazgan,Qaraghandy,Kazakhstan,,EMEA,EMEA
2933,Bowling Green,Kentucky,United States,42104.0,South,US
2934,Yanji,Jilin,China,,North Asia,APAC
2935,Rhondda,Wales,United Kingdom,,North,EU
2936,Sosnowiec,Silesia,Poland,,EMEA,EMEA
2937,Jequié,Bahia,Brazil,,South,LATAM
2938,Rosny-sous-Bois,Ile-de-France,France,,Central,EU
2939,Chimbote,Ancash,Peru,,South,LATAM
2940,Cartago,Valle del Cauca,Colombia,,South,LATAM
2941,Troyes,Champagne-Ardenne,France,,Central,EU
2942,Fuenlabrada,Madrid,Spain,,South,EU
2943,Konya,Konya,Turkey,,EMEA,EMEA
2944,Wilson,North Carolina,United States,27893.0,South,US
2945,Clacton-on-Sea,England,United Kingdom,,North,EU
2946,Pomezia,Lazio,Italy,,South,EU
2947,Springs,Gauteng,South Africa,,Africa,Africa
2948,Bergheim,North Rhine-Westphalia,Germany,,Central,EU
2949,Abbotsford,British Columbia,Canada,,Canada,Canada
2950,Bruges,West Flanders,Belgium,,Central,EU
2951,Cruzeiro,São Paulo,Brazil,,South,LATAM
2952,Harlingen,Texas,United States,78550.0,Central,US
2953,Bilbeis,Ash Sharqiyah,Egypt,,Africa,Africa
2954,Cumaná,Sucre,Venezuela,,South,LATAM
2955,Vancouver,Washington,United States,98661.0,West,US
2956,Panipat,Haryana,India,,Central Asia,APAC
2957,Bad Waldsee,Baden-Württemberg,Germany,,Central,EU
2958,Udaipur,Tripura,India,,Central Asia,APAC
2959,Eunápolis,Bahia,Brazil,,South,LATAM
2960,Kalundborg,Zealand,Denmark,,North,EU
2961,Bergisch Gladbach,North Rhine-Westphalia,Germany,,Central,EU
2962,Santa Cruz do Sul,Rio Grande do Sul,Brazil,,South,LATAM
2963,Murray,Utah,United States,84107.0,West,US
2964,Gandia,Valenciana,Spain,,South,EU
2965,Grand Rapids,Michigan,United States,49505.0,Central,US
2966,Águas Lindas de Goiás,Goiás,Brazil,,South,LATAM
2967,Moncalieri,Piedmont,Italy,,South,EU
2968,Roermond,Limburg,Netherlands,,Central,EU
2969,Wolfsburg,Lower Saxony,Germany,,Central,EU
2970,Skikda,Skikda,Algeria,,Africa,Africa
2971,Yushu,Jilin,China,,North Asia,APAC
2972,Ostrava,Moravian-Silesian,Czech Republic,,EMEA,EMEA
2973,Valparaíso,Valparaíso,Chile,,South,LATAM
2974,Zacatecas,Zacatecas,Mexico,,North,LATAM
2975,Arrentela,Setúbal,Portugal,,South,EU
2976,Citrus Heights,California,United States,95610.0,West,US
2977,Montesson,Ile-de-France,France,,Central,EU
2978,Hot Springs,Arkansas,United States,71901.0,South,US
2979,Coon Rapids,Minnesota,United States,55433.0,Central,US
2980,Ramat Gan,Tel Aviv,Israel,,EMEA,EMEA
2981,Wendeng,Shandong,China,,North Asia,APAC
2982,Caluire-et-Cuire,Rhône-Alpes,France,,Central,EU
2983,Camaçari,Bahia,Brazil,,South,LATAM
2984,Bialystok,Podlaskie,Poland,,EMEA,EMEA
2985,Apatzingán de la Constitución,Michoacán,Mexico,,North,LATAM
2986,Vespasiano,Minas Gerais,Brazil,,South,LATAM
2987,Cambridge,Massachusetts,United States,2138.0,East,US
2988,Ain Oussera,Djelfa,Algeria,,Africa,Africa
2989,Ji-Paraná,Rondônia,Brazil,,South,LATAM
2990,Kashira,Moscow,Russia,,EMEA,EMEA
2991,Adiyaman,Adiyaman,Turkey,,EMEA,EMEA
2992,Giurgiu,Giurgiu,Romania,,EMEA,EMEA
2993,Barra do Piraí,Rio de Janeiro,Brazil,,South,LATAM
2994,Kulob,Khatlon,Tajikistan,,EMEA,EMEA
2995,Las Cruces,New Mexico,United States,88001.0,West,US
2996,Pontevedra,Galicia,Spain,,South,EU
2997,Esbjerg,South Denmark,Denmark,,North,EU
2998,Arezzo,Tuscany,Italy,,South,EU
2999,Mijas,Andalusía,Spain,,South,EU
3000,Chimoio,Manica,Mozambique,,Africa,Africa
3001,Sanliurfa,Sanliurfa,Turkey,,EMEA,EMEA
3002,Camocim,Ceará,Brazil,,South,LATAM
3003,Pestovo,Novgorod,Russia,,EMEA,EMEA
3004,Argentan,Lower Normandy,France,,Central,EU
3005,Saint Charles,Missouri,United States,63301.0,Central,US
3006,Sarreguemines,Lorraine,France,,Central,EU
3007,Waiblingen,Baden-Württemberg,Germany,,Central,EU
3008,Vigneux-sur-Seine,Ile-de-France,France,,Central,EU
3009,Tlemcen,Tlemcen,Algeria,,Africa,Africa
3010,Fresnillo de González Echeverría,Zacatecas,Mexico,,North,LATAM
3011,Javanrud,Kermanshah,Iran,,EMEA,EMEA
3012,Rochefort,Poitou-Charentes,France,,Central,EU
3013,Belgorod,Belgorod,Russia,,EMEA,EMEA
3014,Molfetta,Apulia,Italy,,South,EU
3015,Westonaria,Gauteng,South Africa,,Africa,Africa
3016,Majadahonda,Madrid,Spain,,South,EU
3017,Maisons-Laffitte,Ile-de-France,France,,Central,EU
3018,Floriano,Piauí,Brazil,,South,LATAM
3019,Terneuzen,Zeeland,Netherlands,,Central,EU
3020,Les Lilas,Ile-de-France,France,,Central,EU
3021,Sliven,Sliven,Bulgaria,,EMEA,EMEA
3022,Sagunto,Valenciana,Spain,,South,EU
3023,Sapele,Delta,Nigeria,,Africa,Africa
3024,Avellino,Campania,Italy,,South,EU
3025,Baraki,Tipaza,Algeria,,Africa,Africa
3026,Echuca,Victoria,Australia,,Oceania,APAC
3027,Turkmenabat,Lebap,Turkmenistan,,EMEA,EMEA
3028,Oriximiná,Pará,Brazil,,South,LATAM
3029,Erechim,Rio Grande do Sul,Brazil,,South,LATAM
3030,Leeuwarden,Friesland,Netherlands,,Central,EU
3031,Yiwu,Zhejiang,China,,North Asia,APAC
3032,Ayacucho,Ayacucho,Peru,,South,LATAM
3033,San Marcos,Texas,United States,78666.0,Central,US
3034,Corrientes,Corrientes,Argentina,,South,LATAM
3035,Ziguinchor,Ziguinchor,Senegal,,Africa,Africa
3036,Briton Ferry,Wales,United Kingdom,,North,EU
3037,Barry,Wales,United Kingdom,,North,EU
3038,Yazd,Yazd,Iran,,EMEA,EMEA
3039,Qena,Qina,Egypt,,Africa,Africa
3040,Hinckley,England,United Kingdom,,North,EU
3041,Guarapari,Espírito Santo,Brazil,,South,LATAM
3042,Lund,Skåne,Sweden,,North,EU
3043,Montargis,Centre,France,,Central,EU
3044,La Celle-Saint-Cloud,Ile-de-France,France,,Central,EU
3045,Abu Kabir,Ash Sharqiyah,Egypt,,Africa,Africa
3046,Caldwell,Idaho,United States,83605.0,West,US
3047,Lianzhou,Guangxi,China,,North Asia,APAC
3048,Xinzhou,Hubei,China,,North Asia,APAC
3049,Braila,Braila,Romania,,EMEA,EMEA
3050,Lianyuan,Hunan,China,,North Asia,APAC
3051,Itapecuru Mirim,Maranhão,Brazil,,South,LATAM
3052,Damaturu,Yobe,Nigeria,,Africa,Africa
3053,Duzce,Düzce,Turkey,,EMEA,EMEA
3054,Kayes,Kayes,Mali,,Africa,Africa
3055,Santa Fe,Santa Fe,Argentina,,South,LATAM
3056,Grove City,Ohio,United States,43123.0,East,US
3057,Rochester Hills,Michigan,United States,48307.0,Central,US
3058,Bamberg,Bavaria,Germany,,Central,EU
3059,Alphen aan den Rijn,South Holland,Netherlands,,Central,EU
3060,Sogamoso,Boyacá,Colombia,,South,LATAM
3061,Oakville,Ontario,Canada,,Canada,Canada
3062,El Escorial,Madrid,Spain,,South,EU
3063,Cary,North Carolina,United States,27511.0,South,US
3064,Haltom City,Texas,United States,76117.0,Central,US
3065,Avellaneda,Santa Fe,Argentina,,South,LATAM
3066,Treviglio,Lombardy,Italy,,South,EU
3067,Lons-le-Saunier,Franche-Comté,France,,Central,EU
3068,Oullins,Rhône-Alpes,France,,Central,EU
3069,Indaiatuba,São Paulo,Brazil,,South,LATAM
3070,Hemel Hempstead,England,United Kingdom,,North,EU
3071,Mannheim,Baden-Württemberg,Germany,,Central,EU
3072,Juazeiro,Bahia,Brazil,,South,LATAM
3073,Le Creusot,Burgundy,France,,Central,EU
3074,Longueuil,Quebec,Canada,,Canada,Canada
3075,Limbe,Sud-Ouest,Cameroon,,Africa,Africa
3076,Temirtau,Qaraghandy,Kazakhstan,,EMEA,EMEA
3077,Linz,Upper Austria,Austria,,EMEA,EMEA
3078,Mysore,Karnataka,India,,Central Asia,APAC
3079,Hohhot,Inner Mongolia,China,,North Asia,APAC
3080,Woonsocket,Rhode Island,United States,2895.0,East,US
3081,Kars,Kars,Turkey,,EMEA,EMEA
3082,Eskisehir,Eskisehir,Turkey,,EMEA,EMEA
3083,Oyama,Tochigi,Japan,,North Asia,APAC
3084,Cosenza,Calabria,Italy,,South,EU
3085,Xiangfan,Hubei,China,,North Asia,APAC
3086,Jizzakh,Jizzakh,Uzbekistan,,EMEA,EMEA
3087,Zielona Gora,Lubusz,Poland,,EMEA,EMEA
3088,Fareham,England,United Kingdom,,North,EU
3089,Boynton Beach,Florida,United States,33437.0,South,US
3090,Juliaca,Puno,Peru,,South,LATAM
3091,Bielsko-Biala,Silesia,Poland,,EMEA,EMEA
3092,Qaraghandy,Qaraghandy,Kazakhstan,,EMEA,EMEA
3093,Potenza,Basilicata,Italy,,South,EU
3094,Dourados,Mato Grosso do Sul,Brazil,,South,LATAM
3095,Allen,Texas,United States,75002.0,Central,US
3096,Montgeron,Ile-de-France,France,,Central,EU
3097,Windsor,Ontario,Canada,,Canada,Canada
3098,Ennigerloh,North Rhine-Westphalia,Germany,,Central,EU
3099,Aalst,East Flanders,Belgium,,Central,EU
3100,Stara Zagora,Stara Zagora,Bulgaria,,EMEA,EMEA
3101,Rijeka,Primorsko-Goranska,Croatia,,EMEA,EMEA
3102,Hamilton,Ohio,United States,45011.0,East,US
3103,Catanduva,São Paulo,Brazil,,South,LATAM
3104,Bafoussam,Ouest,Cameroon,,Africa,Africa
3105,Cinisello Balsamo,Lombardy,Italy,,South,EU
3106,Tokat,Tokat,Turkey,,EMEA,EMEA
3107,Sonneberg,Thuringia,Germany,,Central,EU
3108,Dordrecht,South Holland,Netherlands,,Central,EU
3109,Etimesgut,Ankara,Turkey,,EMEA,EMEA
3110,Tanggu,Tianjin,China,,North Asia,APAC
3111,Marion,Iowa,United States,52302.0,Central,US
3112,Guimarães,Braga,Portugal,,South,EU
3113,Odessa,Texas,United States,79762.0,Central,US
3114,Saint-Pol-sur-Mer,Nord-Pas-de-Calais,France,,Central,EU
3115,Turmero,Aragua,Venezuela,,South,LATAM
3116,Palmira,Valle del Cauca,Colombia,,South,LATAM
3117,Ilo,Moquegua,Peru,,South,LATAM
3118,Hamme,East Flanders,Belgium,,Central,EU
3119,Wenling,Zhejiang,China,,North Asia,APAC
3120,Urganch,Khorezm,Uzbekistan,,EMEA,EMEA
3121,Assen,Drenthe,Netherlands,,Central,EU
3122,Sivas,Sivas,Turkey,,EMEA,EMEA
3123,Passau,Bavaria,Germany,,Central,EU
3124,Shagamu,Ogun,Nigeria,,Africa,Africa
3125,Enschede,Overijssel,Netherlands,,Central,EU
3126,Southampton,England,United Kingdom,,North,EU
3127,Lorient,Brittany,France,,Central,EU
3128,Ilhéus,Bahia,Brazil,,South,LATAM
3129,An Nasiriyah,Dhi Qar,Iraq,,EMEA,EMEA
3130,San Luis Río Colorado,Sonora,Mexico,,North,LATAM
3131,Kurashiki,Okayama,Japan,,North Asia,APAC
3132,Elbeuf,Upper Normandy,France,,Central,EU
3133,Lincoln Park,Michigan,United States,48146.0,Central,US
3134,Purmerend,North Holland,Netherlands,,Central,EU
3135,Kabwe,Central,Zambia,,Africa,Africa
3136,Sarkand,Almaty,Kazakhstan,,EMEA,EMEA
3137,Elkhart,Indiana,United States,46514.0,Central,US
3138,Owerri,Imo,Nigeria,,Africa,Africa
3139,Les Pavillons-sous-Bois,Ile-de-France,France,,Central,EU
3140,Gulu,Gulu,Uganda,,Africa,Africa
3141,Taizhou,Jiangsu,China,,North Asia,APAC
3142,Nuneaton,England,United Kingdom,,North,EU
3143,Willich,North Rhine-Westphalia,Germany,,Central,EU
3144,Tremblay-en-France,Ile-de-France,France,,Central,EU
3145,Quincy,Illinois,United States,62301.0,Central,US
3146,San Salvador de Jujuy,Jujuy,Argentina,,South,LATAM
3147,Tsukuba,Ibaraki,Japan,,North Asia,APAC
3148,Durg,Chhattisgarh,India,,Central Asia,APAC
3149,Lida,Hrodna,Belarus,,EMEA,EMEA
3150,High Wycombe,England,United Kingdom,,North,EU
3151,Palo Negro,Aragua,Venezuela,,South,LATAM
3152,Banjarmasin,Kalimantan Selatan,Indonesia,,Southeast Asia,APAC
3153,Orland Park,Illinois,United States,60462.0,Central,US
3154,Meridian,Idaho,United States,83642.0,West,US
3155,Macon,Georgia,United States,31204.0,South,US
3156,Onitsha,Anambra,Nigeria,,Africa,Africa
3157,Sonipat,Haryana,India,,Central Asia,APAC
3158,Beipiao,Liaoning,China,,North Asia,APAC
3159,Marlborough,Massachusetts,United States,1752.0,East,US
3160,Arapiraca,Alagoas,Brazil,,South,LATAM
3161,Santa Rosa,La Pampa,Argentina,,South,LATAM
3162,Anzio,Lazio,Italy,,South,EU
3163,Holland,Michigan,United States,49423.0,Central,US
3164,Banska Bystrica,Banská Bystrica,Slovakia,,EMEA,EMEA
3165,Commerce City,Colorado,United States,80022.0,West,US
3166,Kerpen,North Rhine-Westphalia,Germany,,Central,EU
3167,Edea,Littoral,Cameroon,,Africa,Africa
3168,Taunton,England,United Kingdom,,North,EU
3169,Acámbaro,Guanajuato,Mexico,,North,LATAM
3170,Ariquemes,Rondônia,Brazil,,South,LATAM
3171,Rio Grande,Rio Grande do Sul,Brazil,,South,LATAM
3172,Loudi,Hunan,China,,North Asia,APAC
3173,Bristol,Tennessee,United States,37620.0,South,US
3174,Palmares,Pernambuco,Brazil,,South,LATAM
3175,Guarujá,São Paulo,Brazil,,South,LATAM
3176,Lingolsheim,Alsace,France,,Central,EU
3177,Quebec,Quebec,Canada,,Canada,Canada
3178,Montbrison,Rhône-Alpes,France,,Central,EU
3179,Guaratinguetá,São Paulo,Brazil,,South,LATAM
3180,Flensburg,Schleswig-Holstein,Germany,,Central,EU
3181,Yangjiang,Guangdong,China,,North Asia,APAC
3182,Bujumbura,Bujumbura-Mairie,Burundi,,Africa,Africa
3183,Maastricht,Limburg,Netherlands,,Central,EU
3184,Laguna Niguel,California,United States,92677.0,West,US
3185,Puno,Puno,Peru,,South,LATAM
3186,Kismaayo,Jubbada Hoose,Somalia,,Africa,Africa
3187,Beaune,Burgundy,France,,Central,EU
3188,Pazardzhik,Pazardzhik,Bulgaria,,EMEA,EMEA
3189,Asahikawa,Hokkaido,Japan,,North Asia,APAC
3190,Linden,New Jersey,United States,7036.0,East,US
3191,Tabora,Tabora,Tanzania,,Africa,Africa
3192,Champaign,Illinois,United States,61821.0,Central,US
3193,Zihuatanejo,Guerrero,Mexico,,North,LATAM
3194,Jacobina,Bahia,Brazil,,South,LATAM
3195,Deyang,Sichuan,China,,North Asia,APAC
3196,Neuquén,Neuquén,Argentina,,South,LATAM
3197,Chatham,England,United Kingdom,,North,EU
3198,Inegol,Bursa,Turkey,,EMEA,EMEA
3199,Mopti,Mopti,Mali,,Africa,Africa
3200,Fianarantsoa,Haute-Matsiatra,Madagascar,,Africa,Africa
3201,Wausau,Wisconsin,United States,54401.0,Central,US
3202,Ichikawa,Chiba,Japan,,North Asia,APAC
3203,Cajamarca,Cajamarca,Peru,,South,LATAM
3204,Coachella,California,United States,92236.0,West,US
3205,Kortrijk,West Flanders,Belgium,,Central,EU
3206,Baqubah,Diyala,Iraq,,EMEA,EMEA
3207,Alessandria,Piedmont,Italy,,South,EU
3208,Gela,Sicily,Italy,,South,EU
3209,Parakou,Borgou,Benin,,Africa,Africa
3210,La Rioja,La Rioja,Argentina,,South,LATAM
3211,Jaworzno,Silesia,Poland,,EMEA,EMEA
3212,Bahía Blanca,Provincia de Buenos Aires,Argentina,,South,LATAM
3213,Ronchin,Nord-Pas-de-Calais,France,,Central,EU
3214,Rustenburg,North-West,South Africa,,Africa,Africa
3215,Chaumont,Champagne-Ardenne,France,,Central,EU
3216,Birobidzhan,Yevrey,Russia,,EMEA,EMEA
3217,Caraguatatuba,São Paulo,Brazil,,South,LATAM
3218,Peterborough,Ontario,Canada,,Canada,Canada
3219,Littleton,Colorado,United States,80122.0,West,US
3220,Samsun,Samsun,Turkey,,EMEA,EMEA
3221,Foshan,Guangdong,China,,North Asia,APAC
3222,Usol'ye-Sibirskoye,Irkutsk,Russia,,EMEA,EMEA
3223,Arad,Arad,Romania,,EMEA,EMEA
3224,West Jordan,Utah,United States,84084.0,West,US
3225,Nijmegen,Gelderland,Netherlands,,Central,EU
3226,Tatuí,São Paulo,Brazil,,South,LATAM
3227,Shushtar,Khuzestan,Iran,,EMEA,EMEA
3228,Kenner,Louisiana,United States,70065.0,South,US
3229,Maidstone,England,United Kingdom,,North,EU
3230,Villavicencio,Meta,Colombia,,South,LATAM
3231,Tongzhou,Beijing,China,,North Asia,APAC
3232,Bolingbrook,Illinois,United States,60440.0,Central,US
3233,Chioggia,Veneto,Italy,,South,EU
3234,Praia Grande,São Paulo,Brazil,,South,LATAM
3235,Pompano Beach,Florida,United States,33068.0,South,US
3236,Saginaw,Michigan,United States,48601.0,Central,US
3237,Disuq,Kafr Ash Shaykh,Egypt,,Africa,Africa
3238,Limay,Ile-de-France,France,,Central,EU
3239,Maltepe,Istanbul,Turkey,,EMEA,EMEA
3240,Changzhi,Shanxi,China,,North Asia,APAC
3241,Cambridge,Waikato,New Zealand,,Oceania,APAC
3242,Valle Hermoso,Tamaulipas,Mexico,,North,LATAM
3243,Zaoyang,Hubei,China,,North Asia,APAC
3244,Itapetininga,São Paulo,Brazil,,South,LATAM
3245,Pisa,Tuscany,Italy,,South,EU
3246,Jingdezhen,Jiangxi,China,,North Asia,APAC
3247,Mons-en-Baroeul,Nord-Pas-de-Calais,France,,Central,EU
3248,Saint-Laurent,Quebec,Canada,,Canada,Canada
3249,Carpentras,Provence-Alpes-Côte d'Azur,France,,Central,EU
3250,Chifeng,Inner Mongolia,China,,North Asia,APAC
3251,Hapur,Uttar Pradesh,India,,Central Asia,APAC
3252,Morogoro,Morogoro,Tanzania,,Africa,Africa
3253,Teziutlán,Puebla,Mexico,,North,LATAM
3254,Den Helder,North Holland,Netherlands,,Central,EU
3255,Shimoga,Karnataka,India,,Central Asia,APAC
3256,Annemasse,Rhône-Alpes,France,,Central,EU
3257,Sassari,Sardinia,Italy,,South,EU
3258,Corpus Christi,Texas,United States,78415.0,Central,US
3259,San Nicolás de los Arroyos,Provincia de Buenos Aires,Argentina,,South,LATAM
3260,Seraing,Liège,Belgium,,Central,EU
3261,Hilversum,North Holland,Netherlands,,Central,EU
3262,Zhangzhou,Fujian,China,,North Asia,APAC
3263,Melbourne,Florida,United States,32935.0,South,US
3264,Erzurum,Erzurum,Turkey,,EMEA,EMEA
3265,Iquique,Tarapacá,Chile,,South,LATAM
3266,Barcelona,Anzoátegui,Venezuela,,South,LATAM
3267,Votuporanga,São Paulo,Brazil,,South,LATAM
3268,Olomouc,Olomouc,Czech Republic,,EMEA,EMEA
3269,Gusau,Zamfara,Nigeria,,Africa,Africa
3270,Yanbu al Bahr,Al Madinah,Saudi Arabia,,EMEA,EMEA
3271,Clovis,New Mexico,United States,88101.0,West,US
3272,Loures,Lisboa,Portugal,,South,EU
3273,Upplands Väsby,Stockholm,Sweden,,North,EU
3274,Vesoul,Franche-Comté,France,,Central,EU
3275,Bloemfontein,Free State,South Africa,,Africa,Africa
3276,Várzea Grande,Mato Grosso,Brazil,,South,LATAM
3277,Huixquilucan,México,Mexico,,North,LATAM
3278,Luanshya,Copperbelt,Zambia,,Africa,Africa
3279,Sokode,Centrale,Togo,,Africa,Africa
3280,Liuyang,Hunan,China,,North Asia,APAC
3281,Barddhaman,West Bengal,India,,Central Asia,APAC
3282,Salta,Salta,Argentina,,South,LATAM
3283,Tallaght,South Dublin,Ireland,,North,EU
3284,Quartu Sant'Elena,Sardinia,Italy,,South,EU
3285,New Bedford,Massachusetts,United States,2740.0,East,US
3286,Soma,Manisa,Turkey,,EMEA,EMEA
3287,Imola,Emilia-Romagna,Italy,,South,EU
3288,Olivet,Centre,France,,Central,EU
3289,Bobigny,Ile-de-France,France,,Central,EU
3290,San Pedro,Calabarzon,Philippines,,Southeast Asia,APAC
3291,Ilam,Ilam,Iran,,EMEA,EMEA
3292,Red Deer,Alberta,Canada,,Canada,Canada
3293,Biarritz,Aquitaine,France,,Central,EU
3294,Modesto,California,United States,95351.0,West,US
3295,Torbat-e Heydariyeh,Razavi Khorasan,Iran,,EMEA,EMEA
3296,Stakhanov,Luhans'k,Ukraine,,EMEA,EMEA
3297,Polatsk,Vitsyebsk,Belarus,,EMEA,EMEA
3298,Abbeville,Picardy,France,,Central,EU
3299,Shizuishan,Ningxia,China,,North Asia,APAC
3300,Kumanovo,Kumanovo,Macedonia,,EMEA,EMEA
3301,Kiziltepe,Mardin,Turkey,,EMEA,EMEA
3302,Al Khums,Al Marqab,Libya,,Africa,Africa
3303,Helsingborg,Skåne,Sweden,,North,EU
3304,St. John's,Newfoundland,Canada,,Canada,Canada
3305,El Limón,Aragua,Venezuela,,South,LATAM
3306,Siauliai,iauliai,Lithuania,,EMEA,EMEA
3307,Sobral,Ceará,Brazil,,South,LATAM
3308,Kwangju,Gyeonggi,South Korea,,North Asia,APAC
3309,Craiova,Dolj,Romania,,EMEA,EMEA
3310,Baden-Baden,Baden-Württemberg,Germany,,Central,EU
3311,Cedar Hill,Texas,United States,75104.0,Central,US
3312,Orange,New Jersey,United States,7050.0,East,US
3313,Bury,England,United Kingdom,,North,EU
3314,Barasat,West Bengal,India,,Central Asia,APAC
3315,Alanya,Antalya,Turkey,,EMEA,EMEA
3316,Saint Paul,Minnesota,United States,55106.0,Central,US
3317,Bitonto,Apulia,Italy,,South,EU
3318,Fulda,Hesse,Germany,,Central,EU
3319,Melchor Ocampo,México,Mexico,,North,LATAM
3320,Savona,Liguria,Italy,,South,EU
3321,Graz,Styria,Austria,,EMEA,EMEA
3322,Borken,North Rhine-Westphalia,Germany,,Central,EU
3323,Fiumicino,Lazio,Italy,,South,EU
3324,Itu,São Paulo,Brazil,,South,LATAM
3325,Ordu,Ordu,Turkey,,EMEA,EMEA
3326,Mary,Mary,Turkmenistan,,EMEA,EMEA
3327,Salzburg,Salzburg,Austria,,EMEA,EMEA
3328,Hamar,Hedmark,Norway,,North,EU
3329,La Quinta,California,United States,92253.0,West,US
3330,Linares,Nuevo León,Mexico,,North,LATAM
3331,Ghaziabad,Uttar Pradesh,India,,Central Asia,APAC
3332,Shangqiu,Henan,China,,North Asia,APAC
3333,Hickory,North Carolina,United States,28601.0,South,US
3334,Hillsboro,Oregon,United States,97123.0,West,US
3335,Kalisz,Greater Poland,Poland,,EMEA,EMEA
3336,Gulfport,Mississippi,United States,39503.0,South,US
3337,Ivano-Frankivs'k,Ivano-Frankivsk,Ukraine,,EMEA,EMEA
3338,Laurel,Maryland,United States,20707.0,East,US
3339,Cassilândia,Mato Grosso do Sul,Brazil,,South,LATAM
3340,Schweinfurt,Bavaria,Germany,,Central,EU
3341,Benoni,Gauteng,South Africa,,Africa,Africa
3342,Kandi,Alibori,Benin,,Africa,Africa
3343,Isparta,Isparta,Turkey,,EMEA,EMEA
3344,Loum,Littoral,Cameroon,,Africa,Africa
3345,Bagamoyo,Pwani,Tanzania,,Africa,Africa
3346,Goldsboro,North Carolina,United States,27534.0,South,US
3347,Homestead,Florida,United States,33030.0,South,US
3348,Trujillo,La Libertad,Peru,,South,LATAM
3349,Cabimas,Zulia,Venezuela,,South,LATAM
3350,Koforidua,Eastern,Ghana,,Africa,Africa
3351,New Albany,Indiana,United States,47150.0,Central,US
3352,Bloomington,Indiana,United States,47401.0,Central,US
3353,Mubi,Adamawa,Nigeria,,Africa,Africa
3354,Rimini,Emilia-Romagna,Italy,,South,EU
3355,Manacapuru,Amazonas,Brazil,,South,LATAM
3356,Ekibastuz,Pavlodar,Kazakhstan,,EMEA,EMEA
3357,Santa Clara,California,United States,95051.0,West,US
3358,Vila Nova de Gaia,Porto,Portugal,,South,EU
3359,Anyang,Henan,China,,North Asia,APAC
3360,Harlow,England,United Kingdom,,North,EU
3361,La Ciotat,Provence-Alpes-Côte d'Azur,France,,Central,EU
3362,Coari,Amazonas,Brazil,,South,LATAM
3363,Hattingen,North Rhine-Westphalia,Germany,,Central,EU
3364,Zilina,ilina,Slovakia,,EMEA,EMEA
3365,Kocaeli,Kocaeli,Turkey,,EMEA,EMEA
3366,Kukatpalli,Telangana,India,,Central Asia,APAC
3367,Huaihua,Hunan,China,,North Asia,APAC
3368,Arapongas,Parana,Brazil,,South,LATAM
3369,Babol,Mazandaran,Iran,,EMEA,EMEA
3370,Faches-Thumesnil,Nord-Pas-de-Calais,France,,Central,EU
3371,Saint-Pierre-des-Corps,Centre,France,,Central,EU
3372,Lo Prado,Santiago,Chile,,South,LATAM
3373,Coxs B?z?r,Chittagong,Bangladesh,,Central Asia,APAC
3374,Owo,Ondo,Nigeria,,Africa,Africa
3375,Pierrefitte-sur-Seine,Ile-de-France,France,,Central,EU
3376,Tuscaloosa,Alabama,United States,35401.0,South,US
3377,Santarém,Pará,Brazil,,South,LATAM
3378,Ilesha,Osun,Nigeria,,Africa,Africa
3379,Yuanjiang,Hunan,China,,North Asia,APAC
3380,East Point,Georgia,United States,30344.0,South,US
3381,Bento Gonçalves,Rio Grande do Sul,Brazil,,South,LATAM
3382,Cottage Grove,Minnesota,United States,55016.0,Central,US
3383,Apple Valley,Minnesota,United States,55124.0,Central,US
3384,Atsugacho,Hokkaido,Japan,,North Asia,APAC
3385,Longjumeau,Ile-de-France,France,,Central,EU
3386,Eagan,Minnesota,United States,55122.0,Central,US
3387,Itaituba,Pará,Brazil,,South,LATAM
3388,Pitesti,Arges,Romania,,EMEA,EMEA
3389,Kumba,Sud-Ouest,Cameroon,,Africa,Africa
3390,Tongchuan,Sichuan,China,,North Asia,APAC
3391,Leominster,Massachusetts,United States,1453.0,East,US
3392,Matehuala,San Luis Potosí,Mexico,,North,LATAM
3393,Ajman,'Ajman,United Arab Emirates,,EMEA,EMEA
3394,Umraniye,Istanbul,Turkey,,EMEA,EMEA
3395,Hachinohe,Aomori,Japan,,North Asia,APAC
3396,Gillingham,England,United Kingdom,,North,EU
3397,Waterloo,Ontario,Canada,,Canada,Canada
3398,Guamúchil,Sinaloa,Mexico,,North,LATAM
3399,Bechar,Bechar,Algeria,,Africa,Africa
3400,Palhoça,Santa Catarina,Brazil,,South,LATAM
3401,Cruzeiro do Sul,Acre,Brazil,,South,LATAM
3402,Murfreesboro,Tennessee,United States,37130.0,South,US
3403,Toguchin,Novosibirsk,Russia,,EMEA,EMEA
3404,Tembisa,Gauteng,South Africa,,Africa,Africa
3405,Denain,Nord-Pas-de-Calais,France,,Central,EU
3406,Lodi,California,United States,95240.0,West,US
3407,Englewood,Colorado,United States,80112.0,West,US
3408,Baoding,Hebei,China,,North Asia,APAC
3409,Thousand Oaks,California,United States,91360.0,West,US
3410,Berdychiv,Zhytomyr,Ukraine,,EMEA,EMEA
3411,Schiffweiler,Saarland,Germany,,Central,EU
3412,Penglai,Shandong,China,,North Asia,APAC
3413,Elda,Valenciana,Spain,,South,EU
3414,Bideford,England,United Kingdom,,North,EU
3415,Bayonne,New Jersey,United States,7002.0,East,US
3416,Chaohu,Anhui,China,,North Asia,APAC
3417,Jefferson City,Missouri,United States,65109.0,Central,US
3418,Amagasaki,Hyogo,Japan,,North Asia,APAC
3419,Menemen,Izmir,Turkey,,EMEA,EMEA
3420,Focsani,Vrancea,Romania,,EMEA,EMEA
3421,Tekirdag,Tekirdag,Turkey,,EMEA,EMEA
3422,Kadoma,Mashonaland West,Zimbabwe,,Africa,Africa
3423,Mason,Ohio,United States,45040.0,East,US
3424,Piura,Piura,Peru,,South,LATAM
3425,Paisley,Scotland,United Kingdom,,North,EU
3426,Junín,Provincia de Buenos Aires,Argentina,,South,LATAM
3427,Gosport,England,United Kingdom,,North,EU
3428,Ulundi,Kwazulu-natal,South Africa,,Africa,Africa
3429,Keren,Anseba,Eritrea,,Africa,Africa
3430,Le Pré-Saint-Gervais,Ile-de-France,France,,Central,EU
3431,Be'er Sheva,Southern,Israel,,EMEA,EMEA
3432,Alkmaar,North Holland,Netherlands,,Central,EU
3433,Bata,Litoral,Equatorial Guinea,,Africa,Africa
3434,Urbandale,Iowa,United States,50322.0,Central,US
3435,Gujrat,Punjab,Pakistan,,Central Asia,APAC
3436,Stanger,Kwazulu-natal,South Africa,,Africa,Africa
3437,Pickering,Ontario,Canada,,Canada,Canada
3438,Aksaray,Aksaray,Turkey,,EMEA,EMEA
3439,Amasya,Amasya,Turkey,,EMEA,EMEA
3440,Taixing,Jiangsu,China,,North Asia,APAC
3441,Moissy-Cramayel,Ile-de-France,France,,Central,EU
3442,Abuja,Abuja Capital Territory,Nigeria,,Africa,Africa
3443,Vlaardingen,South Holland,Netherlands,,Central,EU
3444,Thomasville,North Carolina,United States,27360.0,South,US
3445,eMbalenhle,Mpumalanga,South Africa,,Africa,Africa
3446,Lisichansk,Luhans'k,Ukraine,,EMEA,EMEA
3447,Silopi,Sirnak,Turkey,,EMEA,EMEA
3448,Siirt,Siirt,Turkey,,EMEA,EMEA
3449,Tete,Tete,Mozambique,,Africa,Africa
3450,Mosquera,Cundinamarca,Colombia,,South,LATAM
3451,Faenza,Emilia-Romagna,Italy,,South,EU
3452,Ouidah,Atlantique,Benin,,Africa,Africa
3453,Mpumalanga,Kwazulu-natal,South Africa,,Africa,Africa
3454,Vitória de Santo Antão,Pernambuco,Brazil,,South,LATAM
3455,Barranca,Lima,Peru,,South,LATAM
3456,Malden,Massachusetts,United States,2148.0,East,US
3457,Namibe,Namibe,Angola,,Africa,Africa
3458,Marysville,Washington,United States,98270.0,West,US
3459,Dartmouth,Nova Scotia,Canada,,Canada,Canada
3460,Bracknell,England,United Kingdom,,North,EU
3461,Roosendaal,North Brabant,Netherlands,,Central,EU
3462,Vanadzor,Lori,Armenia,,EMEA,EMEA
3463,Foligno,Umbria,Italy,,South,EU
3464,Agde,Languedoc-Roussillon,France,,Central,EU
3465,Vence,Provence-Alpes-Côte d'Azur,France,,Central,EU
3466,Frederiksberg,Hovedstaden,Denmark,,North,EU
3467,Andover,Massachusetts,United States,1810.0,East,US
3468,Sidi Qacem,Gharb-Chrarda-Béni Hssen,Morocco,,Africa,Africa
3469,Yiyang,Hunan,China,,North Asia,APAC
3470,Kafr ad Dawwar,Al Buhayrah,Egypt,,Africa,Africa
3471,Coquitlam,British Columbia,Canada,,Canada,Canada
3472,Apucarana,Parana,Brazil,,South,LATAM
3473,Forst,Brandenburg,Germany,,Central,EU
3474,Makeni,Northern,Sierra Leone,,Africa,Africa
3475,Chiclayo,Lambayeque,Peru,,South,LATAM
3476,New Castle,Indiana,United States,47362.0,Central,US
3477,Coral Gables,Florida,United States,33134.0,South,US
3478,Cumbernauld,Scotland,United Kingdom,,North,EU
3479,Mesquite,Texas,United States,75150.0,Central,US
3480,Tuzla,Federation of Bosnia and Herzegovina,Bosnia and Herzegovina,,EMEA,EMEA
3481,Quanzhou,Fujian,China,,North Asia,APAC
3482,Split,Splitsko-Dalmatinska,Croatia,,EMEA,EMEA
3483,Apartadó,Antioquia,Colombia,,South,LATAM
3484,Nal'chik,Kabardino-Balkariya,Russia,,EMEA,EMEA
3485,Busto Arsizio,Lombardy,Italy,,South,EU
3486,Ipatinga,Minas Gerais,Brazil,,South,LATAM
3487,Manresa,Catalonia,Spain,,South,EU
3488,Ugep,Cross River,Nigeria,,Africa,Africa
3489,Maroua,Extreme-Nord,Cameroon,,Africa,Africa
3490,Redwood City,California,United States,94061.0,West,US
3491,Carapicuíba,São Paulo,Brazil,,South,LATAM
3492,Siena,Tuscany,Italy,,South,EU
3493,Concepción del Uruguay,Entre Ríos,Argentina,,South,LATAM
3494,Samalut,Al Minya,Egypt,,Africa,Africa
3495,Botshabelo,Free State,South Africa,,Africa,Africa
3496,San Carlos del Zulia,Zulia,Venezuela,,South,LATAM
3497,Facatativá,Cundinamarca,Colombia,,South,LATAM
3498,Sterling Heights,Michigan,United States,48310.0,Central,US
3499,Uman',Cherkasy,Ukraine,,EMEA,EMEA
3500,Funtua,Katsina,Nigeria,,Africa,Africa
3501,San Clemente,California,United States,92672.0,West,US
3502,Cluses,Rhône-Alpes,France,,Central,EU
3503,Afragola,Campania,Italy,,South,EU
3504,Tapachula,Chiapas,Mexico,,North,LATAM
3505,Chalinze,Pwani,Tanzania,,Africa,Africa
3506,Aracati,Ceará,Brazil,,South,LATAM
3507,Weihai,Shandong,China,,North Asia,APAC
3508,Rogers,Arkansas,United States,72756.0,South,US
3509,Cercola,Campania,Italy,,South,EU
3510,Stafford,England,United Kingdom,,North,EU
3511,São Benedito,Ceará,Brazil,,South,LATAM
3512,Itapeva,São Paulo,Brazil,,South,LATAM
3513,Liberec,Liberec,Czech Republic,,EMEA,EMEA
3514,Lindenhurst,New York,United States,11757.0,East,US
3515,Silao,Guanajuato,Mexico,,North,LATAM
3516,La Porte,Texas,United States,77571.0,Central,US
3517,Douarnenez,Brittany,France,,Central,EU
3518,Modena,Emilia-Romagna,Italy,,South,EU
3519,Montebello,California,United States,90640.0,West,US
3520,São Vicente,São Paulo,Brazil,,South,LATAM
3521,Chalus,Mazandaran,Iran,,EMEA,EMEA
3522,Plock,Masovia,Poland,,EMEA,EMEA
3523,Usti nad Labem,Usti nad Labem,Czech Republic,,EMEA,EMEA
3524,Deva,Hunedoara,Romania,,EMEA,EMEA
3525,Mantes-la-Ville,Ile-de-France,France,,Central,EU
3526,Melilla,Melilla,Spain,,South,EU
3527,Suresnes,Ile-de-France,France,,Central,EU
3528,Tulle,Limousin,France,,Central,EU
3529,West Palm Beach,Florida,United States,33407.0,South,US
3530,Rock Hill,South Carolina,United States,29730.0,South,US
3531,Tinaquillo,Cojedes,Venezuela,,South,LATAM
3532,Jinja,Jinja,Uganda,,Africa,Africa
3533,Chuncheon,Gangwon,South Korea,,North Asia,APAC
3534,Kasama,Northern,Zambia,,Africa,Africa
3535,Charlottesville,Virginia,United States,22901.0,South,US
3536,Gombe,Gombe,Nigeria,,Africa,Africa
3537,Klaipeda,Klaipeda,Lithuania,,EMEA,EMEA
3538,Shelton,Connecticut,United States,6484.0,East,US
3539,Jiaohe,Jilin,China,,North Asia,APAC
3540,Aberdeen,South Dakota,United States,57401.0,Central,US
3541,Rohtak,Haryana,India,,Central Asia,APAC
3542,Grapevine,Texas,United States,76051.0,Central,US
3543,El Jadida,Doukkala-Abda,Morocco,,Africa,Africa
3544,Bafra,Samsun,Turkey,,EMEA,EMEA
3545,Salihli,Manisa,Turkey,,EMEA,EMEA
3546,Campo Limpo Paulista,São Paulo,Brazil,,South,LATAM
3547,Etawah,Uttar Pradesh,India,,Central Asia,APAC
3548,Cidade Ocidental,Goiás,Brazil,,South,LATAM
3549,Hagerstown,Maryland,United States,21740.0,East,US
3550,Venlo,Limburg,Netherlands,,Central,EU
3551,Sierra Vista,Arizona,United States,85635.0,West,US
3552,Riom,Auvergne,France,,Central,EU
3553,Leoben,Styria,Austria,,EMEA,EMEA
3554,Yucaipa,California,United States,92399.0,West,US
3555,Vereeniging,Gauteng,South Africa,,Africa,Africa
3556,Mérida,Mérida,Venezuela,,South,LATAM
3557,Pato Branco,Parana,Brazil,,South,LATAM
3558,Dronfield,England,United Kingdom,,North,EU
3559,Boca Raton,Florida,United States,33433.0,South,US
3560,Viroflay,Ile-de-France,France,,Central,EU
3561,Yuyao,Zhejiang,China,,North Asia,APAC
3562,Mogi das Cruzes,São Paulo,Brazil,,South,LATAM
3563,Riberalta,Beni,Bolivia,,South,LATAM
3564,Benxi,Liaoning,China,,North Asia,APAC
3565,Sonderborg,South Denmark,Denmark,,North,EU
3566,Logan,Utah,United States,84321.0,West,US
3567,Londrina,Parana,Brazil,,South,LATAM
3568,Blanquefort,Aquitaine,France,,Central,EU
3569,Ferndown,England,United Kingdom,,North,EU
3570,Araucária,Parana,Brazil,,South,LATAM
3571,Vigevano,Lombardy,Italy,,South,EU
3572,Ambattur,Tamil Nadu,India,,Central Asia,APAC
3573,Iranshahr,Sistan Va Baluchestan,Iran,,EMEA,EMEA
3574,Lomme,Nord-Pas-de-Calais,France,,Central,EU
3575,Owensboro,Kentucky,United States,42301.0,South,US
3576,Berrechid,Chaouia-Ouardigha,Morocco,,Africa,Africa
3577,Blagoveshchensk,Bashkortostan,Russia,,EMEA,EMEA
3578,Segovia,Castile and León,Spain,,South,EU
3579,Burlington,Iowa,United States,52601.0,Central,US
3580,Dax,Aquitaine,France,,Central,EU
3581,Sokoto,Sokoto,Nigeria,,Africa,Africa
3582,Ardahan,Ardahan,Turkey,,EMEA,EMEA
3583,Cuneo,Piedmont,Italy,,South,EU
3584,Longview,Washington,United States,98632.0,West,US
3585,Morón,Ciego de Ávila,Cuba,,Caribbean,LATAM
3586,Saint-Gratien,Ile-de-France,France,,Central,EU
3587,Aligudarz,Lorestan,Iran,,EMEA,EMEA
3588,Pemba,Cabo Delgado,Mozambique,,Africa,Africa
3589,Pitalito,Huila,Colombia,,South,LATAM
3590,Guelmim,Guelmim-Es Semara,Morocco,,Africa,Africa
3591,Gatineau,Quebec,Canada,,Canada,Canada
3592,Cheonan,South Chungcheong,South Korea,,North Asia,APAC
3593,Ar Raqqah,Ar Raqqah,Syria,,EMEA,EMEA
3594,Campina Grande,Paraíba,Brazil,,South,LATAM
3595,Zwickau,Saxony,Germany,,Central,EU
3596,Yalova,Yalova,Turkey,,EMEA,EMEA
3597,Pleven,Pleven,Bulgaria,,EMEA,EMEA
3598,Akhisar,Manisa,Turkey,,EMEA,EMEA
3599,Suceava,Suceava,Romania,,EMEA,EMEA
3600,Abeokuta,Ogun,Nigeria,,Africa,Africa
3601,Chapel Allerton,England,United Kingdom,,North,EU
3602,Toliara,Atsimo-Andrefana,Madagascar,,Africa,Africa
3603,Volksrust,Mpumalanga,South Africa,,Africa,Africa
3604,Veenendaal,Utrecht,Netherlands,,Central,EU
3605,Camaragibe,Pernambuco,Brazil,,South,LATAM
3606,Yuncheng,Shanxi,China,,North Asia,APAC
3607,Santa Fe,New Mexico,United States,87505.0,West,US
3608,San Antonio,Valparaíso,Chile,,South,LATAM
3609,Crotone,Calabria,Italy,,South,EU
3610,Montigny-le-Bretonneux,Ile-de-France,France,,Central,EU
3611,Sabanalarga,Atlántico,Colombia,,South,LATAM
3612,Uberlândia,Minas Gerais,Brazil,,South,LATAM
3613,Chilly-Mazarin,Ile-de-France,France,,Central,EU
3614,Malanje,Malanje,Angola,,Africa,Africa
3615,Langfang,Hebei,China,,North Asia,APAC
3616,Cúa,Miranda,Venezuela,,South,LATAM
3617,Anjo,Aichi,Japan,,North Asia,APAC
3618,Khasavyurt,Dagestan,Russia,,EMEA,EMEA
3619,Simões Filho,Bahia,Brazil,,South,LATAM
3620,Lattes,Languedoc-Roussillon,France,,Central,EU
3621,Bonao,Monseñor Nouel,Dominican Republic,,Caribbean,LATAM
3622,Garland,Texas,United States,75043.0,Central,US
3623,Frisco,Texas,United States,75034.0,Central,US
3624,Antioch,California,United States,94509.0,West,US
3625,Epworth,Harare,Zimbabwe,,Africa,Africa
3626,Igurusi,Mbeya,Tanzania,,Africa,Africa
3627,La Crau,Provence-Alpes-Côte d'Azur,France,,Central,EU
3628,Parintins,Amazonas,Brazil,,South,LATAM
3629,Toamasina,Atsinanana,Madagascar,,Africa,Africa
3630,Peer,Limburg,Belgium,,Central,EU
3631,Liaoyuan,Jilin,China,,North Asia,APAC
3632,Darlington,England,United Kingdom,,North,EU
3633,Narsingdi,Dhaka,Bangladesh,,Central Asia,APAC
3634,Katsina,Katsina,Nigeria,,Africa,Africa
3635,Lambaré,Central,Paraguay,,South,LATAM
3636,West Allis,Wisconsin,United States,53214.0,Central,US
3637,Escondido,California,United States,92025.0,West,US
3638,Digne-les-Bains,Provence-Alpes-Côte d'Azur,France,,Central,EU
3639,Bharatpur,Rajasthan,India,,Central Asia,APAC
3640,Novo Cruzeiro,Minas Gerais,Brazil,,South,LATAM
3641,Ulan Bator,Ulaanbaatar,Mongolia,,North Asia,APAC
3642,Araraquara,São Paulo,Brazil,,South,LATAM
3643,Boksburg,Gauteng,South Africa,,Africa,Africa
3644,Igarassu,Pernambuco,Brazil,,South,LATAM
3645,Los Ángeles,Biobio,Chile,,South,LATAM
3646,Saint-Jean-de-la-Ruelle,Centre,France,,Central,EU
3647,Kara,Kara,Togo,,Africa,Africa
3648,Loos,Nord-Pas-de-Calais,France,,Central,EU
3649,Danville,Illinois,United States,61832.0,Central,US
3650,Waukesha,Wisconsin,United States,53186.0,Central,US
3651,Rivera,Rivera,Uruguay,,South,LATAM
3652,Bartlett,Tennessee,United States,38134.0,South,US
3653,Birjand,South Khorasan,Iran,,EMEA,EMEA
3654,Detmold,North Rhine-Westphalia,Germany,,Central,EU
3655,Binzhou,Shandong,China,,North Asia,APAC
3656,Nashua,New Hampshire,United States,3060.0,East,US
3657,Zwedru,Grand Gedeh,Liberia,,Africa,Africa
3658,Akhmim,Suhaj,Egypt,,Africa,Africa
3659,Cuenca,Castile-La Mancha,Spain,,South,EU
3660,Viransehir,Sanliurfa,Turkey,,EMEA,EMEA
3661,Guarenas,Miranda,Venezuela,,South,LATAM
3662,El Tigre,Anzoátegui,Venezuela,,South,LATAM
3663,Varamin,Tehran,Iran,,EMEA,EMEA
3664,Larache,Tanger-Tétouan,Morocco,,Africa,Africa
3665,San Fernando del Valle de Catamarca,Catamarca,Argentina,,South,LATAM
3666,Nysa,Opole,Poland,,EMEA,EMEA
3667,Battipaglia,Campania,Italy,,South,EU
3668,Andria,Apulia,Italy,,South,EU
3669,Castellammare di Stabia,Campania,Italy,,South,EU
3670,Cubuk,Ankara,Turkey,,EMEA,EMEA
3671,St. Gallen,St. Gallen,Switzerland,,Central,EU
3672,Cubatão,São Paulo,Brazil,,South,LATAM
3673,Günzburg,Bavaria,Germany,,Central,EU
3674,Pouso Alegre,Minas Gerais,Brazil,,South,LATAM
3675,Bergerac,Aquitaine,France,,Central,EU
3676,Gurupi,Tocantins,Brazil,,South,LATAM
3677,Fontenay-le-Comte,Pays de la Loire,France,,Central,EU
3678,Cagua,Aragua,Venezuela,,South,LATAM
3679,Bozeman,Montana,United States,59715.0,West,US
3680,Paita,Piura,Peru,,South,LATAM
3681,Talara,Piura,Peru,,South,LATAM
3682,Yangquan,Shanxi,China,,North Asia,APAC
3683,Suizhou,Hubei,China,,North Asia,APAC
3684,Kidderminster,England,United Kingdom,,North,EU
3685,Mount Pleasant,Michigan,United States,48858.0,Central,US
3686,Cape Coast,Central,Ghana,,Africa,Africa
3687,Catalão,Goiás,Brazil,,South,LATAM
3688,Ueda,Nagano,Japan,,North Asia,APAC
3689,Portage,Indiana,United States,46368.0,Central,US
3690,Afyon,Afyonkarahisar,Turkey,,EMEA,EMEA
3691,Karaman,Karaman,Turkey,,EMEA,EMEA
3692,Chigasaki,Kanagawa,Japan,,North Asia,APAC
3693,Bridgeton,New Jersey,United States,8302.0,East,US
3694,Al Hudaydah,Al Hudaydah,Yemen,,EMEA,EMEA
3695,Krasnyy Luch,Luhans'k,Ukraine,,EMEA,EMEA
3696,Kalush,Ivano-Frankivsk,Ukraine,,EMEA,EMEA
3697,La Chapelle-sur-Erdre,Pays de la Loire,France,,Central,EU
3698,Kita-ku,Hyogo,Japan,,North Asia,APAC
3699,Medford,Oregon,United States,97504.0,West,US
3700,Nguigmi,Diffa,Niger,,Africa,Africa
3701,Akure,Ondo,Nigeria,,Africa,Africa
3702,Latur,Maharashtra,India,,Central Asia,APAC
3703,Tinley Park,Illinois,United States,60477.0,Central,US
3704,Altoona,Pennsylvania,United States,16602.0,East,US
3705,Dole,Franche-Comté,France,,Central,EU
3706,Lagny-sur-Marne,Ile-de-France,France,,Central,EU
3707,Falconara Marittima,Marche,Italy,,South,EU
3708,Kastamonu,Kastamonu,Turkey,,EMEA,EMEA
3709,Kilis,Kilis,Turkey,,EMEA,EMEA
3710,Neyshabur,Razavi Khorasan,Iran,,EMEA,EMEA
3711,Karnal,Haryana,India,,Central Asia,APAC
3712,Resita,Caras-Severin,Romania,,EMEA,EMEA
3713,Illkirch-Graffenstaden,Alsace,France,,Central,EU
3714,Linhares,Espírito Santo,Brazil,,South,LATAM
3715,Ponteareas,Galicia,Spain,,South,EU
3716,Hebi,Henan,China,,North Asia,APAC
3717,Gorzow Wielkopolski,Lubusz,Poland,,EMEA,EMEA
3718,Sheboygan,Wisconsin,United States,53081.0,Central,US
3719,Leiden,South Holland,Netherlands,,Central,EU
3720,Usak,Usak,Turkey,,EMEA,EMEA
3721,Calabozo,Guárico,Venezuela,,South,LATAM
3722,Jaboticabal,São Paulo,Brazil,,South,LATAM
3723,Huaraz,Ancash,Peru,,South,LATAM
3724,Kakinada,Andhra Pradesh,India,,Central Asia,APAC
3725,Bellevue,Washington,United States,98006.0,West,US
3726,Taldyqorghan,Almaty,Kazakhstan,,EMEA,EMEA
3727,Brantford,Ontario,Canada,,Canada,Canada
3728,Zaozhuang,Shandong,China,,North Asia,APAC
3729,Sinop,Mato Grosso,Brazil,,South,LATAM
3730,Korce,Korçë,Albania,,EMEA,EMEA
3731,Teramo,Abruzzi,Italy,,South,EU
3732,Krugersdorp,Gauteng,South Africa,,Africa,Africa
3733,Ambon,Maluku,Indonesia,,Southeast Asia,APAC
3734,Danbury,Connecticut,United States,6810.0,East,US
3735,Yopal,Casanare,Colombia,,South,LATAM
3736,Morley,England,United Kingdom,,North,EU
3737,Avon,Ile-de-France,France,,Central,EU
3738,Fujisawa,Kanagawa,Japan,,North Asia,APAC
3739,Voiron,Rhône-Alpes,France,,Central,EU
3740,Davis,California,United States,95616.0,West,US
3741,Necochea,Provincia de Buenos Aires,Argentina,,South,LATAM
3742,San Cristóbal,Táchira,Venezuela,,South,LATAM
3743,Redmond,Washington,United States,98052.0,West,US
3744,Maxixe,Inhambane,Mozambique,,Africa,Africa
3745,Guarapuava,Parana,Brazil,,South,LATAM
3746,Vitória da Conquista,Bahia,Brazil,,South,LATAM
3747,Xiantao,Hubei,China,,North Asia,APAC
3748,Marsa Matruh,Matruh,Egypt,,Africa,Africa
3749,Burlington,Ontario,Canada,,Canada,Canada
3750,Ragusa,Sicily,Italy,,South,EU
3751,Cestas,Aquitaine,France,,Central,EU
3752,Lewiston,Maine,United States,4240.0,East,US
3753,Renqiu,Hebei,China,,North Asia,APAC
3754,Sète,Languedoc-Roussillon,France,,Central,EU
3755,Tottori,Tottori,Japan,,North Asia,APAC
3756,Semnan,Semnan,Iran,,EMEA,EMEA
3757,Crato,Ceará,Brazil,,South,LATAM
3758,Osijek,Osjecko-Baranjska,Croatia,,EMEA,EMEA
3759,Rize,Rize,Turkey,,EMEA,EMEA
3760,Altotonga,Veracruz,Mexico,,North,LATAM
3761,Cosmópolis,São Paulo,Brazil,,South,LATAM
3762,Greeley,Colorado,United States,80634.0,West,US
3763,Manfredonia,Apulia,Italy,,South,EU
3764,Massa,Tuscany,Italy,,South,EU
3765,Randers,Central Jutland,Denmark,,North,EU
3766,Royal Oak,Michigan,United States,48073.0,Central,US
3767,Taraz,Zhambyl,Kazakhstan,,EMEA,EMEA
3768,Jataí,Goiás,Brazil,,South,LATAM
3769,Aix-les-Bains,Rhône-Alpes,France,,Central,EU
3770,Billings,Montana,United States,59102.0,West,US
3771,Abakaliki,Ebonyi,Nigeria,,Africa,Africa
3772,Shahjahanpur,Uttar Pradesh,India,,Central Asia,APAC
3773,Izúcar de Matamoros,Puebla,Mexico,,North,LATAM
3774,Seropédica,Rio de Janeiro,Brazil,,South,LATAM
3775,Chapel Hill,North Carolina,United States,27514.0,South,US
3776,Rehovot,Central,Israel,,EMEA,EMEA
3777,Montería,Córdoba,Colombia,,South,LATAM
3778,Margate,Florida,United States,33063.0,South,US
3779,Dublin,California,United States,94568.0,West,US
3780,Sorgues,Provence-Alpes-Côte d'Azur,France,,Central,EU
3781,Cizre,Sirnak,Turkey,,EMEA,EMEA
3782,Aydin,Aydin,Turkey,,EMEA,EMEA
3783,Kigoma,Kigoma,Tanzania,,Africa,Africa
3784,Oss,North Brabant,Netherlands,,Central,EU
3785,Odivelas,Lisboa,Portugal,,South,EU
3786,Gonabad,Razavi Khorasan,Iran,,EMEA,EMEA
3787,Calama,Antofagasta,Chile,,South,LATAM
3788,Dar Chioukh,Djelfa,Algeria,,Africa,Africa
3789,Cuyahoga Falls,Ohio,United States,44221.0,East,US
3790,Missouri City,Texas,United States,77489.0,Central,US
3791,Loveland,Colorado,United States,80538.0,West,US
3792,Bitola,Bitola,Macedonia,,EMEA,EMEA
3793,Levin,Manawatu-Wanganui,New Zealand,,Oceania,APAC
3794,Edirne,Edirne,Turkey,,EMEA,EMEA
3795,Deer Park,Texas,United States,77536.0,Central,US
3796,North Miami,Florida,United States,33161.0,South,US
3797,Pernik,Pernik,Bulgaria,,EMEA,EMEA
3798,Gitarama,Southern,Rwanda,,Africa,Africa
3799,Pensacola,Florida,United States,32503.0,South,US
3800,Matsumoto,Nagano,Japan,,North Asia,APAC
3801,Jastrzebie Zdroj,Silesia,Poland,,EMEA,EMEA
3802,Franco da Rocha,São Paulo,Brazil,,South,LATAM
3803,Lokossa,Mono,Benin,,Africa,Africa
3804,Stadtlohn,North Rhine-Westphalia,Germany,,Central,EU
3805,Baytown,Texas,United States,77520.0,Central,US
3806,Binzhou,Heilongjiang,China,,North Asia,APAC
3807,Waterloo,Iowa,United States,50701.0,Central,US
3808,Bullhead City,Arizona,United States,86442.0,West,US
3809,Envigado,Antioquia,Colombia,,South,LATAM
3810,New Delhi,Delhi,India,,Central Asia,APAC
3811,Midyat,Mardin,Turkey,,EMEA,EMEA
3812,Mutare,Manicaland,Zimbabwe,,Africa,Africa
3813,Port Orange,Florida,United States,32127.0,South,US
3814,Arlington Heights,Illinois,United States,60004.0,Central,US
3815,Obninsk,Kaluga,Russia,,EMEA,EMEA
3816,New Brunswick,New Jersey,United States,8901.0,East,US
3817,Kafr ash Shaykh,Kafr Ash Shaykh,Egypt,,Africa,Africa
3818,Norfolk,Nebraska,United States,68701.0,Central,US
3819,Zhlobin,Homyel',Belarus,,EMEA,EMEA
3820,Iowa City,Iowa,United States,52240.0,Central,US
3821,Grand Island,Nebraska,United States,68801.0,Central,US
3822,Springdale,Arkansas,United States,72762.0,South,US
3823,Keller,Texas,United States,76248.0,Central,US
3824,Oak Park,Illinois,United States,60302.0,Central,US
3825,Barrie,Ontario,Canada,,Canada,Canada
3826,Sorriso,Mato Grosso,Brazil,,South,LATAM
3827,Millau,Midi-Pyrénées,France,,Central,EU
3828,Atlantic City,New Jersey,United States,8401.0,East,US
3829,Al Manaqil,Gezira,Sudan,,Africa,Africa
3830,Romeoville,Illinois,United States,60441.0,Central,US
3831,Torremolinos,Andalusía,Spain,,South,EU
3832,Buriticupu,Maranhão,Brazil,,South,LATAM
3833,Fort Portal,Kabarole,Uganda,,Africa,Africa
3834,Vanderbijlpark,Gauteng,South Africa,,Africa,Africa
3835,Tartagal,Salta,Argentina,,South,LATAM
3836,Layton,Utah,United States,84041.0,West,US
3837,Elyria,Ohio,United States,44035.0,East,US
3838,Jupiter,Florida,United States,33458.0,South,US
3839,Everett,Washington,United States,98208.0,West,US
3840,Osny,Ile-de-France,France,,Central,EU
3841,Auburn,Washington,United States,98002.0,West,US
3842,Ormond Beach,Florida,United States,32174.0,South,US
3843,San Luis Obispo,California,United States,93405.0,West,US
3844,Abilene,Texas,United States,79605.0,Central,US
3845,Felahiye,Kayseri,Turkey,,EMEA,EMEA
3846,Lewiston,Idaho,United States,83501.0,West,US
3847,Victoria Falls,Matabeleland North,Zimbabwe,,Africa,Africa
